{
  "type": "FeatureCollection",
  "properties": {
    "track_count": 4,
    "voyage_count": 1,
    "distance_nm": 157.5
  },
  "features": [
    {
      "type": "Feature",
      "properties": {
        "name": "Aurora Delivery. Passage 1",
        "source": "2026/delivery-denmark-germany/2026.09.01 Aurora Delivery. Passage 1.gpx",
        "year": "2026",
        "voyage_id": "2026/delivery-denmark-germany",
        "voyage_title": "Delivery Denmark Germany",
        "start": "2026-09-01T13:12:58Z",
        "end": "2026-09-01T21:30:43Z",
        "start_timezone": "Europe/Copenhagen",
        "end_timezone": "Europe/Copenhagen",
        "distance_nm": 45.31,
        "duration_hours": 8.3,
        "day_marks": [],
        "segment_count": 1,
        "original_points": 201,
        "simplified_points": 85,
        "tolerance_m": 20
      },
      "geometry": {
        "type": "LineString",
        "coordinates": [
          [
            12.39469,
            55.611655
          ],
          [
            12.39602,
            55.610883
          ],
          [
            12.403831,
            55.60888
          ],
          [
            12.405313,
            55.607569
          ],
          [
            12.406417,
            55.605261
          ],
          [
            12.412752,
            55.588479
          ],
          [
            12.415643,
            55.577668
          ],
          [
            12.416285,
            55.572598
          ],
          [
            12.418074,
            55.568024
          ],
          [
            12.418858,
            55.564382
          ],
          [
            12.425569,
            55.550391
          ],
          [
            12.426193,
            55.545811
          ],
          [
            12.429645,
            55.534485
          ],
          [
            12.430433,
            55.529465
          ],
          [
            12.433221,
            55.523445
          ],
          [
            12.436203,
            55.514311
          ],
          [
            12.437021,
            55.505481
          ],
          [
            12.442572,
            55.49299
          ],
          [
            12.443855,
            55.486359
          ],
          [
            12.44405,
            55.481116
          ],
          [
            12.446203,
            55.46732
          ],
          [
            12.452901,
            55.44734
          ],
          [
            12.45584,
            55.423523
          ],
          [
            12.458553,
            55.410647
          ],
          [
            12.459321,
            55.398442
          ],
          [
            12.465133,
            55.38378
          ],
          [
            12.469666,
            55.370218
          ],
          [
            12.472656,
            55.363586
          ],
          [
            12.47566,
            55.354433
          ],
          [
            12.481612,
            55.332459
          ],
          [
            12.486356,
            55.304115
          ],
          [
            12.498695,
            55.268893
          ],
          [
            12.501643,
            55.257262
          ],
          [
            12.506303,
            55.245482
          ],
          [
            12.50766,
            55.233671
          ],
          [
            12.511176,
            55.216531
          ],
          [
            12.519758,
            55.193975
          ],
          [
            12.522906,
            55.183869
          ],
          [
            12.529023,
            55.156111
          ],
          [
            12.529626,
            55.148763
          ],
          [
            12.533631,
            55.124258
          ],
          [
            12.534136,
            55.117687
          ],
          [
            12.535791,
            55.107834
          ],
          [
            12.537631,
            55.101671
          ],
          [
            12.539013,
            55.094351
          ],
          [
            12.543219,
            55.082133
          ],
          [
            12.548977,
            55.069722
          ],
          [
            12.556687,
            55.0502
          ],
          [
            12.558848,
            55.042177
          ],
          [
            12.559983,
            55.035531
          ],
          [
            12.56674,
            55.013269
          ],
          [
            12.569084,
            55.003022
          ],
          [
            12.569946,
            54.994233
          ],
          [
            12.569668,
            54.977846
          ],
          [
            12.568556,
            54.968483
          ],
          [
            12.568857,
            54.965783
          ],
          [
            12.568464,
            54.965059
          ],
          [
            12.564274,
            54.961236
          ],
          [
            12.560009,
            54.955282
          ],
          [
            12.55742,
            54.953334
          ],
          [
            12.556139,
            54.949183
          ],
          [
            12.555457,
            54.948362
          ],
          [
            12.546731,
            54.94354
          ],
          [
            12.543931,
            54.943352
          ],
          [
            12.540455,
            54.942296
          ],
          [
            12.538348,
            54.941151
          ],
          [
            12.536346,
            54.941209
          ],
          [
            12.530485,
            54.940045
          ],
          [
            12.527363,
            54.933698
          ],
          [
            12.526871,
            54.933598
          ],
          [
            12.525568,
            54.935142
          ],
          [
            12.523594,
            54.936412
          ],
          [
            12.518406,
            54.939027
          ],
          [
            12.517951,
            54.938899
          ],
          [
            12.513434,
            54.932278
          ],
          [
            12.509483,
            54.934887
          ],
          [
            12.502226,
            54.93867
          ],
          [
            12.499666,
            54.939506
          ],
          [
            12.497613,
            54.939293
          ],
          [
            12.496131,
            54.939654
          ],
          [
            12.489482,
            54.940016
          ],
          [
            12.477608,
            54.941521
          ],
          [
            12.47009,
            54.947356
          ],
          [
            12.46301,
            54.951252
          ],
          [
            12.464361,
            54.952141
          ]
        ]
      }
    },
    {
      "type": "Feature",
      "properties": {
        "name": "Aurora Delivery. Passage 2",
        "source": "2026/delivery-denmark-germany/2026.09.06 Aurora Delivery. Passage 2.gpx",
        "year": "2026",
        "voyage_id": "2026/delivery-denmark-germany",
        "voyage_title": "Delivery Denmark Germany",
        "start": "2026-09-06T12:10:57Z",
        "end": "2026-09-06T20:36:58Z",
        "start_timezone": "Europe/Copenhagen",
        "end_timezone": "Europe/Copenhagen",
        "distance_nm": 33.87,
        "duration_hours": 8.43,
        "day_marks": [],
        "segment_count": 1,
        "original_points": 191,
        "simplified_points": 104,
        "tolerance_m": 20
      },
      "geometry": {
        "type": "LineString",
        "coordinates": [
          [
            12.464953,
            54.953557
          ],
          [
            12.464285,
            54.95201
          ],
          [
            12.463158,
            54.951541
          ],
          [
            12.461033,
            54.949468
          ],
          [
            12.457592,
            54.946957
          ],
          [
            12.449095,
            54.938422
          ],
          [
            12.44355,
            54.934704
          ],
          [
            12.441124,
            54.931458
          ],
          [
            12.436936,
            54.927592
          ],
          [
            12.433378,
            54.923593
          ],
          [
            12.423955,
            54.915702
          ],
          [
            12.418137,
            54.908754
          ],
          [
            12.412725,
            54.904716
          ],
          [
            12.405607,
            54.897129
          ],
          [
            12.403619,
            54.895645
          ],
          [
            12.399533,
            54.891526
          ],
          [
            12.396069,
            54.888824
          ],
          [
            12.382742,
            54.880336
          ],
          [
            12.372188,
            54.871616
          ],
          [
            12.368741,
            54.869371
          ],
          [
            12.362772,
            54.863405
          ],
          [
            12.35364,
            54.855358
          ],
          [
            12.35078,
            54.852093
          ],
          [
            12.350231,
            54.850812
          ],
          [
            12.343828,
            54.845611
          ],
          [
            12.340705,
            54.842003
          ],
          [
            12.337863,
            54.839736
          ],
          [
            12.334186,
            54.837484
          ],
          [
            12.333172,
            54.835984
          ],
          [
            12.330301,
            54.834282
          ],
          [
            12.329285,
            54.833035
          ],
          [
            12.323256,
            54.82906
          ],
          [
            12.319426,
            54.825633
          ],
          [
            12.315042,
            54.822432
          ],
          [
            12.30582,
            54.812813
          ],
          [
            12.298772,
            54.804752
          ],
          [
            12.294656,
            54.800625
          ],
          [
            12.288117,
            54.795214
          ],
          [
            12.280359,
            54.786018
          ],
          [
            12.277055,
            54.781464
          ],
          [
            12.272686,
            54.776936
          ],
          [
            12.258963,
            54.765525
          ],
          [
            12.247416,
            54.75755
          ],
          [
            12.243269,
            54.754151
          ],
          [
            12.240131,
            54.749754
          ],
          [
            12.236741,
            54.746887
          ],
          [
            12.231899,
            54.740421
          ],
          [
            12.223501,
            54.731564
          ],
          [
            12.215751,
            54.725519
          ],
          [
            12.20626,
            54.718943
          ],
          [
            12.19735,
            54.706135
          ],
          [
            12.19434,
            54.700926
          ],
          [
            12.191761,
            54.698045
          ],
          [
            12.191241,
            54.697935
          ],
          [
            12.192018,
            54.697863
          ],
          [
            12.19218,
            54.696599
          ],
          [
            12.191475,
            54.6948
          ],
          [
            12.187456,
            54.6894
          ],
          [
            12.183075,
            54.680857
          ],
          [
            12.180585,
            54.677138
          ],
          [
            12.170836,
            54.665283
          ],
          [
            12.16351,
            54.657368
          ],
          [
            12.162502,
            54.655321
          ],
          [
            12.162252,
            54.652806
          ],
          [
            12.159239,
            54.649875
          ],
          [
            12.150557,
            54.637252
          ],
          [
            12.146026,
            54.632376
          ],
          [
            12.143094,
            54.628424
          ],
          [
            12.140933,
            54.626655
          ],
          [
            12.13465,
            54.623514
          ],
          [
            12.125951,
            54.618468
          ],
          [
            12.116877,
            54.615139
          ],
          [
            12.103566,
            54.60867
          ],
          [
            12.096009,
            54.605434
          ],
          [
            12.092057,
            54.602091
          ],
          [
            12.08555,
            54.598596
          ],
          [
            12.077187,
            54.593208
          ],
          [
            12.059382,
            54.584402
          ],
          [
            12.050194,
            54.579009
          ],
          [
            12.038684,
            54.573516
          ],
          [
            12.032803,
            54.569162
          ],
          [
            12.026546,
            54.565114
          ],
          [
            12.017789,
            54.55844
          ],
          [
            12.011795,
            54.555051
          ],
          [
            12.007545,
            54.551965
          ],
          [
            11.998945,
            54.547427
          ],
          [
            11.997956,
            54.544825
          ],
          [
            11.996972,
            54.544221
          ],
          [
            11.988521,
            54.545248
          ],
          [
            11.985617,
            54.547072
          ],
          [
            11.972722,
            54.551945
          ],
          [
            11.963543,
            54.557498
          ],
          [
            11.958025,
            54.558721
          ],
          [
            11.954385,
            54.560247
          ],
          [
            11.938264,
            54.565812
          ],
          [
            11.932428,
            54.567299
          ],
          [
            11.925531,
            54.570233
          ],
          [
            11.921619,
            54.572441
          ],
          [
            11.917754,
            54.573531
          ],
          [
            11.915643,
            54.574844
          ],
          [
            11.915089,
            54.576609
          ],
          [
            11.915133,
            54.579343
          ],
          [
            11.916953,
            54.580256
          ],
          [
            11.919456,
            54.580945
          ]
        ]
      }
    },
    {
      "type": "Feature",
      "properties": {
        "name": "Aurora Delivery. Passage 3",
        "source": "2026/delivery-denmark-germany/2026.09.07 Aurora Delivery. Passage 3.gpx",
        "year": "2026",
        "voyage_id": "2026/delivery-denmark-germany",
        "voyage_title": "Delivery Denmark Germany",
        "start": "2026-09-07T04:31:44Z",
        "end": "2026-09-07T14:44:54Z",
        "start_timezone": "Europe/Copenhagen",
        "end_timezone": "Europe/Berlin",
        "distance_nm": 39.48,
        "duration_hours": 10.22,
        "day_marks": [],
        "segment_count": 1,
        "original_points": 228,
        "simplified_points": 147,
        "tolerance_m": 20
      },
      "geometry": {
        "type": "LineString",
        "coordinates": [
          [
            11.92116,
            54.580307
          ],
          [
            11.919644,
            54.580962
          ],
          [
            11.915869,
            54.579676
          ],
          [
            11.915181,
            54.577324
          ],
          [
            11.915308,
            54.575716
          ],
          [
            11.916665,
            54.574243
          ],
          [
            11.92185,
            54.572553
          ],
          [
            11.923446,
            54.57181
          ],
          [
            11.925254,
            54.570363
          ],
          [
            11.928157,
            54.566072
          ],
          [
            11.928345,
            54.565001
          ],
          [
            11.927859,
            54.564456
          ],
          [
            11.924218,
            54.562622
          ],
          [
            11.924194,
            54.562396
          ],
          [
            11.924949,
            54.562509
          ],
          [
            11.925207,
            54.562258
          ],
          [
            11.924863,
            54.561883
          ],
          [
            11.918434,
            54.557582
          ],
          [
            11.909316,
            54.554377
          ],
          [
            11.897847,
            54.550942
          ],
          [
            11.86706,
            54.542893
          ],
          [
            11.859016,
            54.540305
          ],
          [
            11.849922,
            54.53801
          ],
          [
            11.834662,
            54.535115
          ],
          [
            11.833114,
            54.535319
          ],
          [
            11.829764,
            54.534811
          ],
          [
            11.827861,
            54.534992
          ],
          [
            11.823647,
            54.534583
          ],
          [
            11.822989,
            54.535379
          ],
          [
            11.820937,
            54.535423
          ],
          [
            11.807822,
            54.53383
          ],
          [
            11.804768,
            54.534132
          ],
          [
            11.804111,
            54.534496
          ],
          [
            11.804915,
            54.534949
          ],
          [
            11.808065,
            54.534365
          ],
          [
            11.81282,
            54.532611
          ],
          [
            11.81923,
            54.529563
          ],
          [
            11.823854,
            54.526774
          ],
          [
            11.806265,
            54.522652
          ],
          [
            11.794407,
            54.520213
          ],
          [
            11.791316,
            54.519826
          ],
          [
            11.764117,
            54.513924
          ],
          [
            11.71791,
            54.505958
          ],
          [
            11.698146,
            54.501803
          ],
          [
            11.687368,
            54.499083
          ],
          [
            11.678623,
            54.494968
          ],
          [
            11.678352,
            54.494601
          ],
          [
            11.678851,
            54.494558
          ],
          [
            11.679609,
            54.495636
          ],
          [
            11.678127,
            54.495913
          ],
          [
            11.672525,
            54.492986
          ],
          [
            11.670371,
            54.49232
          ],
          [
            11.667294,
            54.491755
          ],
          [
            11.663846,
            54.491879
          ],
          [
            11.65538,
            54.489111
          ],
          [
            11.64737,
            54.486905
          ],
          [
            11.638204,
            54.483806
          ],
          [
            11.628498,
            54.47996
          ],
          [
            11.622755,
            54.478936
          ],
          [
            11.620787,
            54.478294
          ],
          [
            11.616947,
            54.477868
          ],
          [
            11.611692,
            54.475252
          ],
          [
            11.605085,
            54.472861
          ],
          [
            11.593607,
            54.469832
          ],
          [
            11.586762,
            54.468348
          ],
          [
            11.581441,
            54.467996
          ],
          [
            11.574474,
            54.466252
          ],
          [
            11.57209,
            54.466087
          ],
          [
            11.565208,
            54.463595
          ],
          [
            11.561052,
            54.463348
          ],
          [
            11.55337,
            54.459839
          ],
          [
            11.542658,
            54.455942
          ],
          [
            11.529286,
            54.452906
          ],
          [
            11.525669,
            54.452463
          ],
          [
            11.516208,
            54.450143
          ],
          [
            11.501084,
            54.444498
          ],
          [
            11.497086,
            54.444109
          ],
          [
            11.492869,
            54.442852
          ],
          [
            11.491041,
            54.442722
          ],
          [
            11.487208,
            54.443046
          ],
          [
            11.482039,
            54.441679
          ],
          [
            11.475946,
            54.441099
          ],
          [
            11.466766,
            54.438729
          ],
          [
            11.456426,
            54.435031
          ],
          [
            11.445828,
            54.430586
          ],
          [
            11.434937,
            54.428665
          ],
          [
            11.427536,
            54.42791
          ],
          [
            11.424925,
            54.427103
          ],
          [
            11.421244,
            54.426603
          ],
          [
            11.417189,
            54.425422
          ],
          [
            11.414688,
            54.425065
          ],
          [
            11.412433,
            54.424095
          ],
          [
            11.407594,
            54.423243
          ],
          [
            11.403089,
            54.421525
          ],
          [
            11.399359,
            54.419465
          ],
          [
            11.394676,
            54.418004
          ],
          [
            11.388845,
            54.414964
          ],
          [
            11.384237,
            54.413323
          ],
          [
            11.377205,
            54.411859
          ],
          [
            11.37329,
            54.411778
          ],
          [
            11.359177,
            54.408378
          ],
          [
            11.353823,
            54.406106
          ],
          [
            11.3483,
            54.404206
          ],
          [
            11.344396,
            54.403672
          ],
          [
            11.338702,
            54.401421
          ],
          [
            11.33624,
            54.40004
          ],
          [
            11.327256,
            54.398305
          ],
          [
            11.320414,
            54.397762
          ],
          [
            11.310874,
            54.39548
          ],
          [
            11.301758,
            54.394905
          ],
          [
            11.294649,
            54.393204
          ],
          [
            11.289632,
            54.393214
          ],
          [
            11.28609,
            54.392809
          ],
          [
            11.279107,
            54.392638
          ],
          [
            11.274088,
            54.391805
          ],
          [
            11.271417,
            54.39206
          ],
          [
            11.264385,
            54.391985
          ],
          [
            11.260274,
            54.390638
          ],
          [
            11.254718,
            54.3909
          ],
          [
            11.247399,
            54.389711
          ],
          [
            11.232354,
            54.390038
          ],
          [
            11.222824,
            54.389744
          ],
          [
            11.216766,
            54.389473
          ],
          [
            11.204032,
            54.388264
          ],
          [
            11.191545,
            54.387891
          ],
          [
            11.186804,
            54.387396
          ],
          [
            11.171122,
            54.384847
          ],
          [
            11.165264,
            54.384223
          ],
          [
            11.152463,
            54.38649
          ],
          [
            11.143558,
            54.389914
          ],
          [
            11.125038,
            54.397745
          ],
          [
            11.119047,
            54.399454
          ],
          [
            11.116198,
            54.400723
          ],
          [
            11.106882,
            54.402595
          ],
          [
            11.101643,
            54.401942
          ],
          [
            11.096123,
            54.402603
          ],
          [
            11.090072,
            54.400784
          ],
          [
            11.053725,
            54.385455
          ],
          [
            11.045631,
            54.383139
          ],
          [
            11.040802,
            54.380806
          ],
          [
            11.037055,
            54.379719
          ],
          [
            11.034144,
            54.378203
          ],
          [
            11.026703,
            54.375375
          ],
          [
            11.02039,
            54.373598
          ],
          [
            11.010195,
            54.373252
          ],
          [
            11.004099,
            54.373432
          ],
          [
            10.986796,
            54.374968
          ]
        ]
      }
    },
    {
      "type": "Feature",
      "properties": {
        "name": "Aurora Delivery. Passage 4",
        "source": "2026/delivery-denmark-germany/2026.09.11 Aurora Delivery. Passage 4.gpx",
        "year": "2026",
        "voyage_id": "2026/delivery-denmark-germany",
        "voyage_title": "Delivery Denmark Germany",
        "start": "2026-09-11T08:24:30Z",
        "end": "2026-09-11T17:37:58Z",
        "start_timezone": "Europe/Berlin",
        "end_timezone": "Europe/Berlin",
        "distance_nm": 38.82,
        "duration_hours": 9.22,
        "day_marks": [],
        "segment_count": 1,
        "original_points": 213,
        "simplified_points": 140,
        "tolerance_m": 20
      },
      "geometry": {
        "type": "LineString",
        "coordinates": [
          [
            10.983347,
            54.376261
          ],
          [
            10.986941,
            54.374899
          ],
          [
            11.005539,
            54.373187
          ],
          [
            11.011862,
            54.373032
          ],
          [
            11.025568,
            54.373376
          ],
          [
            11.026867,
            54.373622
          ],
          [
            11.028318,
            54.374614
          ],
          [
            11.035373,
            54.380792
          ],
          [
            11.028968,
            54.386069
          ],
          [
            11.027397,
            54.386915
          ],
          [
            11.026494,
            54.387966
          ],
          [
            11.024494,
            54.388769
          ],
          [
            11.023533,
            54.389829
          ],
          [
            11.021555,
            54.390456
          ],
          [
            11.019593,
            54.391703
          ],
          [
            11.012284,
            54.393174
          ],
          [
            11.009445,
            54.394378
          ],
          [
            11.000204,
            54.395358
          ],
          [
            10.995518,
            54.395417
          ],
          [
            10.990199,
            54.396113
          ],
          [
            10.985908,
            54.39621
          ],
          [
            10.982176,
            54.396935
          ],
          [
            10.978935,
            54.397024
          ],
          [
            10.962078,
            54.39914
          ],
          [
            10.95751,
            54.399368
          ],
          [
            10.954541,
            54.400011
          ],
          [
            10.951066,
            54.40027
          ],
          [
            10.944796,
            54.401411
          ],
          [
            10.932305,
            54.40322
          ],
          [
            10.926494,
            54.403777
          ],
          [
            10.92188,
            54.404617
          ],
          [
            10.92069,
            54.405368
          ],
          [
            10.919693,
            54.406713
          ],
          [
            10.920604,
            54.407923
          ],
          [
            10.921214,
            54.411291
          ],
          [
            10.920723,
            54.413443
          ],
          [
            10.919394,
            54.415771
          ],
          [
            10.910564,
            54.421519
          ],
          [
            10.909082,
            54.423478
          ],
          [
            10.906641,
            54.425207
          ],
          [
            10.905291,
            54.427275
          ],
          [
            10.901204,
            54.42898
          ],
          [
            10.896831,
            54.432214
          ],
          [
            10.89435,
            54.43337
          ],
          [
            10.892184,
            54.435426
          ],
          [
            10.887911,
            54.438064
          ],
          [
            10.886839,
            54.438337
          ],
          [
            10.881938,
            54.438666
          ],
          [
            10.877914,
            54.438418
          ],
          [
            10.874255,
            54.43879
          ],
          [
            10.85857,
            54.438434
          ],
          [
            10.846104,
            54.439954
          ],
          [
            10.839552,
            54.440228
          ],
          [
            10.823424,
            54.442098
          ],
          [
            10.815159,
            54.442211
          ],
          [
            10.812852,
            54.442721
          ],
          [
            10.81002,
            54.442843
          ],
          [
            10.784117,
            54.442842
          ],
          [
            10.777525,
            54.444078
          ],
          [
            10.775386,
            54.443648
          ],
          [
            10.772339,
            54.444359
          ],
          [
            10.762507,
            54.445056
          ],
          [
            10.745852,
            54.445514
          ],
          [
            10.728739,
            54.447311
          ],
          [
            10.720406,
            54.447288
          ],
          [
            10.713656,
            54.447848
          ],
          [
            10.701895,
            54.447396
          ],
          [
            10.689692,
            54.44889
          ],
          [
            10.68412,
            54.448846
          ],
          [
            10.679229,
            54.44956
          ],
          [
            10.674537,
            54.449167
          ],
          [
            10.67179,
            54.449591
          ],
          [
            10.665604,
            54.449913
          ],
          [
            10.658118,
            54.451105
          ],
          [
            10.654082,
            54.451211
          ],
          [
            10.649618,
            54.450711
          ],
          [
            10.645553,
            54.451613
          ],
          [
            10.638552,
            54.451992
          ],
          [
            10.628247,
            54.451349
          ],
          [
            10.613501,
            54.451682
          ],
          [
            10.590196,
            54.450556
          ],
          [
            10.571323,
            54.451442
          ],
          [
            10.560017,
            54.452178
          ],
          [
            10.54336,
            54.455272
          ],
          [
            10.5377,
            54.455907
          ],
          [
            10.533852,
            54.457162
          ],
          [
            10.531897,
            54.457405
          ],
          [
            10.521326,
            54.456564
          ],
          [
            10.515504,
            54.455797
          ],
          [
            10.506536,
            54.457053
          ],
          [
            10.499032,
            54.456438
          ],
          [
            10.485335,
            54.456258
          ],
          [
            10.474308,
            54.455449
          ],
          [
            10.461107,
            54.454901
          ],
          [
            10.447104,
            54.454711
          ],
          [
            10.434843,
            54.453975
          ],
          [
            10.422682,
            54.45269
          ],
          [
            10.411941,
            54.453715
          ],
          [
            10.407409,
            54.45484
          ],
          [
            10.400916,
            54.454704
          ],
          [
            10.396056,
            54.454296
          ],
          [
            10.390307,
            54.453236
          ],
          [
            10.385375,
            54.453016
          ],
          [
            10.379996,
            54.452041
          ],
          [
            10.367439,
            54.452109
          ],
          [
            10.353725,
            54.45119
          ],
          [
            10.345332,
            54.449269
          ],
          [
            10.340916,
            54.448922
          ],
          [
            10.333584,
            54.447061
          ],
          [
            10.320436,
            54.444359
          ],
          [
            10.313574,
            54.443995
          ],
          [
            10.304618,
            54.441363
          ],
          [
            10.296754,
            54.43991
          ],
          [
            10.270749,
            54.432515
          ],
          [
            10.26721,
            54.431272
          ],
          [
            10.264539,
            54.431249
          ],
          [
            10.254708,
            54.428325
          ],
          [
            10.246552,
            54.42651
          ],
          [
            10.241125,
            54.424815
          ],
          [
            10.226978,
            54.419549
          ],
          [
            10.216711,
            54.414662
          ],
          [
            10.214178,
            54.412938
          ],
          [
            10.209609,
            54.406059
          ],
          [
            10.204619,
            54.394855
          ],
          [
            10.201639,
            54.392302
          ],
          [
            10.194582,
            54.38421
          ],
          [
            10.192001,
            54.380302
          ],
          [
            10.185666,
            54.372944
          ],
          [
            10.183105,
            54.370595
          ],
          [
            10.182247,
            54.368936
          ],
          [
            10.176603,
            54.363835
          ],
          [
            10.170906,
            54.351982
          ],
          [
            10.169169,
            54.349251
          ],
          [
            10.169285,
            54.345898
          ],
          [
            10.167334,
            54.341143
          ],
          [
            10.166724,
            54.338491
          ],
          [
            10.166719,
            54.335288
          ],
          [
            10.169935,
            54.332414
          ],
          [
            10.173972,
            54.330309
          ],
          [
            10.175849,
            54.329799
          ]
        ]
      }
    }
  ]
}
