<?xml version="1.0" encoding="UTF-8"?>
<gpx version="1.1" creator="SailTies" xmlns="http://www.topografix.com/GPX/1/1" xmlns:xsi="http://www.w3.org/2001/XMLSchema-instance" xmlns:gpxtpx="http://www.garmin.com/xmlschemas/TrackPointExtension/v2" xsi:schemaLocation="http://www.topografix.com/GPX/1/1 http://www.topografix.com/GPX/1/1/gpx.xsd http://www.garmin.com/xmlschemas/TrackPointExtension/v2 http://www.garmin.com/xmlschemas/TrackPointExtensionv2.xsd">
  <metadata>
    <name>Aurora Delivery. Passage 1.</name>
    <desc>Distance: 45.5 NM • Duration: 8h 17m • Avg speed: 5.5 kn • Max speed: 7.7 kn • Vessel: Aurora • Vallensbæk to Klintholm Havn, Denmark</desc>
    <author><name>SailTies</name><link href="https://sailties.com"><text>SailTies</text></link></author>
    <link href="https://sailties.com"><text>SailTies</text></link>
    <time>2026-09-01T13:12:58.000Z</time>
    <bounds minlat="54.93227823637426" minlon="12.394545106217265" maxlat="55.61172838322818" maxlon="12.569945901632309"/>
  </metadata>
  <trk>
    <name>Aurora Delivery. Passage 1.</name>
    <desc>Distance: 45.5 NM • Duration: 8h 17m • Avg speed: 5.5 kn • Max speed: 7.7 kn • Vessel: Aurora • Vallensbæk to Klintholm Havn, Denmark</desc>
    <type>sailing</type>
    <trkseg>
      <trkpt lat="55.61165462248027" lon="12.394690196961164">
        <time>2026-09-01T13:12:58.000Z</time>
        <extensions>
          <gpxtpx:TrackPointExtension>
            <gpxtpx:speed>0.205</gpxtpx:speed>
          </gpxtpx:TrackPointExtension>
        </extensions>
      </trkpt>
      <trkpt lat="55.61172838322818" lon="12.394545106217265">
        <time>2026-09-01T13:12:59.000Z</time>
        <extensions>
          <gpxtpx:TrackPointExtension>
            <gpxtpx:speed>0.28</gpxtpx:speed>
          </gpxtpx:TrackPointExtension>
        </extensions>
      </trkpt>
      <trkpt lat="55.6115460768342" lon="12.39472079090774">
        <time>2026-09-01T13:13:29.000Z</time>
        <extensions>
          <gpxtpx:TrackPointExtension>
            <gpxtpx:speed>0.961</gpxtpx:speed>
          </gpxtpx:TrackPointExtension>
        </extensions>
      </trkpt>
      <trkpt lat="55.61132571659982" lon="12.395569207146764">
        <time>2026-09-01T13:14:12.000Z</time>
        <extensions>
          <gpxtpx:TrackPointExtension>
            <gpxtpx:speed>1.521</gpxtpx:speed>
          </gpxtpx:TrackPointExtension>
        </extensions>
      </trkpt>
      <trkpt lat="55.61102011241019" lon="12.395727960392833">
        <time>2026-09-01T13:14:35.000Z</time>
        <extensions>
          <gpxtpx:TrackPointExtension>
            <gpxtpx:speed>1.484</gpxtpx:speed>
          </gpxtpx:TrackPointExtension>
        </extensions>
      </trkpt>
      <trkpt lat="55.610882733017206" lon="12.39601998589933">
        <time>2026-09-01T13:14:51.000Z</time>
        <extensions>
          <gpxtpx:TrackPointExtension>
            <gpxtpx:speed>1.586</gpxtpx:speed>
          </gpxtpx:TrackPointExtension>
        </extensions>
      </trkpt>
      <trkpt lat="55.609712367877364" lon="12.400428112596273">
        <time>2026-09-01T13:17:09.000Z</time>
        <extensions>
          <gpxtpx:TrackPointExtension>
            <gpxtpx:speed>2.407</gpxtpx:speed>
          </gpxtpx:TrackPointExtension>
        </extensions>
      </trkpt>
      <trkpt lat="55.6092512793839" lon="12.402802873402834">
        <time>2026-09-01T13:18:12.000Z</time>
        <extensions>
          <gpxtpx:TrackPointExtension>
            <gpxtpx:speed>2.631</gpxtpx:speed>
          </gpxtpx:TrackPointExtension>
        </extensions>
      </trkpt>
      <trkpt lat="55.6088797096163" lon="12.403831081464887">
        <time>2026-09-01T13:18:41.000Z</time>
        <extensions>
          <gpxtpx:TrackPointExtension>
            <gpxtpx:speed>2.613</gpxtpx:speed>
          </gpxtpx:TrackPointExtension>
        </extensions>
      </trkpt>
      <trkpt lat="55.608282666653395" lon="12.404697015881538">
        <time>2026-09-01T13:19:14.000Z</time>
        <extensions>
          <gpxtpx:TrackPointExtension>
            <gpxtpx:speed>2.613</gpxtpx:speed>
          </gpxtpx:TrackPointExtension>
        </extensions>
      </trkpt>
      <trkpt lat="55.60756869614124" lon="12.405312582850456">
        <time>2026-09-01T13:19:48.000Z</time>
        <extensions>
          <gpxtpx:TrackPointExtension>
            <gpxtpx:speed>2.575</gpxtpx:speed>
          </gpxtpx:TrackPointExtension>
        </extensions>
      </trkpt>
      <trkpt lat="55.60526065528393" lon="12.406416647136211">
        <time>2026-09-01T13:21:32.000Z</time>
        <extensions>
          <gpxtpx:TrackPointExtension>
            <gpxtpx:speed>2.622</gpxtpx:speed>
          </gpxtpx:TrackPointExtension>
        </extensions>
      </trkpt>
      <trkpt lat="55.60262848623097" lon="12.407199013978243">
        <time>2026-09-01T13:23:29.000Z</time>
        <extensions>
          <gpxtpx:TrackPointExtension>
            <gpxtpx:speed>2.557</gpxtpx:speed>
          </gpxtpx:TrackPointExtension>
        </extensions>
      </trkpt>
      <trkpt lat="55.59389093890786" lon="12.410897025838494">
        <time>2026-09-01T13:30:01.000Z</time>
        <extensions>
          <gpxtpx:TrackPointExtension>
            <gpxtpx:speed>2.622</gpxtpx:speed>
          </gpxtpx:TrackPointExtension>
        </extensions>
      </trkpt>
      <trkpt lat="55.59082576073706" lon="12.411820879206061">
        <time>2026-09-01T13:32:04.000Z</time>
        <extensions>
          <gpxtpx:TrackPointExtension>
            <gpxtpx:speed>2.837</gpxtpx:speed>
          </gpxtpx:TrackPointExtension>
        </extensions>
      </trkpt>
      <trkpt lat="55.58847916312516" lon="12.412751857191324">
        <time>2026-09-01T13:33:40.000Z</time>
        <extensions>
          <gpxtpx:TrackPointExtension>
            <gpxtpx:speed>2.65</gpxtpx:speed>
          </gpxtpx:TrackPointExtension>
        </extensions>
      </trkpt>
      <trkpt lat="55.58627220802009" lon="12.413380751386285">
        <time>2026-09-01T13:35:08.000Z</time>
        <extensions>
          <gpxtpx:TrackPointExtension>
            <gpxtpx:speed>2.846</gpxtpx:speed>
          </gpxtpx:TrackPointExtension>
        </extensions>
      </trkpt>
      <trkpt lat="55.584168266505" lon="12.41366925649345">
        <time>2026-09-01T13:36:40.000Z</time>
        <extensions>
          <gpxtpx:TrackPointExtension>
            <gpxtpx:speed>2.473</gpxtpx:speed>
          </gpxtpx:TrackPointExtension>
        </extensions>
      </trkpt>
      <trkpt lat="55.577667597681284" lon="12.41564285941422">
        <time>2026-09-01T13:41:22.000Z</time>
        <extensions>
          <gpxtpx:TrackPointExtension>
            <gpxtpx:speed>2.547</gpxtpx:speed>
          </gpxtpx:TrackPointExtension>
        </extensions>
      </trkpt>
      <trkpt lat="55.57496778666973" lon="12.416089028120041">
        <time>2026-09-01T13:43:17.000Z</time>
        <extensions>
          <gpxtpx:TrackPointExtension>
            <gpxtpx:speed>2.641</gpxtpx:speed>
          </gpxtpx:TrackPointExtension>
        </extensions>
      </trkpt>
      <trkpt lat="55.57259771972895" lon="12.416284829378128">
        <time>2026-09-01T13:44:57.000Z</time>
        <extensions>
          <gpxtpx:TrackPointExtension>
            <gpxtpx:speed>2.715</gpxtpx:speed>
          </gpxtpx:TrackPointExtension>
        </extensions>
      </trkpt>
      <trkpt lat="55.570601066574454" lon="12.41689721122384">
        <time>2026-09-01T13:46:17.000Z</time>
        <extensions>
          <gpxtpx:TrackPointExtension>
            <gpxtpx:speed>3.023</gpxtpx:speed>
          </gpxtpx:TrackPointExtension>
        </extensions>
      </trkpt>
      <trkpt lat="55.56802371516824" lon="12.418073695152998">
        <time>2026-09-01T13:47:56.000Z</time>
        <extensions>
          <gpxtpx:TrackPointExtension>
            <gpxtpx:speed>2.855</gpxtpx:speed>
          </gpxtpx:TrackPointExtension>
        </extensions>
      </trkpt>
      <trkpt lat="55.56438211351633" lon="12.4188575707376">
        <time>2026-09-01T13:50:29.000Z</time>
        <extensions>
          <gpxtpx:TrackPointExtension>
            <gpxtpx:speed>2.613</gpxtpx:speed>
          </gpxtpx:TrackPointExtension>
        </extensions>
      </trkpt>
      <trkpt lat="55.56090974248946" lon="12.420351142063737">
        <time>2026-09-01T13:52:45.000Z</time>
        <extensions>
          <gpxtpx:TrackPointExtension>
            <gpxtpx:speed>3.079</gpxtpx:speed>
          </gpxtpx:TrackPointExtension>
        </extensions>
      </trkpt>
      <trkpt lat="55.55959780700505" lon="12.421285305172205">
        <time>2026-09-01T13:53:38.000Z</time>
        <extensions>
          <gpxtpx:TrackPointExtension>
            <gpxtpx:speed>3.21</gpxtpx:speed>
          </gpxtpx:TrackPointExtension>
        </extensions>
      </trkpt>
      <trkpt lat="55.55039129219949" lon="12.425568709149957">
        <time>2026-09-01T13:59:52.000Z</time>
        <extensions>
          <gpxtpx:TrackPointExtension>
            <gpxtpx:speed>2.939</gpxtpx:speed>
          </gpxtpx:TrackPointExtension>
        </extensions>
      </trkpt>
      <trkpt lat="55.54863503202796" lon="12.426022086292505">
        <time>2026-09-01T14:01:09.000Z</time>
        <extensions>
          <gpxtpx:TrackPointExtension>
            <gpxtpx:speed>2.519</gpxtpx:speed>
          </gpxtpx:TrackPointExtension>
        </extensions>
      </trkpt>
      <trkpt lat="55.545811001211405" lon="12.426193160936236">
        <time>2026-09-01T14:03:21.000Z</time>
        <extensions>
          <gpxtpx:TrackPointExtension>
            <gpxtpx:speed>2.454</gpxtpx:speed>
          </gpxtpx:TrackPointExtension>
        </extensions>
      </trkpt>
      <trkpt lat="55.54079904220998" lon="12.42795092985034">
        <time>2026-09-01T14:06:57.000Z</time>
        <extensions>
          <gpxtpx:TrackPointExtension>
            <gpxtpx:speed>2.622</gpxtpx:speed>
          </gpxtpx:TrackPointExtension>
        </extensions>
      </trkpt>
      <trkpt lat="55.53448520600796" lon="12.429644744843245">
        <time>2026-09-01T14:11:23.000Z</time>
        <extensions>
          <gpxtpx:TrackPointExtension>
            <gpxtpx:speed>2.687</gpxtpx:speed>
          </gpxtpx:TrackPointExtension>
        </extensions>
      </trkpt>
      <trkpt lat="55.53134383633733" lon="12.43042778223753">
        <time>2026-09-01T14:13:33.000Z</time>
        <extensions>
          <gpxtpx:TrackPointExtension>
            <gpxtpx:speed>2.519</gpxtpx:speed>
          </gpxtpx:TrackPointExtension>
        </extensions>
      </trkpt>
      <trkpt lat="55.52946461364627" lon="12.43043264374137">
        <time>2026-09-01T14:15:04.000Z</time>
        <extensions>
          <gpxtpx:TrackPointExtension>
            <gpxtpx:speed>2.501</gpxtpx:speed>
          </gpxtpx:TrackPointExtension>
        </extensions>
      </trkpt>
      <trkpt lat="55.523445066064596" lon="12.433220716193318">
        <time>2026-09-01T14:19:28.000Z</time>
        <extensions>
          <gpxtpx:TrackPointExtension>
            <gpxtpx:speed>2.398</gpxtpx:speed>
          </gpxtpx:TrackPointExtension>
        </extensions>
      </trkpt>
      <trkpt lat="55.521861892193556" lon="12.433504946529865">
        <time>2026-09-01T14:20:43.000Z</time>
        <extensions>
          <gpxtpx:TrackPointExtension>
            <gpxtpx:speed>2.239</gpxtpx:speed>
          </gpxtpx:TrackPointExtension>
        </extensions>
      </trkpt>
      <trkpt lat="55.518878269940615" lon="12.434720322489738">
        <time>2026-09-01T14:22:39.000Z</time>
        <extensions>
          <gpxtpx:TrackPointExtension>
            <gpxtpx:speed>2.818</gpxtpx:speed>
          </gpxtpx:TrackPointExtension>
        </extensions>
      </trkpt>
      <trkpt lat="55.514310635626316" lon="12.436203248798847">
        <time>2026-09-01T14:25:25.000Z</time>
        <extensions>
          <gpxtpx:TrackPointExtension>
            <gpxtpx:speed>3.051</gpxtpx:speed>
          </gpxtpx:TrackPointExtension>
        </extensions>
      </trkpt>
      <trkpt lat="55.51029620692134" lon="12.436740696430206">
        <time>2026-09-01T14:27:59.000Z</time>
        <extensions>
          <gpxtpx:TrackPointExtension>
            <gpxtpx:speed>2.734</gpxtpx:speed>
          </gpxtpx:TrackPointExtension>
        </extensions>
      </trkpt>
      <trkpt lat="55.505481055006385" lon="12.43702132254839">
        <time>2026-09-01T14:31:26.000Z</time>
        <extensions>
          <gpxtpx:TrackPointExtension>
            <gpxtpx:speed>2.529</gpxtpx:speed>
          </gpxtpx:TrackPointExtension>
        </extensions>
      </trkpt>
      <trkpt lat="55.502728186547756" lon="12.438130164518952">
        <time>2026-09-01T14:33:31.000Z</time>
        <extensions>
          <gpxtpx:TrackPointExtension>
            <gpxtpx:speed>2.585</gpxtpx:speed>
          </gpxtpx:TrackPointExtension>
        </extensions>
      </trkpt>
      <trkpt lat="55.49793943762779" lon="12.440646244212985">
        <time>2026-09-01T14:36:52.000Z</time>
        <extensions>
          <gpxtpx:TrackPointExtension>
            <gpxtpx:speed>2.995</gpxtpx:speed>
          </gpxtpx:TrackPointExtension>
        </extensions>
      </trkpt>
      <trkpt lat="55.49299009144306" lon="12.442571818828583">
        <time>2026-09-01T14:40:05.000Z</time>
        <extensions>
          <gpxtpx:TrackPointExtension>
            <gpxtpx:speed>2.818</gpxtpx:speed>
          </gpxtpx:TrackPointExtension>
        </extensions>
      </trkpt>
      <trkpt lat="55.48635941930115" lon="12.44385533966124">
        <time>2026-09-01T14:44:42.000Z</time>
        <extensions>
          <gpxtpx:TrackPointExtension>
            <gpxtpx:speed>2.641</gpxtpx:speed>
          </gpxtpx:TrackPointExtension>
        </extensions>
      </trkpt>
      <trkpt lat="55.48267439939082" lon="12.443875456228852">
        <time>2026-09-01T14:47:26.000Z</time>
        <extensions>
          <gpxtpx:TrackPointExtension>
            <gpxtpx:speed>2.491</gpxtpx:speed>
          </gpxtpx:TrackPointExtension>
        </extensions>
      </trkpt>
      <trkpt lat="55.48111628741026" lon="12.444050470367074">
        <time>2026-09-01T14:48:36.000Z</time>
        <extensions>
          <gpxtpx:TrackPointExtension>
            <gpxtpx:speed>2.566</gpxtpx:speed>
          </gpxtpx:TrackPointExtension>
        </extensions>
      </trkpt>
      <trkpt lat="55.47105389647186" lon="12.445782087743282">
        <time>2026-09-01T14:55:31.000Z</time>
        <extensions>
          <gpxtpx:TrackPointExtension>
            <gpxtpx:speed>2.939</gpxtpx:speed>
          </gpxtpx:TrackPointExtension>
        </extensions>
      </trkpt>
      <trkpt lat="55.467320177704096" lon="12.446203278377652">
        <time>2026-09-01T14:57:52.000Z</time>
        <extensions>
          <gpxtpx:TrackPointExtension>
            <gpxtpx:speed>3.135</gpxtpx:speed>
          </gpxtpx:TrackPointExtension>
        </extensions>
      </trkpt>
      <trkpt lat="55.45668035745621" lon="12.449923418462276">
        <time>2026-09-01T15:04:19.000Z</time>
        <extensions>
          <gpxtpx:TrackPointExtension>
            <gpxtpx:speed>3.144</gpxtpx:speed>
          </gpxtpx:TrackPointExtension>
        </extensions>
      </trkpt>
      <trkpt lat="55.44734031893313" lon="12.452900754287839">
        <time>2026-09-01T15:09:59.000Z</time>
        <extensions>
          <gpxtpx:TrackPointExtension>
            <gpxtpx:speed>3.098</gpxtpx:speed>
          </gpxtpx:TrackPointExtension>
        </extensions>
      </trkpt>
      <trkpt lat="55.44401437975466" lon="12.453201748430729">
        <time>2026-09-01T15:11:59.000Z</time>
        <extensions>
          <gpxtpx:TrackPointExtension>
            <gpxtpx:speed>3.144</gpxtpx:speed>
          </gpxtpx:TrackPointExtension>
        </extensions>
      </trkpt>
      <trkpt lat="55.44076379388571" lon="12.453908007591963">
        <time>2026-09-01T15:13:53.000Z</time>
        <extensions>
          <gpxtpx:TrackPointExtension>
            <gpxtpx:speed>3.219</gpxtpx:speed>
          </gpxtpx:TrackPointExtension>
        </extensions>
      </trkpt>
      <trkpt lat="55.437785033136606" lon="12.454328862950206">
        <time>2026-09-01T15:15:39.000Z</time>
        <extensions>
          <gpxtpx:TrackPointExtension>
            <gpxtpx:speed>3.154</gpxtpx:speed>
          </gpxtpx:TrackPointExtension>
        </extensions>
      </trkpt>
      <trkpt lat="55.423523308709264" lon="12.455839533358812">
        <time>2026-09-01T15:23:57.000Z</time>
        <extensions>
          <gpxtpx:TrackPointExtension>
            <gpxtpx:speed>3.443</gpxtpx:speed>
          </gpxtpx:TrackPointExtension>
        </extensions>
      </trkpt>
      <trkpt lat="55.41064660996199" lon="12.458552503958344">
        <time>2026-09-01T15:31:22.000Z</time>
        <extensions>
          <gpxtpx:TrackPointExtension>
            <gpxtpx:speed>3.275</gpxtpx:speed>
          </gpxtpx:TrackPointExtension>
        </extensions>
      </trkpt>
      <trkpt lat="55.406788336113095" lon="12.458934048190713">
        <time>2026-09-01T15:33:36.000Z</time>
        <extensions>
          <gpxtpx:TrackPointExtension>
            <gpxtpx:speed>2.902</gpxtpx:speed>
          </gpxtpx:TrackPointExtension>
        </extensions>
      </trkpt>
      <trkpt lat="55.40514514781535" lon="12.458896497264504">
        <time>2026-09-01T15:34:34.000Z</time>
        <extensions>
          <gpxtpx:TrackPointExtension>
            <gpxtpx:speed>3.116</gpxtpx:speed>
          </gpxtpx:TrackPointExtension>
        </extensions>
      </trkpt>
      <trkpt lat="55.398441972211" lon="12.459320621564984">
        <time>2026-09-01T15:38:34.000Z</time>
        <extensions>
          <gpxtpx:TrackPointExtension>
            <gpxtpx:speed>3.219</gpxtpx:speed>
          </gpxtpx:TrackPointExtension>
        </extensions>
      </trkpt>
      <trkpt lat="55.39694286882877" lon="12.45981297455728">
        <time>2026-09-01T15:39:27.000Z</time>
        <extensions>
          <gpxtpx:TrackPointExtension>
            <gpxtpx:speed>3.172</gpxtpx:speed>
          </gpxtpx:TrackPointExtension>
        </extensions>
      </trkpt>
      <trkpt lat="55.394733818247914" lon="12.46088300831616">
        <time>2026-09-01T15:40:47.000Z</time>
        <extensions>
          <gpxtpx:TrackPointExtension>
            <gpxtpx:speed>3.303</gpxtpx:speed>
          </gpxtpx:TrackPointExtension>
        </extensions>
      </trkpt>
      <trkpt lat="55.389925204217434" lon="12.462805146351457">
        <time>2026-09-01T15:43:39.000Z</time>
        <extensions>
          <gpxtpx:TrackPointExtension>
            <gpxtpx:speed>3.144</gpxtpx:speed>
          </gpxtpx:TrackPointExtension>
        </extensions>
      </trkpt>
      <trkpt lat="55.38378001190722" lon="12.46513263322413">
        <time>2026-09-01T15:47:18.000Z</time>
        <extensions>
          <gpxtpx:TrackPointExtension>
            <gpxtpx:speed>3.228</gpxtpx:speed>
          </gpxtpx:TrackPointExtension>
        </extensions>
      </trkpt>
      <trkpt lat="55.37659529596567" lon="12.467651227489114">
        <time>2026-09-01T15:51:32.000Z</time>
        <extensions>
          <gpxtpx:TrackPointExtension>
            <gpxtpx:speed>3.163</gpxtpx:speed>
          </gpxtpx:TrackPointExtension>
        </extensions>
      </trkpt>
      <trkpt lat="55.37021775729954" lon="12.469666320830584">
        <time>2026-09-01T15:55:20.000Z</time>
        <extensions>
          <gpxtpx:TrackPointExtension>
            <gpxtpx:speed>3.06</gpxtpx:speed>
          </gpxtpx:TrackPointExtension>
        </extensions>
      </trkpt>
      <trkpt lat="55.36358649842441" lon="12.472656397148967">
        <time>2026-09-01T15:59:30.000Z</time>
        <extensions>
          <gpxtpx:TrackPointExtension>
            <gpxtpx:speed>3.098</gpxtpx:speed>
          </gpxtpx:TrackPointExtension>
        </extensions>
      </trkpt>
      <trkpt lat="55.36025611683726" lon="12.473633056506515">
        <time>2026-09-01T16:01:31.000Z</time>
        <extensions>
          <gpxtpx:TrackPointExtension>
            <gpxtpx:speed>3.023</gpxtpx:speed>
          </gpxtpx:TrackPointExtension>
        </extensions>
      </trkpt>
      <trkpt lat="55.35443346016109" lon="12.475660219788551">
        <time>2026-09-01T16:05:06.000Z</time>
        <extensions>
          <gpxtpx:TrackPointExtension>
            <gpxtpx:speed>3.079</gpxtpx:speed>
          </gpxtpx:TrackPointExtension>
        </extensions>
      </trkpt>
      <trkpt lat="55.34147713333368" lon="12.479362841695547">
        <time>2026-09-01T16:13:14.000Z</time>
        <extensions>
          <gpxtpx:TrackPointExtension>
            <gpxtpx:speed>2.753</gpxtpx:speed>
          </gpxtpx:TrackPointExtension>
        </extensions>
      </trkpt>
      <trkpt lat="55.337495896965265" lon="12.480144454166293">
        <time>2026-09-01T16:15:43.000Z</time>
        <extensions>
          <gpxtpx:TrackPointExtension>
            <gpxtpx:speed>3.051</gpxtpx:speed>
          </gpxtpx:TrackPointExtension>
        </extensions>
      </trkpt>
      <trkpt lat="55.33245879225433" lon="12.481612293049693">
        <time>2026-09-01T16:18:44.000Z</time>
        <extensions>
          <gpxtpx:TrackPointExtension>
            <gpxtpx:speed>3.256</gpxtpx:speed>
          </gpxtpx:TrackPointExtension>
        </extensions>
      </trkpt>
      <trkpt lat="55.32806281931698" lon="12.482399940490723">
        <time>2026-09-01T16:21:17.000Z</time>
        <extensions>
          <gpxtpx:TrackPointExtension>
            <gpxtpx:speed>3.144</gpxtpx:speed>
          </gpxtpx:TrackPointExtension>
        </extensions>
      </trkpt>
      <trkpt lat="55.32195534557104" lon="12.483107037842274">
        <time>2026-09-01T16:24:50.000Z</time>
        <extensions>
          <gpxtpx:TrackPointExtension>
            <gpxtpx:speed>3.107</gpxtpx:speed>
          </gpxtpx:TrackPointExtension>
        </extensions>
      </trkpt>
      <trkpt lat="55.31632589176297" lon="12.484233314171433">
        <time>2026-09-01T16:28:07.000Z</time>
        <extensions>
          <gpxtpx:TrackPointExtension>
            <gpxtpx:speed>3.2</gpxtpx:speed>
          </gpxtpx:TrackPointExtension>
        </extensions>
      </trkpt>
      <trkpt lat="55.31357629224658" lon="12.484976705163717">
        <time>2026-09-01T16:29:46.000Z</time>
        <extensions>
          <gpxtpx:TrackPointExtension>
            <gpxtpx:speed>3.06</gpxtpx:speed>
          </gpxtpx:TrackPointExtension>
        </extensions>
      </trkpt>
      <trkpt lat="55.30628303065896" lon="12.485854625701904">
        <time>2026-09-01T16:34:12.000Z</time>
        <extensions>
          <gpxtpx:TrackPointExtension>
            <gpxtpx:speed>3.163</gpxtpx:speed>
          </gpxtpx:TrackPointExtension>
        </extensions>
      </trkpt>
      <trkpt lat="55.304114716127515" lon="12.486356366425753">
        <time>2026-09-01T16:35:32.000Z</time>
        <extensions>
          <gpxtpx:TrackPointExtension>
            <gpxtpx:speed>3.023</gpxtpx:speed>
          </gpxtpx:TrackPointExtension>
        </extensions>
      </trkpt>
      <trkpt lat="55.2984650619328" lon="12.488493416458368">
        <time>2026-09-01T16:38:58.000Z</time>
        <extensions>
          <gpxtpx:TrackPointExtension>
            <gpxtpx:speed>3.098</gpxtpx:speed>
          </gpxtpx:TrackPointExtension>
        </extensions>
      </trkpt>
      <trkpt lat="55.29414905235171" lon="12.489759335294366">
        <time>2026-09-01T16:41:38.000Z</time>
        <extensions>
          <gpxtpx:TrackPointExtension>
            <gpxtpx:speed>3.126</gpxtpx:speed>
          </gpxtpx:TrackPointExtension>
        </extensions>
      </trkpt>
      <trkpt lat="55.28326992876828" lon="12.493354501202703">
        <time>2026-09-01T16:48:09.000Z</time>
        <extensions>
          <gpxtpx:TrackPointExtension>
            <gpxtpx:speed>3.2</gpxtpx:speed>
          </gpxtpx:TrackPointExtension>
        </extensions>
      </trkpt>
      <trkpt lat="55.277626141905785" lon="12.495695147663355">
        <time>2026-09-01T16:51:35.000Z</time>
        <extensions>
          <gpxtpx:TrackPointExtension>
            <gpxtpx:speed>3.247</gpxtpx:speed>
          </gpxtpx:TrackPointExtension>
        </extensions>
      </trkpt>
      <trkpt lat="55.27292758226395" lon="12.497155023738742">
        <time>2026-09-01T16:54:25.000Z</time>
        <extensions>
          <gpxtpx:TrackPointExtension>
            <gpxtpx:speed>3.2</gpxtpx:speed>
          </gpxtpx:TrackPointExtension>
        </extensions>
      </trkpt>
      <trkpt lat="55.268893456086516" lon="12.498695449903607">
        <time>2026-09-01T16:56:56.000Z</time>
        <extensions>
          <gpxtpx:TrackPointExtension>
            <gpxtpx:speed>3.014</gpxtpx:speed>
          </gpxtpx:TrackPointExtension>
        </extensions>
      </trkpt>
      <trkpt lat="55.2572619728744" lon="12.501642862334847">
        <time>2026-09-01T17:04:25.000Z</time>
        <extensions>
          <gpxtpx:TrackPointExtension>
            <gpxtpx:speed>2.911</gpxtpx:speed>
          </gpxtpx:TrackPointExtension>
        </extensions>
      </trkpt>
      <trkpt lat="55.249256920069456" lon="12.504972573369741">
        <time>2026-09-01T17:09:31.000Z</time>
        <extensions>
          <gpxtpx:TrackPointExtension>
            <gpxtpx:speed>2.874</gpxtpx:speed>
          </gpxtpx:TrackPointExtension>
        </extensions>
      </trkpt>
      <trkpt lat="55.245481710880995" lon="12.506303451955318">
        <time>2026-09-01T17:11:52.000Z</time>
        <extensions>
          <gpxtpx:TrackPointExtension>
            <gpxtpx:speed>3.014</gpxtpx:speed>
          </gpxtpx:TrackPointExtension>
        </extensions>
      </trkpt>
      <trkpt lat="55.24261141195893" lon="12.506820699200034">
        <time>2026-09-01T17:13:40.000Z</time>
        <extensions>
          <gpxtpx:TrackPointExtension>
            <gpxtpx:speed>2.865</gpxtpx:speed>
          </gpxtpx:TrackPointExtension>
        </extensions>
      </trkpt>
      <trkpt lat="55.23367085494101" lon="12.507659895345569">
        <time>2026-09-01T17:19:34.000Z</time>
        <extensions>
          <gpxtpx:TrackPointExtension>
            <gpxtpx:speed>2.818</gpxtpx:speed>
          </gpxtpx:TrackPointExtension>
        </extensions>
      </trkpt>
      <trkpt lat="55.21653103642166" lon="12.511175600811839">
        <time>2026-09-01T17:30:35.000Z</time>
        <extensions>
          <gpxtpx:TrackPointExtension>
            <gpxtpx:speed>2.911</gpxtpx:speed>
          </gpxtpx:TrackPointExtension>
        </extensions>
      </trkpt>
      <trkpt lat="55.20955016836524" lon="12.51406392082572">
        <time>2026-09-01T17:35:00.000Z</time>
        <extensions>
          <gpxtpx:TrackPointExtension>
            <gpxtpx:speed>3.07</gpxtpx:speed>
          </gpxtpx:TrackPointExtension>
        </extensions>
      </trkpt>
      <trkpt lat="55.19397525116801" lon="12.519757831469178">
        <time>2026-09-01T17:44:46.000Z</time>
        <extensions>
          <gpxtpx:TrackPointExtension>
            <gpxtpx:speed>2.921</gpxtpx:speed>
          </gpxtpx:TrackPointExtension>
        </extensions>
      </trkpt>
      <trkpt lat="55.18813893198967" lon="12.521746940910816">
        <time>2026-09-01T17:48:25.000Z</time>
        <extensions>
          <gpxtpx:TrackPointExtension>
            <gpxtpx:speed>3.154</gpxtpx:speed>
          </gpxtpx:TrackPointExtension>
        </extensions>
      </trkpt>
      <trkpt lat="55.183868603780866" lon="12.522906325757504">
        <time>2026-09-01T17:51:03.000Z</time>
        <extensions>
          <gpxtpx:TrackPointExtension>
            <gpxtpx:speed>3.06</gpxtpx:speed>
          </gpxtpx:TrackPointExtension>
        </extensions>
      </trkpt>
      <trkpt lat="55.177746545523405" lon="12.524145087227225">
        <time>2026-09-01T17:54:50.000Z</time>
        <extensions>
          <gpxtpx:TrackPointExtension>
            <gpxtpx:speed>3.014</gpxtpx:speed>
          </gpxtpx:TrackPointExtension>
        </extensions>
      </trkpt>
      <trkpt lat="55.17399991862476" lon="12.525143539533019">
        <time>2026-09-01T17:57:06.000Z</time>
        <extensions>
          <gpxtpx:TrackPointExtension>
            <gpxtpx:speed>3.098</gpxtpx:speed>
          </gpxtpx:TrackPointExtension>
        </extensions>
      </trkpt>
      <trkpt lat="55.168117079883814" lon="12.526345001533628">
        <time>2026-09-01T18:00:29.000Z</time>
        <extensions>
          <gpxtpx:TrackPointExtension>
            <gpxtpx:speed>3.387</gpxtpx:speed>
          </gpxtpx:TrackPointExtension>
        </extensions>
      </trkpt>
      <trkpt lat="55.16378958709538" lon="12.527480162680149">
        <time>2026-09-01T18:02:56.000Z</time>
        <extensions>
          <gpxtpx:TrackPointExtension>
            <gpxtpx:speed>2.809</gpxtpx:speed>
          </gpxtpx:TrackPointExtension>
        </extensions>
      </trkpt>
      <trkpt lat="55.156111093237996" lon="12.529023354873061">
        <time>2026-09-01T18:07:14.000Z</time>
        <extensions>
          <gpxtpx:TrackPointExtension>
            <gpxtpx:speed>3.331</gpxtpx:speed>
          </gpxtpx:TrackPointExtension>
        </extensions>
      </trkpt>
      <trkpt lat="55.15310123562813" lon="12.529119160026312">
        <time>2026-09-01T18:08:57.000Z</time>
        <extensions>
          <gpxtpx:TrackPointExtension>
            <gpxtpx:speed>3.331</gpxtpx:speed>
          </gpxtpx:TrackPointExtension>
        </extensions>
      </trkpt>
      <trkpt lat="55.15030947513878" lon="12.529551414772868">
        <time>2026-09-01T18:10:32.000Z</time>
        <extensions>
          <gpxtpx:TrackPointExtension>
            <gpxtpx:speed>3.49</gpxtpx:speed>
          </gpxtpx:TrackPointExtension>
        </extensions>
      </trkpt>
      <trkpt lat="55.14876343309879" lon="12.529626013711095">
        <time>2026-09-01T18:11:25.000Z</time>
        <extensions>
          <gpxtpx:TrackPointExtension>
            <gpxtpx:speed>3.284</gpxtpx:speed>
          </gpxtpx:TrackPointExtension>
        </extensions>
      </trkpt>
      <trkpt lat="55.1427293010056" lon="12.530838707461953">
        <time>2026-09-01T18:14:45.000Z</time>
        <extensions>
          <gpxtpx:TrackPointExtension>
            <gpxtpx:speed>3.303</gpxtpx:speed>
          </gpxtpx:TrackPointExtension>
        </extensions>
      </trkpt>
      <trkpt lat="55.135681964457035" lon="12.531587295234203">
        <time>2026-09-01T18:18:36.000Z</time>
        <extensions>
          <gpxtpx:TrackPointExtension>
            <gpxtpx:speed>3.471</gpxtpx:speed>
          </gpxtpx:TrackPointExtension>
        </extensions>
      </trkpt>
      <trkpt lat="55.12425810098648" lon="12.533630887046456">
        <time>2026-09-01T18:24:46.000Z</time>
        <extensions>
          <gpxtpx:TrackPointExtension>
            <gpxtpx:speed>3.518</gpxtpx:speed>
          </gpxtpx:TrackPointExtension>
        </extensions>
      </trkpt>
      <trkpt lat="55.11768744327128" lon="12.534135645255446">
        <time>2026-09-01T18:28:17.000Z</time>
        <extensions>
          <gpxtpx:TrackPointExtension>
            <gpxtpx:speed>3.434</gpxtpx:speed>
          </gpxtpx:TrackPointExtension>
        </extensions>
      </trkpt>
      <trkpt lat="55.113082425668836" lon="12.535044578835368">
        <time>2026-09-01T18:30:49.000Z</time>
        <extensions>
          <gpxtpx:TrackPointExtension>
            <gpxtpx:speed>3.443</gpxtpx:speed>
          </gpxtpx:TrackPointExtension>
        </extensions>
      </trkpt>
      <trkpt lat="55.1078344322741" lon="12.535790568217635">
        <time>2026-09-01T18:33:44.000Z</time>
        <extensions>
          <gpxtpx:TrackPointExtension>
            <gpxtpx:speed>3.359</gpxtpx:speed>
          </gpxtpx:TrackPointExtension>
        </extensions>
      </trkpt>
      <trkpt lat="55.104357954114676" lon="12.536934865638614">
        <time>2026-09-01T18:35:37.000Z</time>
        <extensions>
          <gpxtpx:TrackPointExtension>
            <gpxtpx:speed>3.48</gpxtpx:speed>
          </gpxtpx:TrackPointExtension>
        </extensions>
      </trkpt>
      <trkpt lat="55.10345480404794" lon="12.537032766267657">
        <time>2026-09-01T18:36:06.000Z</time>
        <extensions>
          <gpxtpx:TrackPointExtension>
            <gpxtpx:speed>3.415</gpxtpx:speed>
          </gpxtpx:TrackPointExtension>
        </extensions>
      </trkpt>
      <trkpt lat="55.10167113505304" lon="12.537631150335073">
        <time>2026-09-01T18:37:05.000Z</time>
        <extensions>
          <gpxtpx:TrackPointExtension>
            <gpxtpx:speed>3.312</gpxtpx:speed>
          </gpxtpx:TrackPointExtension>
        </extensions>
      </trkpt>
      <trkpt lat="55.09898473508656" lon="12.53820170648396">
        <time>2026-09-01T18:38:34.000Z</time>
        <extensions>
          <gpxtpx:TrackPointExtension>
            <gpxtpx:speed>3.406</gpxtpx:speed>
          </gpxtpx:TrackPointExtension>
        </extensions>
      </trkpt>
      <trkpt lat="55.09706259705126" lon="12.538352413102984">
        <time>2026-09-01T18:39:39.000Z</time>
        <extensions>
          <gpxtpx:TrackPointExtension>
            <gpxtpx:speed>3.35</gpxtpx:speed>
          </gpxtpx:TrackPointExtension>
        </extensions>
      </trkpt>
      <trkpt lat="55.094351302832365" lon="12.539013158529997">
        <time>2026-09-01T18:41:09.000Z</time>
        <extensions>
          <gpxtpx:TrackPointExtension>
            <gpxtpx:speed>3.256</gpxtpx:speed>
          </gpxtpx:TrackPointExtension>
        </extensions>
      </trkpt>
      <trkpt lat="55.09174855425954" lon="12.539994092658162">
        <time>2026-09-01T18:42:35.000Z</time>
        <extensions>
          <gpxtpx:TrackPointExtension>
            <gpxtpx:speed>3.294</gpxtpx:speed>
          </gpxtpx:TrackPointExtension>
        </extensions>
      </trkpt>
      <trkpt lat="55.089035499840975" lon="12.540785176679492">
        <time>2026-09-01T18:44:05.000Z</time>
        <extensions>
          <gpxtpx:TrackPointExtension>
            <gpxtpx:speed>3.546</gpxtpx:speed>
          </gpxtpx:TrackPointExtension>
        </extensions>
      </trkpt>
      <trkpt lat="55.08745852857828" lon="12.541528567671776">
        <time>2026-09-01T18:44:58.000Z</time>
        <extensions>
          <gpxtpx:TrackPointExtension>
            <gpxtpx:speed>3.378</gpxtpx:speed>
          </gpxtpx:TrackPointExtension>
        </extensions>
      </trkpt>
      <trkpt lat="55.082133170217276" lon="12.543218778446317">
        <time>2026-09-01T18:47:53.000Z</time>
        <extensions>
          <gpxtpx:TrackPointExtension>
            <gpxtpx:speed>3.378</gpxtpx:speed>
          </gpxtpx:TrackPointExtension>
        </extensions>
      </trkpt>
      <trkpt lat="55.07984323427081" lon="12.544417139142752">
        <time>2026-09-01T18:49:10.000Z</time>
        <extensions>
          <gpxtpx:TrackPointExtension>
            <gpxtpx:speed>3.462</gpxtpx:speed>
          </gpxtpx:TrackPointExtension>
        </extensions>
      </trkpt>
      <trkpt lat="55.077729569748044" lon="12.545181317254901">
        <time>2026-09-01T18:50:19.000Z</time>
        <extensions>
          <gpxtpx:TrackPointExtension>
            <gpxtpx:speed>3.704</gpxtpx:speed>
          </gpxtpx:TrackPointExtension>
        </extensions>
      </trkpt>
      <trkpt lat="55.06972217001021" lon="12.5489769782871">
        <time>2026-09-01T18:54:44.000Z</time>
        <extensions>
          <gpxtpx:TrackPointExtension>
            <gpxtpx:speed>3.499</gpxtpx:speed>
          </gpxtpx:TrackPointExtension>
        </extensions>
      </trkpt>
      <trkpt lat="55.06647150032222" lon="12.550329901278019">
        <time>2026-09-01T18:56:31.000Z</time>
        <extensions>
          <gpxtpx:TrackPointExtension>
            <gpxtpx:speed>3.256</gpxtpx:speed>
          </gpxtpx:TrackPointExtension>
        </extensions>
      </trkpt>
      <trkpt lat="55.061685433611274" lon="12.55198784172535">
        <time>2026-09-01T18:59:07.000Z</time>
        <extensions>
          <gpxtpx:TrackPointExtension>
            <gpxtpx:speed>3.76</gpxtpx:speed>
          </gpxtpx:TrackPointExtension>
        </extensions>
      </trkpt>
      <trkpt lat="55.058362344279885" lon="12.553514689207077">
        <time>2026-09-01T19:00:54.000Z</time>
        <extensions>
          <gpxtpx:TrackPointExtension>
            <gpxtpx:speed>3.462</gpxtpx:speed>
          </gpxtpx:TrackPointExtension>
        </extensions>
      </trkpt>
      <trkpt lat="55.050200298428535" lon="12.556686904281378">
        <time>2026-09-01T19:05:20.000Z</time>
        <extensions>
          <gpxtpx:TrackPointExtension>
            <gpxtpx:speed>3.527</gpxtpx:speed>
          </gpxtpx:TrackPointExtension>
        </extensions>
      </trkpt>
      <trkpt lat="55.04217663779855" lon="12.558848261833191">
        <time>2026-09-01T19:09:41.000Z</time>
        <extensions>
          <gpxtpx:TrackPointExtension>
            <gpxtpx:speed>3.48</gpxtpx:speed>
          </gpxtpx:TrackPointExtension>
        </extensions>
      </trkpt>
      <trkpt lat="55.03701732493937" lon="12.559593999758363">
        <time>2026-09-01T19:12:29.000Z</time>
        <extensions>
          <gpxtpx:TrackPointExtension>
            <gpxtpx:speed>3.452</gpxtpx:speed>
          </gpxtpx:TrackPointExtension>
        </extensions>
      </trkpt>
      <trkpt lat="55.03553146496415" lon="12.55998333916068">
        <time>2026-09-01T19:13:18.000Z</time>
        <extensions>
          <gpxtpx:TrackPointExtension>
            <gpxtpx:speed>3.49</gpxtpx:speed>
          </gpxtpx:TrackPointExtension>
        </extensions>
      </trkpt>
      <trkpt lat="55.03168232738972" lon="12.561057563871145">
        <time>2026-09-01T19:15:23.000Z</time>
        <extensions>
          <gpxtpx:TrackPointExtension>
            <gpxtpx:speed>3.518</gpxtpx:speed>
          </gpxtpx:TrackPointExtension>
        </extensions>
      </trkpt>
      <trkpt lat="55.02531182952225" lon="12.5632409658283">
        <time>2026-09-01T19:18:47.000Z</time>
        <extensions>
          <gpxtpx:TrackPointExtension>
            <gpxtpx:speed>3.536</gpxtpx:speed>
          </gpxtpx:TrackPointExtension>
        </extensions>
      </trkpt>
      <trkpt lat="55.01984775066376" lon="12.564711570739746">
        <time>2026-09-01T19:21:44.000Z</time>
        <extensions>
          <gpxtpx:TrackPointExtension>
            <gpxtpx:speed>3.424</gpxtpx:speed>
          </gpxtpx:TrackPointExtension>
        </extensions>
      </trkpt>
      <trkpt lat="55.01326946541667" lon="12.566739991307259">
        <time>2026-09-01T19:25:17.000Z</time>
        <extensions>
          <gpxtpx:TrackPointExtension>
            <gpxtpx:speed>3.63</gpxtpx:speed>
          </gpxtpx:TrackPointExtension>
        </extensions>
      </trkpt>
      <trkpt lat="55.00538603402674" lon="12.568666404113173">
        <time>2026-09-01T19:29:31.000Z</time>
        <extensions>
          <gpxtpx:TrackPointExtension>
            <gpxtpx:speed>3.546</gpxtpx:speed>
          </gpxtpx:TrackPointExtension>
        </extensions>
      </trkpt>
      <trkpt lat="55.00302208587527" lon="12.569084241986275">
        <time>2026-09-01T19:30:45.000Z</time>
        <extensions>
          <gpxtpx:TrackPointExtension>
            <gpxtpx:speed>3.695</gpxtpx:speed>
          </gpxtpx:TrackPointExtension>
        </extensions>
      </trkpt>
      <trkpt lat="55.00061245635152" lon="12.569317929446697">
        <time>2026-09-01T19:32:01.000Z</time>
        <extensions>
          <gpxtpx:TrackPointExtension>
            <gpxtpx:speed>3.303</gpxtpx:speed>
          </gpxtpx:TrackPointExtension>
        </extensions>
      </trkpt>
      <trkpt lat="54.9994736071676" lon="12.569274762645364">
        <time>2026-09-01T19:32:38.000Z</time>
        <extensions>
          <gpxtpx:TrackPointExtension>
            <gpxtpx:speed>3.452</gpxtpx:speed>
          </gpxtpx:TrackPointExtension>
        </extensions>
      </trkpt>
      <trkpt lat="54.997281320393085" lon="12.569660833105445">
        <time>2026-09-01T19:33:46.000Z</time>
        <extensions>
          <gpxtpx:TrackPointExtension>
            <gpxtpx:speed>3.62</gpxtpx:speed>
          </gpxtpx:TrackPointExtension>
        </extensions>
      </trkpt>
      <trkpt lat="54.994233241304755" lon="12.569945901632309">
        <time>2026-09-01T19:35:22.000Z</time>
        <extensions>
          <gpxtpx:TrackPointExtension>
            <gpxtpx:speed>3.583</gpxtpx:speed>
          </gpxtpx:TrackPointExtension>
        </extensions>
      </trkpt>
      <trkpt lat="54.98979711905122" lon="12.569862669333816">
        <time>2026-09-01T19:37:43.000Z</time>
        <extensions>
          <gpxtpx:TrackPointExtension>
            <gpxtpx:speed>3.312</gpxtpx:speed>
          </gpxtpx:TrackPointExtension>
        </extensions>
      </trkpt>
      <trkpt lat="54.98791781254113" lon="12.569607272744179">
        <time>2026-09-01T19:38:46.000Z</time>
        <extensions>
          <gpxtpx:TrackPointExtension>
            <gpxtpx:speed>3.247</gpxtpx:speed>
          </gpxtpx:TrackPointExtension>
        </extensions>
      </trkpt>
      <trkpt lat="54.98546308837831" lon="12.569779604673386">
        <time>2026-09-01T19:40:11.000Z</time>
        <extensions>
          <gpxtpx:TrackPointExtension>
            <gpxtpx:speed>2.967</gpxtpx:speed>
          </gpxtpx:TrackPointExtension>
        </extensions>
      </trkpt>
      <trkpt lat="54.98290074057877" lon="12.569460086524487">
        <time>2026-09-01T19:41:40.000Z</time>
        <extensions>
          <gpxtpx:TrackPointExtension>
            <gpxtpx:speed>3.387</gpxtpx:speed>
          </gpxtpx:TrackPointExtension>
        </extensions>
      </trkpt>
      <trkpt lat="54.981628619134426" lon="12.569640297442675">
        <time>2026-09-01T19:42:27.000Z</time>
        <extensions>
          <gpxtpx:TrackPointExtension>
            <gpxtpx:speed>2.846</gpxtpx:speed>
          </gpxtpx:TrackPointExtension>
        </extensions>
      </trkpt>
      <trkpt lat="54.980005295947194" lon="12.569532925263047">
        <time>2026-09-01T19:43:27.000Z</time>
        <extensions>
          <gpxtpx:TrackPointExtension>
            <gpxtpx:speed>2.883</gpxtpx:speed>
          </gpxtpx:TrackPointExtension>
        </extensions>
      </trkpt>
      <trkpt lat="54.977846117690206" lon="12.569668292999268">
        <time>2026-09-01T19:44:49.000Z</time>
        <extensions>
          <gpxtpx:TrackPointExtension>
            <gpxtpx:speed>3.116</gpxtpx:speed>
          </gpxtpx:TrackPointExtension>
        </extensions>
      </trkpt>
      <trkpt lat="54.9704606551677" lon="12.568964883685112">
        <time>2026-09-01T19:49:31.000Z</time>
        <extensions>
          <gpxtpx:TrackPointExtension>
            <gpxtpx:speed>3.051</gpxtpx:speed>
          </gpxtpx:TrackPointExtension>
        </extensions>
      </trkpt>
      <trkpt lat="54.968482945114374" lon="12.568555679172277">
        <time>2026-09-01T19:50:42.000Z</time>
        <extensions>
          <gpxtpx:TrackPointExtension>
            <gpxtpx:speed>2.631</gpxtpx:speed>
          </gpxtpx:TrackPointExtension>
        </extensions>
      </trkpt>
      <trkpt lat="54.96578271500766" lon="12.568856924772263">
        <time>2026-09-01T19:52:47.000Z</time>
        <extensions>
          <gpxtpx:TrackPointExtension>
            <gpxtpx:speed>2.631</gpxtpx:speed>
          </gpxtpx:TrackPointExtension>
        </extensions>
      </trkpt>
      <trkpt lat="54.96505935676396" lon="12.568464148789644">
        <time>2026-09-01T19:53:23.000Z</time>
        <extensions>
          <gpxtpx:TrackPointExtension>
            <gpxtpx:speed>2.445</gpxtpx:speed>
          </gpxtpx:TrackPointExtension>
        </extensions>
      </trkpt>
      <trkpt lat="54.96399116702378" lon="12.567540127784014">
        <time>2026-09-01T19:54:15.000Z</time>
        <extensions>
          <gpxtpx:TrackPointExtension>
            <gpxtpx:speed>2.501</gpxtpx:speed>
          </gpxtpx:TrackPointExtension>
        </extensions>
      </trkpt>
      <trkpt lat="54.9612357839942" lon="12.564273783937097">
        <time>2026-09-01T19:57:23.000Z</time>
        <extensions>
          <gpxtpx:TrackPointExtension>
            <gpxtpx:speed>2.071</gpxtpx:speed>
          </gpxtpx:TrackPointExtension>
        </extensions>
      </trkpt>
      <trkpt lat="54.957219175994396" lon="12.561247749254107">
        <time>2026-09-01T20:01:17.000Z</time>
        <extensions>
          <gpxtpx:TrackPointExtension>
            <gpxtpx:speed>1.922</gpxtpx:speed>
          </gpxtpx:TrackPointExtension>
        </extensions>
      </trkpt>
      <trkpt lat="54.95528153143823" lon="12.560009490698576">
        <time>2026-09-01T20:03:17.000Z</time>
        <extensions>
          <gpxtpx:TrackPointExtension>
            <gpxtpx:speed>1.782</gpxtpx:speed>
          </gpxtpx:TrackPointExtension>
        </extensions>
      </trkpt>
      <trkpt lat="54.95333424769342" lon="12.557420320808887">
        <time>2026-09-01T20:05:37.000Z</time>
        <extensions>
          <gpxtpx:TrackPointExtension>
            <gpxtpx:speed>1.838</gpxtpx:speed>
          </gpxtpx:TrackPointExtension>
        </extensions>
      </trkpt>
      <trkpt lat="54.94918294250965" lon="12.55613872781396">
        <time>2026-09-01T20:09:18.000Z</time>
        <extensions>
          <gpxtpx:TrackPointExtension>
            <gpxtpx:speed>2.034</gpxtpx:speed>
          </gpxtpx:TrackPointExtension>
        </extensions>
      </trkpt>
      <trkpt lat="54.94836159981787" lon="12.555456692352891">
        <time>2026-09-01T20:10:13.000Z</time>
        <extensions>
          <gpxtpx:TrackPointExtension>
            <gpxtpx:speed>1.456</gpxtpx:speed>
          </gpxtpx:TrackPointExtension>
        </extensions>
      </trkpt>
      <trkpt lat="54.94354007765651" lon="12.546731298789382">
        <time>2026-09-01T20:17:33.000Z</time>
        <extensions>
          <gpxtpx:TrackPointExtension>
            <gpxtpx:speed>1.624</gpxtpx:speed>
          </gpxtpx:TrackPointExtension>
        </extensions>
      </trkpt>
      <trkpt lat="54.94335198774934" lon="12.54393090493977">
        <time>2026-09-01T20:19:11.000Z</time>
        <extensions>
          <gpxtpx:TrackPointExtension>
            <gpxtpx:speed>1.512</gpxtpx:speed>
          </gpxtpx:TrackPointExtension>
        </extensions>
      </trkpt>
      <trkpt lat="54.94245478883386" lon="12.541434019804">
        <time>2026-09-01T20:21:07.000Z</time>
        <extensions>
          <gpxtpx:TrackPointExtension>
            <gpxtpx:speed>1.39</gpxtpx:speed>
          </gpxtpx:TrackPointExtension>
        </extensions>
      </trkpt>
      <trkpt lat="54.942296370863914" lon="12.54045476205647">
        <time>2026-09-01T20:21:47.000Z</time>
        <extensions>
          <gpxtpx:TrackPointExtension>
            <gpxtpx:speed>1.568</gpxtpx:speed>
          </gpxtpx:TrackPointExtension>
        </extensions>
      </trkpt>
      <trkpt lat="54.94115115143359" lon="12.538348138332367">
        <time>2026-09-01T20:23:45.000Z</time>
        <extensions>
          <gpxtpx:TrackPointExtension>
            <gpxtpx:speed>1.269</gpxtpx:speed>
          </gpxtpx:TrackPointExtension>
        </extensions>
      </trkpt>
      <trkpt lat="54.9412090703845" lon="12.536346120759845">
        <time>2026-09-01T20:25:04.000Z</time>
        <extensions>
          <gpxtpx:TrackPointExtension>
            <gpxtpx:speed>1.624</gpxtpx:speed>
          </gpxtpx:TrackPointExtension>
        </extensions>
      </trkpt>
      <trkpt lat="54.94087278842926" lon="12.53431267105043">
        <time>2026-09-01T20:26:30.000Z</time>
        <extensions>
          <gpxtpx:TrackPointExtension>
            <gpxtpx:speed>1.334</gpxtpx:speed>
          </gpxtpx:TrackPointExtension>
        </extensions>
      </trkpt>
      <trkpt lat="54.94058948010206" lon="12.533710012212396">
        <time>2026-09-01T20:27:03.000Z</time>
        <extensions>
          <gpxtpx:TrackPointExtension>
            <gpxtpx:speed>1.633</gpxtpx:speed>
          </gpxtpx:TrackPointExtension>
        </extensions>
      </trkpt>
      <trkpt lat="54.94026996195316" lon="12.532258853316307">
        <time>2026-09-01T20:28:05.000Z</time>
        <extensions>
          <gpxtpx:TrackPointExtension>
            <gpxtpx:speed>1.68</gpxtpx:speed>
          </gpxtpx:TrackPointExtension>
        </extensions>
      </trkpt>
      <trkpt lat="54.94004490785301" lon="12.530485326424241">
        <time>2026-09-01T20:29:20.000Z</time>
        <extensions>
          <gpxtpx:TrackPointExtension>
            <gpxtpx:speed>1.652</gpxtpx:speed>
          </gpxtpx:TrackPointExtension>
        </extensions>
      </trkpt>
      <trkpt lat="54.939597146585584" lon="12.530046617612243">
        <time>2026-09-01T20:30:01.000Z</time>
        <extensions>
          <gpxtpx:TrackPointExtension>
            <gpxtpx:speed>1.372</gpxtpx:speed>
          </gpxtpx:TrackPointExtension>
        </extensions>
      </trkpt>
      <trkpt lat="54.9385033082217" lon="12.529833884909749">
        <time>2026-09-01T20:31:04.000Z</time>
        <extensions>
          <gpxtpx:TrackPointExtension>
            <gpxtpx:speed>1.969</gpxtpx:speed>
          </gpxtpx:TrackPointExtension>
        </extensions>
      </trkpt>
      <trkpt lat="54.93441805243492" lon="12.52748217433691">
        <time>2026-09-01T20:34:27.000Z</time>
        <extensions>
          <gpxtpx:TrackPointExtension>
            <gpxtpx:speed>2.09</gpxtpx:speed>
          </gpxtpx:TrackPointExtension>
        </extensions>
      </trkpt>
      <trkpt lat="54.93369838222861" lon="12.527363318949938">
        <time>2026-09-01T20:34:58.000Z</time>
        <extensions>
          <gpxtpx:TrackPointExtension>
            <gpxtpx:speed>2.445</gpxtpx:speed>
          </gpxtpx:TrackPointExtension>
        </extensions>
      </trkpt>
      <trkpt lat="54.93359771557152" lon="12.526871217414737">
        <time>2026-09-01T20:35:21.000Z</time>
        <extensions>
          <gpxtpx:TrackPointExtension>
            <gpxtpx:speed>1.465</gpxtpx:speed>
          </gpxtpx:TrackPointExtension>
        </extensions>
      </trkpt>
      <trkpt lat="54.93514157831669" lon="12.525567580014467">
        <time>2026-09-01T20:36:43.000Z</time>
        <extensions>
          <gpxtpx:TrackPointExtension>
            <gpxtpx:speed>2.687</gpxtpx:speed>
          </gpxtpx:TrackPointExtension>
        </extensions>
      </trkpt>
      <trkpt lat="54.9364120233804" lon="12.52359414473176">
        <time>2026-09-01T20:38:09.000Z</time>
        <extensions>
          <gpxtpx:TrackPointExtension>
            <gpxtpx:speed>2.351</gpxtpx:speed>
          </gpxtpx:TrackPointExtension>
        </extensions>
      </trkpt>
      <trkpt lat="54.93726580403745" lon="12.52161668613553">
        <time>2026-09-01T20:39:26.000Z</time>
        <extensions>
          <gpxtpx:TrackPointExtension>
            <gpxtpx:speed>1.913</gpxtpx:speed>
          </gpxtpx:TrackPointExtension>
        </extensions>
      </trkpt>
      <trkpt lat="54.93902734480798" lon="12.518406081944704">
        <time>2026-09-01T20:41:37.000Z</time>
        <extensions>
          <gpxtpx:TrackPointExtension>
            <gpxtpx:speed>2.669</gpxtpx:speed>
          </gpxtpx:TrackPointExtension>
        </extensions>
      </trkpt>
      <trkpt lat="54.93889885023236" lon="12.517950860783458">
        <time>2026-09-01T20:42:01.000Z</time>
        <extensions>
          <gpxtpx:TrackPointExtension>
            <gpxtpx:speed>1.754</gpxtpx:speed>
          </gpxtpx:TrackPointExtension>
        </extensions>
      </trkpt>
      <trkpt lat="54.93803836405277" lon="12.517340825870633">
        <time>2026-09-01T20:42:53.000Z</time>
        <extensions>
          <gpxtpx:TrackPointExtension>
            <gpxtpx:speed>1.931</gpxtpx:speed>
          </gpxtpx:TrackPointExtension>
        </extensions>
      </trkpt>
      <trkpt lat="54.9375912733376" lon="12.517256001010537">
        <time>2026-09-01T20:43:13.000Z</time>
        <extensions>
          <gpxtpx:TrackPointExtension>
            <gpxtpx:speed>2.893</gpxtpx:speed>
          </gpxtpx:TrackPointExtension>
        </extensions>
      </trkpt>
      <trkpt lat="54.93687788955867" lon="12.516665244475007">
        <time>2026-09-01T20:43:55.000Z</time>
        <extensions>
          <gpxtpx:TrackPointExtension>
            <gpxtpx:speed>1.596</gpxtpx:speed>
          </gpxtpx:TrackPointExtension>
        </extensions>
      </trkpt>
      <trkpt lat="54.936539931222796" lon="12.516653425991535">
        <time>2026-09-01T20:44:13.000Z</time>
        <extensions>
          <gpxtpx:TrackPointExtension>
            <gpxtpx:speed>2.361</gpxtpx:speed>
          </gpxtpx:TrackPointExtension>
        </extensions>
      </trkpt>
      <trkpt lat="54.934813594445586" lon="12.515263706445694">
        <time>2026-09-01T20:46:01.000Z</time>
        <extensions>
          <gpxtpx:TrackPointExtension>
            <gpxtpx:speed>1.456</gpxtpx:speed>
          </gpxtpx:TrackPointExtension>
        </extensions>
      </trkpt>
      <trkpt lat="54.93452114984393" lon="12.515247194096446">
        <time>2026-09-01T20:46:17.000Z</time>
        <extensions>
          <gpxtpx:TrackPointExtension>
            <gpxtpx:speed>2.361</gpxtpx:speed>
          </gpxtpx:TrackPointExtension>
        </extensions>
      </trkpt>
      <trkpt lat="54.933507442474365" lon="12.514339517802">
        <time>2026-09-01T20:47:22.000Z</time>
        <extensions>
          <gpxtpx:TrackPointExtension>
            <gpxtpx:speed>1.717</gpxtpx:speed>
          </gpxtpx:TrackPointExtension>
        </extensions>
      </trkpt>
      <trkpt lat="54.93244151584804" lon="12.51384942792356">
        <time>2026-09-01T20:48:18.000Z</time>
        <extensions>
          <gpxtpx:TrackPointExtension>
            <gpxtpx:speed>1.913</gpxtpx:speed>
          </gpxtpx:TrackPointExtension>
        </extensions>
      </trkpt>
      <trkpt lat="54.93227823637426" lon="12.513434272259474">
        <time>2026-09-01T20:48:49.000Z</time>
        <extensions>
          <gpxtpx:TrackPointExtension>
            <gpxtpx:speed>1.045</gpxtpx:speed>
          </gpxtpx:TrackPointExtension>
        </extensions>
      </trkpt>
      <trkpt lat="54.93263061158359" lon="12.512596333399415">
        <time>2026-09-01T20:49:29.000Z</time>
        <extensions>
          <gpxtpx:TrackPointExtension>
            <gpxtpx:speed>1.577</gpxtpx:speed>
          </gpxtpx:TrackPointExtension>
        </extensions>
      </trkpt>
      <trkpt lat="54.933741549029946" lon="12.511458490043879">
        <time>2026-09-01T20:50:29.000Z</time>
        <extensions>
          <gpxtpx:TrackPointExtension>
            <gpxtpx:speed>2.109</gpxtpx:speed>
          </gpxtpx:TrackPointExtension>
        </extensions>
      </trkpt>
      <trkpt lat="54.93488718755543" lon="12.509482624009252">
        <time>2026-09-01T20:51:55.000Z</time>
        <extensions>
          <gpxtpx:TrackPointExtension>
            <gpxtpx:speed>2.155</gpxtpx:speed>
          </gpxtpx:TrackPointExtension>
        </extensions>
      </trkpt>
      <trkpt lat="54.93866994045675" lon="12.502225656062365">
        <time>2026-09-01T20:57:10.000Z</time>
        <extensions>
          <gpxtpx:TrackPointExtension>
            <gpxtpx:speed>2.183</gpxtpx:speed>
          </gpxtpx:TrackPointExtension>
        </extensions>
      </trkpt>
      <trkpt lat="54.939506370574236" lon="12.49966649338603">
        <time>2026-09-01T20:59:00.000Z</time>
        <extensions>
          <gpxtpx:TrackPointExtension>
            <gpxtpx:speed>1.586</gpxtpx:speed>
          </gpxtpx:TrackPointExtension>
        </extensions>
      </trkpt>
      <trkpt lat="54.93951693177223" lon="12.49847031198442">
        <time>2026-09-01T20:59:47.000Z</time>
        <extensions>
          <gpxtpx:TrackPointExtension>
            <gpxtpx:speed>1.68</gpxtpx:speed>
          </gpxtpx:TrackPointExtension>
        </extensions>
      </trkpt>
      <trkpt lat="54.93929305113852" lon="12.497612927109003">
        <time>2026-09-01T21:00:36.000Z</time>
        <extensions>
          <gpxtpx:TrackPointExtension>
            <gpxtpx:speed>1.101</gpxtpx:speed>
          </gpxtpx:TrackPointExtension>
        </extensions>
      </trkpt>
      <trkpt lat="54.93965414352715" lon="12.496131425723433">
        <time>2026-09-01T21:01:42.000Z</time>
        <extensions>
          <gpxtpx:TrackPointExtension>
            <gpxtpx:speed>1.428</gpxtpx:speed>
          </gpxtpx:TrackPointExtension>
        </extensions>
      </trkpt>
      <trkpt lat="54.940015906468034" lon="12.489481894299388">
        <time>2026-09-01T21:07:00.000Z</time>
        <extensions>
          <gpxtpx:TrackPointExtension>
            <gpxtpx:speed>1.166</gpxtpx:speed>
          </gpxtpx:TrackPointExtension>
        </extensions>
      </trkpt>
      <trkpt lat="54.941521380096674" lon="12.477608257904649">
        <time>2026-09-01T21:16:03.000Z</time>
        <extensions>
          <gpxtpx:TrackPointExtension>
            <gpxtpx:speed>1.446</gpxtpx:speed>
          </gpxtpx:TrackPointExtension>
        </extensions>
      </trkpt>
      <trkpt lat="54.94178960099816" lon="12.476992774754763">
        <time>2026-09-01T21:16:39.000Z</time>
        <extensions>
          <gpxtpx:TrackPointExtension>
            <gpxtpx:speed>1.633</gpxtpx:speed>
          </gpxtpx:TrackPointExtension>
        </extensions>
      </trkpt>
      <trkpt lat="54.94354854337871" lon="12.474624216556549">
        <time>2026-09-01T21:18:49.000Z</time>
        <extensions>
          <gpxtpx:TrackPointExtension>
            <gpxtpx:speed>1.959</gpxtpx:speed>
          </gpxtpx:TrackPointExtension>
        </extensions>
      </trkpt>
      <trkpt lat="54.94527529925108" lon="12.472595041617751">
        <time>2026-09-01T21:20:48.000Z</time>
        <extensions>
          <gpxtpx:TrackPointExtension>
            <gpxtpx:speed>1.875</gpxtpx:speed>
          </gpxtpx:TrackPointExtension>
        </extensions>
      </trkpt>
      <trkpt lat="54.94626277126372" lon="12.471168106421828">
        <time>2026-09-01T21:22:02.000Z</time>
        <extensions>
          <gpxtpx:TrackPointExtension>
            <gpxtpx:speed>1.95</gpxtpx:speed>
          </gpxtpx:TrackPointExtension>
        </extensions>
      </trkpt>
      <trkpt lat="54.94735577143729" lon="12.470089523121715">
        <time>2026-09-01T21:23:14.000Z</time>
        <extensions>
          <gpxtpx:TrackPointExtension>
            <gpxtpx:speed>1.866</gpxtpx:speed>
          </gpxtpx:TrackPointExtension>
        </extensions>
      </trkpt>
      <trkpt lat="54.95125159621239" lon="12.463009832426906">
        <time>2026-09-01T21:28:37.000Z</time>
        <extensions>
          <gpxtpx:TrackPointExtension>
            <gpxtpx:speed>1.81</gpxtpx:speed>
          </gpxtpx:TrackPointExtension>
        </extensions>
      </trkpt>
      <trkpt lat="54.95145879685879" lon="12.463071271777153">
        <time>2026-09-01T21:28:50.000Z</time>
        <extensions>
          <gpxtpx:TrackPointExtension>
            <gpxtpx:speed>1.764</gpxtpx:speed>
          </gpxtpx:TrackPointExtension>
        </extensions>
      </trkpt>
      <trkpt lat="54.95192357338965" lon="12.464284049347043">
        <time>2026-09-01T21:30:08.000Z</time>
        <extensions>
          <gpxtpx:TrackPointExtension>
            <gpxtpx:speed>0.802</gpxtpx:speed>
          </gpxtpx:TrackPointExtension>
        </extensions>
      </trkpt>
      <trkpt lat="54.95214108377695" lon="12.464360659942031">
        <time>2026-09-01T21:30:43.000Z</time>
        <extensions>
          <gpxtpx:TrackPointExtension>
            <gpxtpx:speed>0.606</gpxtpx:speed>
          </gpxtpx:TrackPointExtension>
        </extensions>
      </trkpt>
    </trkseg>
  </trk>
</gpx>
