<?xml version="1.0" encoding="UTF-8"?>
<gpx version="1.1" creator="SailTies" xmlns="http://www.topografix.com/GPX/1/1" xmlns:xsi="http://www.w3.org/2001/XMLSchema-instance" xmlns:gpxtpx="http://www.garmin.com/xmlschemas/TrackPointExtension/v2" xsi:schemaLocation="http://www.topografix.com/GPX/1/1 http://www.topografix.com/GPX/1/1/gpx.xsd http://www.garmin.com/xmlschemas/TrackPointExtension/v2 http://www.garmin.com/xmlschemas/TrackPointExtensionv2.xsd">
  <metadata>
    <name>Aurora Delivery. Passage 4</name>
    <desc>Distance: 38.8 NM • Duration: 9h 13m • Avg speed: 4.2 kn • Max speed: 6.4 kn • Vessel: Aurora • Heiligenhafen to Wellingdorf, Germany</desc>
    <author><name>SailTies</name><link href="https://sailties.com"><text>SailTies</text></link></author>
    <link href="https://sailties.com"><text>SailTies</text></link>
    <time>2026-09-11T08:24:30.000Z</time>
    <bounds minlat="54.329799357801676" minlon="10.166719062253833" maxlat="54.45740536786616" maxlon="11.035373071208596"/>
  </metadata>
  <trk>
    <name>Aurora Delivery. Passage 4</name>
    <desc>Distance: 38.8 NM • Duration: 9h 13m • Avg speed: 4.2 kn • Max speed: 6.4 kn • Vessel: Aurora • Heiligenhafen to Wellingdorf, Germany</desc>
    <type>sailing</type>
    <trkseg>
      <trkpt lat="54.37626116909087" lon="10.983346598222852">
        <time>2026-09-11T08:24:30.000Z</time>
        <extensions>
          <gpxtpx:TrackPointExtension>
            <gpxtpx:speed>0.989</gpxtpx:speed>
          </gpxtpx:TrackPointExtension>
        </extensions>
      </trkpt>
      <trkpt lat="54.37629511579871" lon="10.983675001189113">
        <time>2026-09-11T08:24:47.000Z</time>
        <extensions>
          <gpxtpx:TrackPointExtension>
            <gpxtpx:speed>1.232</gpxtpx:speed>
          </gpxtpx:TrackPointExtension>
        </extensions>
      </trkpt>
      <trkpt lat="54.37528459355235" lon="10.985547602176666">
        <time>2026-09-11T08:26:49.000Z</time>
        <extensions>
          <gpxtpx:TrackPointExtension>
            <gpxtpx:speed>1.372</gpxtpx:speed>
          </gpxtpx:TrackPointExtension>
        </extensions>
      </trkpt>
      <trkpt lat="54.3748986069113" lon="10.986940506845713">
        <time>2026-09-11T08:27:50.000Z</time>
        <extensions>
          <gpxtpx:TrackPointExtension>
            <gpxtpx:speed>1.866</gpxtpx:speed>
          </gpxtpx:TrackPointExtension>
        </extensions>
      </trkpt>
      <trkpt lat="54.37318744137883" lon="11.00553852505982">
        <time>2026-09-11T08:38:16.000Z</time>
        <extensions>
          <gpxtpx:TrackPointExtension>
            <gpxtpx:speed>2.034</gpxtpx:speed>
          </gpxtpx:TrackPointExtension>
        </extensions>
      </trkpt>
      <trkpt lat="54.37303204089403" lon="11.011861581355333">
        <time>2026-09-11T08:41:41.000Z</time>
        <extensions>
          <gpxtpx:TrackPointExtension>
            <gpxtpx:speed>1.969</gpxtpx:speed>
          </gpxtpx:TrackPointExtension>
        </extensions>
      </trkpt>
      <trkpt lat="54.37337561510503" lon="11.025567669421434">
        <time>2026-09-11T08:49:12.000Z</time>
        <extensions>
          <gpxtpx:TrackPointExtension>
            <gpxtpx:speed>1.838</gpxtpx:speed>
          </gpxtpx:TrackPointExtension>
        </extensions>
      </trkpt>
      <trkpt lat="54.37362187542021" lon="11.026867115870118">
        <time>2026-09-11T08:49:57.000Z</time>
        <extensions>
          <gpxtpx:TrackPointExtension>
            <gpxtpx:speed>1.969</gpxtpx:speed>
          </gpxtpx:TrackPointExtension>
        </extensions>
      </trkpt>
      <trkpt lat="54.37461404129863" lon="11.028318190947175">
        <time>2026-09-11T08:51:07.000Z</time>
        <extensions>
          <gpxtpx:TrackPointExtension>
            <gpxtpx:speed>2.118</gpxtpx:speed>
          </gpxtpx:TrackPointExtension>
        </extensions>
      </trkpt>
      <trkpt lat="54.37580997124314" lon="11.029632892459631">
        <time>2026-09-11T08:52:21.000Z</time>
        <extensions>
          <gpxtpx:TrackPointExtension>
            <gpxtpx:speed>2.118</gpxtpx:speed>
          </gpxtpx:TrackPointExtension>
        </extensions>
      </trkpt>
      <trkpt lat="54.37721016816795" lon="11.031585624441504">
        <time>2026-09-11T08:53:55.000Z</time>
        <extensions>
          <gpxtpx:TrackPointExtension>
            <gpxtpx:speed>2.09</gpxtpx:speed>
          </gpxtpx:TrackPointExtension>
        </extensions>
      </trkpt>
      <trkpt lat="54.380435440689325" lon="11.035231249406934">
        <time>2026-09-11T08:57:13.000Z</time>
        <extensions>
          <gpxtpx:TrackPointExtension>
            <gpxtpx:speed>2.314</gpxtpx:speed>
          </gpxtpx:TrackPointExtension>
        </extensions>
      </trkpt>
      <trkpt lat="54.38079234212637" lon="11.035373071208596">
        <time>2026-09-11T08:57:33.000Z</time>
        <extensions>
          <gpxtpx:TrackPointExtension>
            <gpxtpx:speed>2.099</gpxtpx:speed>
          </gpxtpx:TrackPointExtension>
        </extensions>
      </trkpt>
      <trkpt lat="54.38132358714938" lon="11.034871246665716">
        <time>2026-09-11T08:58:05.000Z</time>
        <extensions>
          <gpxtpx:TrackPointExtension>
            <gpxtpx:speed>2.071</gpxtpx:speed>
          </gpxtpx:TrackPointExtension>
        </extensions>
      </trkpt>
      <trkpt lat="54.38304740935564" lon="11.03237695991993">
        <time>2026-09-11T09:00:01.000Z</time>
        <extensions>
          <gpxtpx:TrackPointExtension>
            <gpxtpx:speed>2.342</gpxtpx:speed>
          </gpxtpx:TrackPointExtension>
        </extensions>
      </trkpt>
      <trkpt lat="54.38606908544898" lon="11.02896829135716">
        <time>2026-09-11T09:03:18.000Z</time>
        <extensions>
          <gpxtpx:TrackPointExtension>
            <gpxtpx:speed>1.698</gpxtpx:speed>
          </gpxtpx:TrackPointExtension>
        </extensions>
      </trkpt>
      <trkpt lat="54.38691456802189" lon="11.027397438883781">
        <time>2026-09-11T09:04:45.000Z</time>
        <extensions>
          <gpxtpx:TrackPointExtension>
            <gpxtpx:speed>1.484</gpxtpx:speed>
          </gpxtpx:TrackPointExtension>
        </extensions>
      </trkpt>
      <trkpt lat="54.38796599395573" lon="11.026493785902858">
        <time>2026-09-11T09:06:07.000Z</time>
        <extensions>
          <gpxtpx:TrackPointExtension>
            <gpxtpx:speed>1.624</gpxtpx:speed>
          </gpxtpx:TrackPointExtension>
        </extensions>
      </trkpt>
      <trkpt lat="54.3887688126415" lon="11.024493696168065">
        <time>2026-09-11T09:07:26.000Z</time>
        <extensions>
          <gpxtpx:TrackPointExtension>
            <gpxtpx:speed>1.978</gpxtpx:speed>
          </gpxtpx:TrackPointExtension>
        </extensions>
      </trkpt>
      <trkpt lat="54.389829291030765" lon="11.023532962426543">
        <time>2026-09-11T09:08:43.000Z</time>
        <extensions>
          <gpxtpx:TrackPointExtension>
            <gpxtpx:speed>2.034</gpxtpx:speed>
          </gpxtpx:TrackPointExtension>
        </extensions>
      </trkpt>
      <trkpt lat="54.390456173568964" lon="11.021555000916123">
        <time>2026-09-11T09:09:50.000Z</time>
        <extensions>
          <gpxtpx:TrackPointExtension>
            <gpxtpx:speed>2.211</gpxtpx:speed>
          </gpxtpx:TrackPointExtension>
        </extensions>
      </trkpt>
      <trkpt lat="54.3917028978467" lon="11.019593300297856">
        <time>2026-09-11T09:11:23.000Z</time>
        <extensions>
          <gpxtpx:TrackPointExtension>
            <gpxtpx:speed>1.875</gpxtpx:speed>
          </gpxtpx:TrackPointExtension>
        </extensions>
      </trkpt>
      <trkpt lat="54.39317425712943" lon="11.012283693999052">
        <time>2026-09-11T09:15:13.000Z</time>
        <extensions>
          <gpxtpx:TrackPointExtension>
            <gpxtpx:speed>2.333</gpxtpx:speed>
          </gpxtpx:TrackPointExtension>
        </extensions>
      </trkpt>
      <trkpt lat="54.39437823370099" lon="11.009445497766137">
        <time>2026-09-11T09:16:54.000Z</time>
        <extensions>
          <gpxtpx:TrackPointExtension>
            <gpxtpx:speed>2.006</gpxtpx:speed>
          </gpxtpx:TrackPointExtension>
        </extensions>
      </trkpt>
      <trkpt lat="54.39535791054368" lon="11.000203778967261">
        <time>2026-09-11T09:21:04.000Z</time>
        <extensions>
          <gpxtpx:TrackPointExtension>
            <gpxtpx:speed>2.594</gpxtpx:speed>
          </gpxtpx:TrackPointExtension>
        </extensions>
      </trkpt>
      <trkpt lat="54.395417338237166" lon="10.995517624542117">
        <time>2026-09-11T09:23:00.000Z</time>
        <extensions>
          <gpxtpx:TrackPointExtension>
            <gpxtpx:speed>2.51</gpxtpx:speed>
          </gpxtpx:TrackPointExtension>
        </extensions>
      </trkpt>
      <trkpt lat="54.3961132876575" lon="10.990199474617839">
        <time>2026-09-11T09:25:39.000Z</time>
        <extensions>
          <gpxtpx:TrackPointExtension>
            <gpxtpx:speed>2.23</gpxtpx:speed>
          </gpxtpx:TrackPointExtension>
        </extensions>
      </trkpt>
      <trkpt lat="54.39621043391526" lon="10.985907856374979">
        <time>2026-09-11T09:27:21.000Z</time>
        <extensions>
          <gpxtpx:TrackPointExtension>
            <gpxtpx:speed>2.622</gpxtpx:speed>
          </gpxtpx:TrackPointExtension>
        </extensions>
      </trkpt>
      <trkpt lat="54.396935468539596" lon="10.982175646349788">
        <time>2026-09-11T09:29:09.000Z</time>
        <extensions>
          <gpxtpx:TrackPointExtension>
            <gpxtpx:speed>2.669</gpxtpx:speed>
          </gpxtpx:TrackPointExtension>
        </extensions>
      </trkpt>
      <trkpt lat="54.397024400532246" lon="10.978935286402702">
        <time>2026-09-11T09:30:23.000Z</time>
        <extensions>
          <gpxtpx:TrackPointExtension>
            <gpxtpx:speed>2.818</gpxtpx:speed>
          </gpxtpx:TrackPointExtension>
        </extensions>
      </trkpt>
      <trkpt lat="54.39764021895826" lon="10.974727822467685">
        <time>2026-09-11T09:32:13.000Z</time>
        <extensions>
          <gpxtpx:TrackPointExtension>
            <gpxtpx:speed>2.641</gpxtpx:speed>
          </gpxtpx:TrackPointExtension>
        </extensions>
      </trkpt>
      <trkpt lat="54.39807951450348" lon="10.96932870335877">
        <time>2026-09-11T09:34:23.000Z</time>
        <extensions>
          <gpxtpx:TrackPointExtension>
            <gpxtpx:speed>2.557</gpxtpx:speed>
          </gpxtpx:TrackPointExtension>
        </extensions>
      </trkpt>
      <trkpt lat="54.39913999289274" lon="10.962078105658293">
        <time>2026-09-11T09:37:40.000Z</time>
        <extensions>
          <gpxtpx:TrackPointExtension>
            <gpxtpx:speed>2.547</gpxtpx:speed>
          </gpxtpx:TrackPointExtension>
        </extensions>
      </trkpt>
      <trkpt lat="54.39936764538288" lon="10.957510471343994">
        <time>2026-09-11T09:39:30.000Z</time>
        <extensions>
          <gpxtpx:TrackPointExtension>
            <gpxtpx:speed>2.463</gpxtpx:speed>
          </gpxtpx:TrackPointExtension>
        </extensions>
      </trkpt>
      <trkpt lat="54.400010872632265" lon="10.95454084686935">
        <time>2026-09-11T09:41:02.000Z</time>
        <extensions>
          <gpxtpx:TrackPointExtension>
            <gpxtpx:speed>2.323</gpxtpx:speed>
          </gpxtpx:TrackPointExtension>
        </extensions>
      </trkpt>
      <trkpt lat="54.400270376354456" lon="10.95106570981443">
        <time>2026-09-11T09:42:26.000Z</time>
        <extensions>
          <gpxtpx:TrackPointExtension>
            <gpxtpx:speed>2.678</gpxtpx:speed>
          </gpxtpx:TrackPointExtension>
        </extensions>
      </trkpt>
      <trkpt lat="54.400734314695" lon="10.948839811608195">
        <time>2026-09-11T09:43:25.000Z</time>
        <extensions>
          <gpxtpx:TrackPointExtension>
            <gpxtpx:speed>2.669</gpxtpx:speed>
          </gpxtpx:TrackPointExtension>
        </extensions>
      </trkpt>
      <trkpt lat="54.400977892801166" lon="10.946599580347538">
        <time>2026-09-11T09:44:23.000Z</time>
        <extensions>
          <gpxtpx:TrackPointExtension>
            <gpxtpx:speed>2.333</gpxtpx:speed>
          </gpxtpx:TrackPointExtension>
        </extensions>
      </trkpt>
      <trkpt lat="54.401410818099976" lon="10.944796381518245">
        <time>2026-09-11T09:45:19.000Z</time>
        <extensions>
          <gpxtpx:TrackPointExtension>
            <gpxtpx:speed>2.239</gpxtpx:speed>
          </gpxtpx:TrackPointExtension>
        </extensions>
      </trkpt>
      <trkpt lat="54.4017740059644" lon="10.941438339650631">
        <time>2026-09-11T09:46:51.000Z</time>
        <extensions>
          <gpxtpx:TrackPointExtension>
            <gpxtpx:speed>2.277</gpxtpx:speed>
          </gpxtpx:TrackPointExtension>
        </extensions>
      </trkpt>
      <trkpt lat="54.40321996808052" lon="10.932304915040731">
        <time>2026-09-11T09:51:03.000Z</time>
        <extensions>
          <gpxtpx:TrackPointExtension>
            <gpxtpx:speed>2.669</gpxtpx:speed>
          </gpxtpx:TrackPointExtension>
        </extensions>
      </trkpt>
      <trkpt lat="54.40377736464143" lon="10.926493741571903">
        <time>2026-09-11T09:53:30.000Z</time>
        <extensions>
          <gpxtpx:TrackPointExtension>
            <gpxtpx:speed>2.613</gpxtpx:speed>
          </gpxtpx:TrackPointExtension>
        </extensions>
      </trkpt>
      <trkpt lat="54.40461748279631" lon="10.92188042588532">
        <time>2026-09-11T09:55:33.000Z</time>
        <extensions>
          <gpxtpx:TrackPointExtension>
            <gpxtpx:speed>2.389</gpxtpx:speed>
          </gpxtpx:TrackPointExtension>
        </extensions>
      </trkpt>
      <trkpt lat="54.40536841750145" lon="10.920689525082707">
        <time>2026-09-11T09:56:25.000Z</time>
        <extensions>
          <gpxtpx:TrackPointExtension>
            <gpxtpx:speed>2.193</gpxtpx:speed>
          </gpxtpx:TrackPointExtension>
        </extensions>
      </trkpt>
      <trkpt lat="54.40671346150339" lon="10.919693168252707">
        <time>2026-09-11T09:57:43.000Z</time>
        <extensions>
          <gpxtpx:TrackPointExtension>
            <gpxtpx:speed>2.118</gpxtpx:speed>
          </gpxtpx:TrackPointExtension>
        </extensions>
      </trkpt>
      <trkpt lat="54.407233307138085" lon="10.919887460768223">
        <time>2026-09-11T09:58:10.000Z</time>
        <extensions>
          <gpxtpx:TrackPointExtension>
            <gpxtpx:speed>1.922</gpxtpx:speed>
          </gpxtpx:TrackPointExtension>
        </extensions>
      </trkpt>
      <trkpt lat="54.40792297013104" lon="10.920604029670358">
        <time>2026-09-11T09:59:10.000Z</time>
        <extensions>
          <gpxtpx:TrackPointExtension>
            <gpxtpx:speed>1.894</gpxtpx:speed>
          </gpxtpx:TrackPointExtension>
        </extensions>
      </trkpt>
      <trkpt lat="54.40940438769758" lon="10.920647531747818">
        <time>2026-09-11T10:00:27.000Z</time>
        <extensions>
          <gpxtpx:TrackPointExtension>
            <gpxtpx:speed>2.155</gpxtpx:speed>
          </gpxtpx:TrackPointExtension>
        </extensions>
      </trkpt>
      <trkpt lat="54.41129098646343" lon="10.921213561668992">
        <time>2026-09-11T10:02:21.000Z</time>
        <extensions>
          <gpxtpx:TrackPointExtension>
            <gpxtpx:speed>1.913</gpxtpx:speed>
          </gpxtpx:TrackPointExtension>
        </extensions>
      </trkpt>
      <trkpt lat="54.41344337537885" lon="10.920723304152489">
        <time>2026-09-11T10:04:22.000Z</time>
        <extensions>
          <gpxtpx:TrackPointExtension>
            <gpxtpx:speed>1.903</gpxtpx:speed>
          </gpxtpx:TrackPointExtension>
        </extensions>
      </trkpt>
      <trkpt lat="54.41577128134668" lon="10.919394437223673">
        <time>2026-09-11T10:06:37.000Z</time>
        <extensions>
          <gpxtpx:TrackPointExtension>
            <gpxtpx:speed>2.361</gpxtpx:speed>
          </gpxtpx:TrackPointExtension>
        </extensions>
      </trkpt>
      <trkpt lat="54.416769314557314" lon="10.917539773508906">
        <time>2026-09-11T10:07:51.000Z</time>
        <extensions>
          <gpxtpx:TrackPointExtension>
            <gpxtpx:speed>2.211</gpxtpx:speed>
          </gpxtpx:TrackPointExtension>
        </extensions>
      </trkpt>
      <trkpt lat="54.41829364746809" lon="10.915516382083297">
        <time>2026-09-11T10:09:28.000Z</time>
        <extensions>
          <gpxtpx:TrackPointExtension>
            <gpxtpx:speed>2.221</gpxtpx:speed>
          </gpxtpx:TrackPointExtension>
        </extensions>
      </trkpt>
      <trkpt lat="54.421518836170435" lon="10.910563934594393">
        <time>2026-09-11T10:13:03.000Z</time>
        <extensions>
          <gpxtpx:TrackPointExtension>
            <gpxtpx:speed>2.174</gpxtpx:speed>
          </gpxtpx:TrackPointExtension>
        </extensions>
      </trkpt>
      <trkpt lat="54.42347785457969" lon="10.909082433208823">
        <time>2026-09-11T10:14:59.000Z</time>
        <extensions>
          <gpxtpx:TrackPointExtension>
            <gpxtpx:speed>1.969</gpxtpx:speed>
          </gpxtpx:TrackPointExtension>
        </extensions>
      </trkpt>
      <trkpt lat="54.424543948844075" lon="10.907374368980527">
        <time>2026-09-11T10:16:10.000Z</time>
        <extensions>
          <gpxtpx:TrackPointExtension>
            <gpxtpx:speed>2.407</gpxtpx:speed>
          </gpxtpx:TrackPointExtension>
        </extensions>
      </trkpt>
      <trkpt lat="54.42520678974688" lon="10.906641371548176">
        <time>2026-09-11T10:16:49.000Z</time>
        <extensions>
          <gpxtpx:TrackPointExtension>
            <gpxtpx:speed>2.193</gpxtpx:speed>
          </gpxtpx:TrackPointExtension>
        </extensions>
      </trkpt>
      <trkpt lat="54.42681427113712" lon="10.905766552314162">
        <time>2026-09-11T10:18:19.000Z</time>
        <extensions>
          <gpxtpx:TrackPointExtension>
            <gpxtpx:speed>1.885</gpxtpx:speed>
          </gpxtpx:TrackPointExtension>
        </extensions>
      </trkpt>
      <trkpt lat="54.42727519199252" lon="10.90529096312821">
        <time>2026-09-11T10:18:48.000Z</time>
        <extensions>
          <gpxtpx:TrackPointExtension>
            <gpxtpx:speed>2.146</gpxtpx:speed>
          </gpxtpx:TrackPointExtension>
        </extensions>
      </trkpt>
      <trkpt lat="54.42898040637374" lon="10.901204030960798">
        <time>2026-09-11T10:21:02.000Z</time>
        <extensions>
          <gpxtpx:TrackPointExtension>
            <gpxtpx:speed>2.473</gpxtpx:speed>
          </gpxtpx:TrackPointExtension>
        </extensions>
      </trkpt>
      <trkpt lat="54.43221380934119" lon="10.896830605342984">
        <time>2026-09-11T10:24:17.000Z</time>
        <extensions>
          <gpxtpx:TrackPointExtension>
            <gpxtpx:speed>2.417</gpxtpx:speed>
          </gpxtpx:TrackPointExtension>
        </extensions>
      </trkpt>
      <trkpt lat="54.43337017670274" lon="10.894349897280335">
        <time>2026-09-11T10:25:38.000Z</time>
        <extensions>
          <gpxtpx:TrackPointExtension>
            <gpxtpx:speed>2.454</gpxtpx:speed>
          </gpxtpx:TrackPointExtension>
        </extensions>
      </trkpt>
      <trkpt lat="54.43499148823321" lon="10.892815254628658">
        <time>2026-09-11T10:27:06.000Z</time>
        <extensions>
          <gpxtpx:TrackPointExtension>
            <gpxtpx:speed>2.333</gpxtpx:speed>
          </gpxtpx:TrackPointExtension>
        </extensions>
      </trkpt>
      <trkpt lat="54.43542608991265" lon="10.892184181138873">
        <time>2026-09-11T10:27:36.000Z</time>
        <extensions>
          <gpxtpx:TrackPointExtension>
            <gpxtpx:speed>2.155</gpxtpx:speed>
          </gpxtpx:TrackPointExtension>
        </extensions>
      </trkpt>
      <trkpt lat="54.436837853863835" lon="10.889668520539999">
        <time>2026-09-11T10:29:16.000Z</time>
        <extensions>
          <gpxtpx:TrackPointExtension>
            <gpxtpx:speed>2.071</gpxtpx:speed>
          </gpxtpx:TrackPointExtension>
        </extensions>
      </trkpt>
      <trkpt lat="54.43806446157396" lon="10.88791100308299">
        <time>2026-09-11T10:30:41.000Z</time>
        <extensions>
          <gpxtpx:TrackPointExtension>
            <gpxtpx:speed>2.081</gpxtpx:speed>
          </gpxtpx:TrackPointExtension>
        </extensions>
      </trkpt>
      <trkpt lat="54.43833653815091" lon="10.886839125305414">
        <time>2026-09-11T10:31:15.000Z</time>
        <extensions>
          <gpxtpx:TrackPointExtension>
            <gpxtpx:speed>2.137</gpxtpx:speed>
          </gpxtpx:TrackPointExtension>
        </extensions>
      </trkpt>
      <trkpt lat="54.43866594694555" lon="10.881937723606825">
        <time>2026-09-11T10:34:04.000Z</time>
        <extensions>
          <gpxtpx:TrackPointExtension>
            <gpxtpx:speed>1.652</gpxtpx:speed>
          </gpxtpx:TrackPointExtension>
        </extensions>
      </trkpt>
      <trkpt lat="54.43841784261167" lon="10.87791415862739">
        <time>2026-09-11T10:36:15.000Z</time>
        <extensions>
          <gpxtpx:TrackPointExtension>
            <gpxtpx:speed>2.249</gpxtpx:speed>
          </gpxtpx:TrackPointExtension>
        </extensions>
      </trkpt>
      <trkpt lat="54.438790418207645" lon="10.874255457893014">
        <time>2026-09-11T10:38:19.000Z</time>
        <extensions>
          <gpxtpx:TrackPointExtension>
            <gpxtpx:speed>2.081</gpxtpx:speed>
          </gpxtpx:TrackPointExtension>
        </extensions>
      </trkpt>
      <trkpt lat="54.43861724808812" lon="10.872214967384934">
        <time>2026-09-11T10:39:29.000Z</time>
        <extensions>
          <gpxtpx:TrackPointExtension>
            <gpxtpx:speed>1.726</gpxtpx:speed>
          </gpxtpx:TrackPointExtension>
        </extensions>
      </trkpt>
      <trkpt lat="54.43868505768478" lon="10.869584390893579">
        <time>2026-09-11T10:41:00.000Z</time>
        <extensions>
          <gpxtpx:TrackPointExtension>
            <gpxtpx:speed>1.959</gpxtpx:speed>
          </gpxtpx:TrackPointExtension>
        </extensions>
      </trkpt>
      <trkpt lat="54.438426811248064" lon="10.863365856930614">
        <time>2026-09-11T10:44:31.000Z</time>
        <extensions>
          <gpxtpx:TrackPointExtension>
            <gpxtpx:speed>2.053</gpxtpx:speed>
          </gpxtpx:TrackPointExtension>
        </extensions>
      </trkpt>
      <trkpt lat="54.43843410350382" lon="10.85856981575489">
        <time>2026-09-11T10:46:57.000Z</time>
        <extensions>
          <gpxtpx:TrackPointExtension>
            <gpxtpx:speed>2.043</gpxtpx:speed>
          </gpxtpx:TrackPointExtension>
        </extensions>
      </trkpt>
      <trkpt lat="54.43995399400592" lon="10.846103997901082">
        <time>2026-09-11T10:53:41.000Z</time>
        <extensions>
          <gpxtpx:TrackPointExtension>
            <gpxtpx:speed>2.062</gpxtpx:speed>
          </gpxtpx:TrackPointExtension>
        </extensions>
      </trkpt>
      <trkpt lat="54.44022816605866" lon="10.83955186419189">
        <time>2026-09-11T10:57:19.000Z</time>
        <extensions>
          <gpxtpx:TrackPointExtension>
            <gpxtpx:speed>1.68</gpxtpx:speed>
          </gpxtpx:TrackPointExtension>
        </extensions>
      </trkpt>
      <trkpt lat="54.441273557022214" lon="10.829436415806413">
        <time>2026-09-11T11:02:59.000Z</time>
        <extensions>
          <gpxtpx:TrackPointExtension>
            <gpxtpx:speed>1.894</gpxtpx:speed>
          </gpxtpx:TrackPointExtension>
        </extensions>
      </trkpt>
      <trkpt lat="54.442098420113325" lon="10.823424328118563">
        <time>2026-09-11T11:06:22.000Z</time>
        <extensions>
          <gpxtpx:TrackPointExtension>
            <gpxtpx:speed>2.127</gpxtpx:speed>
          </gpxtpx:TrackPointExtension>
        </extensions>
      </trkpt>
      <trkpt lat="54.442210821434855" lon="10.815159101039171">
        <time>2026-09-11T11:11:09.000Z</time>
        <extensions>
          <gpxtpx:TrackPointExtension>
            <gpxtpx:speed>1.801</gpxtpx:speed>
          </gpxtpx:TrackPointExtension>
        </extensions>
      </trkpt>
      <trkpt lat="54.44272069260478" lon="10.812851898372173">
        <time>2026-09-11T11:12:44.000Z</time>
        <extensions>
          <gpxtpx:TrackPointExtension>
            <gpxtpx:speed>1.875</gpxtpx:speed>
          </gpxtpx:TrackPointExtension>
        </extensions>
      </trkpt>
      <trkpt lat="54.44284281693399" lon="10.810020323842764">
        <time>2026-09-11T11:14:26.000Z</time>
        <extensions>
          <gpxtpx:TrackPointExtension>
            <gpxtpx:speed>2.099</gpxtpx:speed>
          </gpxtpx:TrackPointExtension>
        </extensions>
      </trkpt>
      <trkpt lat="54.44301540032029" lon="10.79893165268004">
        <time>2026-09-11T11:21:17.000Z</time>
        <extensions>
          <gpxtpx:TrackPointExtension>
            <gpxtpx:speed>1.736</gpxtpx:speed>
          </gpxtpx:TrackPointExtension>
        </extensions>
      </trkpt>
      <trkpt lat="54.44284248165786" lon="10.784117141738534">
        <time>2026-09-11T11:30:05.000Z</time>
        <extensions>
          <gpxtpx:TrackPointExtension>
            <gpxtpx:speed>2.015</gpxtpx:speed>
          </gpxtpx:TrackPointExtension>
        </extensions>
      </trkpt>
      <trkpt lat="54.443004839122295" lon="10.782432714477181">
        <time>2026-09-11T11:30:55.000Z</time>
        <extensions>
          <gpxtpx:TrackPointExtension>
            <gpxtpx:speed>2.137</gpxtpx:speed>
          </gpxtpx:TrackPointExtension>
        </extensions>
      </trkpt>
      <trkpt lat="54.44407772272825" lon="10.777524774894118">
        <time>2026-09-11T11:34:45.000Z</time>
        <extensions>
          <gpxtpx:TrackPointExtension>
            <gpxtpx:speed>1.894</gpxtpx:speed>
          </gpxtpx:TrackPointExtension>
        </extensions>
      </trkpt>
      <trkpt lat="54.44364806637168" lon="10.775385880842805">
        <time>2026-09-11T11:36:03.000Z</time>
        <extensions>
          <gpxtpx:TrackPointExtension>
            <gpxtpx:speed>2.342</gpxtpx:speed>
          </gpxtpx:TrackPointExtension>
        </extensions>
      </trkpt>
      <trkpt lat="54.44418836385012" lon="10.773534905165434">
        <time>2026-09-11T11:36:58.000Z</time>
        <extensions>
          <gpxtpx:TrackPointExtension>
            <gpxtpx:speed>2.333</gpxtpx:speed>
          </gpxtpx:TrackPointExtension>
        </extensions>
      </trkpt>
      <trkpt lat="54.444358767941594" lon="10.772338723763824">
        <time>2026-09-11T11:37:30.000Z</time>
        <extensions>
          <gpxtpx:TrackPointExtension>
            <gpxtpx:speed>2.454</gpxtpx:speed>
          </gpxtpx:TrackPointExtension>
        </extensions>
      </trkpt>
      <trkpt lat="54.444501930847764" lon="10.768679352477193">
        <time>2026-09-11T11:39:12.000Z</time>
        <extensions>
          <gpxtpx:TrackPointExtension>
            <gpxtpx:speed>2.491</gpxtpx:speed>
          </gpxtpx:TrackPointExtension>
        </extensions>
      </trkpt>
      <trkpt lat="54.44505647756159" lon="10.762507002800703">
        <time>2026-09-11T11:41:53.000Z</time>
        <extensions>
          <gpxtpx:TrackPointExtension>
            <gpxtpx:speed>2.491</gpxtpx:speed>
          </gpxtpx:TrackPointExtension>
        </extensions>
      </trkpt>
      <trkpt lat="54.44509696215391" lon="10.756680238991976">
        <time>2026-09-11T11:44:23.000Z</time>
        <extensions>
          <gpxtpx:TrackPointExtension>
            <gpxtpx:speed>2.566</gpxtpx:speed>
          </gpxtpx:TrackPointExtension>
        </extensions>
      </trkpt>
      <trkpt lat="54.44551404565573" lon="10.745852077379823">
        <time>2026-09-11T11:49:04.000Z</time>
        <extensions>
          <gpxtpx:TrackPointExtension>
            <gpxtpx:speed>2.333</gpxtpx:speed>
          </gpxtpx:TrackPointExtension>
        </extensions>
      </trkpt>
      <trkpt lat="54.44654208607972" lon="10.734971361234784">
        <time>2026-09-11T11:54:26.000Z</time>
        <extensions>
          <gpxtpx:TrackPointExtension>
            <gpxtpx:speed>2.127</gpxtpx:speed>
          </gpxtpx:TrackPointExtension>
        </extensions>
      </trkpt>
      <trkpt lat="54.44731120951474" lon="10.728738997131586">
        <time>2026-09-11T11:57:30.000Z</time>
        <extensions>
          <gpxtpx:TrackPointExtension>
            <gpxtpx:speed>2.342</gpxtpx:speed>
          </gpxtpx:TrackPointExtension>
        </extensions>
      </trkpt>
      <trkpt lat="54.44728799164295" lon="10.720405960455537">
        <time>2026-09-11T12:01:05.000Z</time>
        <extensions>
          <gpxtpx:TrackPointExtension>
            <gpxtpx:speed>2.65</gpxtpx:speed>
          </gpxtpx:TrackPointExtension>
        </extensions>
      </trkpt>
      <trkpt lat="54.447848405689" lon="10.713656432926655">
        <time>2026-09-11T12:04:09.000Z</time>
        <extensions>
          <gpxtpx:TrackPointExtension>
            <gpxtpx:speed>2.575</gpxtpx:speed>
          </gpxtpx:TrackPointExtension>
        </extensions>
      </trkpt>
      <trkpt lat="54.44765419699252" lon="10.70555130019784">
        <time>2026-09-11T12:07:45.000Z</time>
        <extensions>
          <gpxtpx:TrackPointExtension>
            <gpxtpx:speed>2.417</gpxtpx:speed>
          </gpxtpx:TrackPointExtension>
        </extensions>
      </trkpt>
      <trkpt lat="54.447395615279675" lon="10.70189494639635">
        <time>2026-09-11T12:09:29.000Z</time>
        <extensions>
          <gpxtpx:TrackPointExtension>
            <gpxtpx:speed>2.454</gpxtpx:speed>
          </gpxtpx:TrackPointExtension>
        </extensions>
      </trkpt>
      <trkpt lat="54.44889027625322" lon="10.689692487940192">
        <time>2026-09-11T12:15:05.000Z</time>
        <extensions>
          <gpxtpx:TrackPointExtension>
            <gpxtpx:speed>2.211</gpxtpx:speed>
          </gpxtpx:TrackPointExtension>
        </extensions>
      </trkpt>
      <trkpt lat="54.449013993144035" lon="10.686343582347035">
        <time>2026-09-11T12:16:44.000Z</time>
        <extensions>
          <gpxtpx:TrackPointExtension>
            <gpxtpx:speed>2.333</gpxtpx:speed>
          </gpxtpx:TrackPointExtension>
        </extensions>
      </trkpt>
      <trkpt lat="54.44884576834738" lon="10.6841195281595">
        <time>2026-09-11T12:17:50.000Z</time>
        <extensions>
          <gpxtpx:TrackPointExtension>
            <gpxtpx:speed>2.183</gpxtpx:speed>
          </gpxtpx:TrackPointExtension>
        </extensions>
      </trkpt>
      <trkpt lat="54.44956007413566" lon="10.679228939116001">
        <time>2026-09-11T12:20:25.000Z</time>
        <extensions>
          <gpxtpx:TrackPointExtension>
            <gpxtpx:speed>2.165</gpxtpx:speed>
          </gpxtpx:TrackPointExtension>
        </extensions>
      </trkpt>
      <trkpt lat="54.449166879057884" lon="10.674537001177669">
        <time>2026-09-11T12:22:56.000Z</time>
        <extensions>
          <gpxtpx:TrackPointExtension>
            <gpxtpx:speed>2.295</gpxtpx:speed>
          </gpxtpx:TrackPointExtension>
        </extensions>
      </trkpt>
      <trkpt lat="54.449590584263206" lon="10.671790167689323">
        <time>2026-09-11T12:24:19.000Z</time>
        <extensions>
          <gpxtpx:TrackPointExtension>
            <gpxtpx:speed>2.351</gpxtpx:speed>
          </gpxtpx:TrackPointExtension>
        </extensions>
      </trkpt>
      <trkpt lat="54.449913036078215" lon="10.66560449078679">
        <time>2026-09-11T12:27:35.000Z</time>
        <extensions>
          <gpxtpx:TrackPointExtension>
            <gpxtpx:speed>1.978</gpxtpx:speed>
          </gpxtpx:TrackPointExtension>
        </extensions>
      </trkpt>
      <trkpt lat="54.4511051941663" lon="10.658117774873972">
        <time>2026-09-11T12:31:40.000Z</time>
        <extensions>
          <gpxtpx:TrackPointExtension>
            <gpxtpx:speed>2.211</gpxtpx:speed>
          </gpxtpx:TrackPointExtension>
        </extensions>
      </trkpt>
      <trkpt lat="54.45121114142239" lon="10.654081553220749">
        <time>2026-09-11T12:33:37.000Z</time>
        <extensions>
          <gpxtpx:TrackPointExtension>
            <gpxtpx:speed>2.379</gpxtpx:speed>
          </gpxtpx:TrackPointExtension>
        </extensions>
      </trkpt>
      <trkpt lat="54.45071074180305" lon="10.649617854505777">
        <time>2026-09-11T12:36:05.000Z</time>
        <extensions>
          <gpxtpx:TrackPointExtension>
            <gpxtpx:speed>2.127</gpxtpx:speed>
          </gpxtpx:TrackPointExtension>
        </extensions>
      </trkpt>
      <trkpt lat="54.4516128860414" lon="10.64555263146758">
        <time>2026-09-11T12:38:21.000Z</time>
        <extensions>
          <gpxtpx:TrackPointExtension>
            <gpxtpx:speed>2.211</gpxtpx:speed>
          </gpxtpx:TrackPointExtension>
        </extensions>
      </trkpt>
      <trkpt lat="54.45199233479798" lon="10.638551814481616">
        <time>2026-09-11T12:41:36.000Z</time>
        <extensions>
          <gpxtpx:TrackPointExtension>
            <gpxtpx:speed>2.277</gpxtpx:speed>
          </gpxtpx:TrackPointExtension>
        </extensions>
      </trkpt>
      <trkpt lat="54.451348604634404" lon="10.62824735417962">
        <time>2026-09-11T12:46:32.000Z</time>
        <extensions>
          <gpxtpx:TrackPointExtension>
            <gpxtpx:speed>2.295</gpxtpx:speed>
          </gpxtpx:TrackPointExtension>
        </extensions>
      </trkpt>
      <trkpt lat="54.45168404839933" lon="10.620303070172668">
        <time>2026-09-11T12:50:02.000Z</time>
        <extensions>
          <gpxtpx:TrackPointExtension>
            <gpxtpx:speed>2.445</gpxtpx:speed>
          </gpxtpx:TrackPointExtension>
        </extensions>
      </trkpt>
      <trkpt lat="54.451681869104505" lon="10.613501071929932">
        <time>2026-09-11T12:53:12.000Z</time>
        <extensions>
          <gpxtpx:TrackPointExtension>
            <gpxtpx:speed>2.305</gpxtpx:speed>
          </gpxtpx:TrackPointExtension>
        </extensions>
      </trkpt>
      <trkpt lat="54.45055567659438" lon="10.59019586071372">
        <time>2026-09-11T13:04:40.000Z</time>
        <extensions>
          <gpxtpx:TrackPointExtension>
            <gpxtpx:speed>2.417</gpxtpx:speed>
          </gpxtpx:TrackPointExtension>
        </extensions>
      </trkpt>
      <trkpt lat="54.45144164375961" lon="10.57132308371365">
        <time>2026-09-11T13:13:17.000Z</time>
        <extensions>
          <gpxtpx:TrackPointExtension>
            <gpxtpx:speed>2.295</gpxtpx:speed>
          </gpxtpx:TrackPointExtension>
        </extensions>
      </trkpt>
      <trkpt lat="54.452178329229355" lon="10.560017069801688">
        <time>2026-09-11T13:18:33.000Z</time>
        <extensions>
          <gpxtpx:TrackPointExtension>
            <gpxtpx:speed>2.314</gpxtpx:speed>
          </gpxtpx:TrackPointExtension>
        </extensions>
      </trkpt>
      <trkpt lat="54.455272341147065" lon="10.543360048905015">
        <time>2026-09-11T13:27:08.000Z</time>
        <extensions>
          <gpxtpx:TrackPointExtension>
            <gpxtpx:speed>2.081</gpxtpx:speed>
          </gpxtpx:TrackPointExtension>
        </extensions>
      </trkpt>
      <trkpt lat="54.45590685121715" lon="10.53770000115037">
        <time>2026-09-11T13:30:04.000Z</time>
        <extensions>
          <gpxtpx:TrackPointExtension>
            <gpxtpx:speed>2.081</gpxtpx:speed>
          </gpxtpx:TrackPointExtension>
        </extensions>
      </trkpt>
      <trkpt lat="54.457161873579025" lon="10.533852288499475">
        <time>2026-09-11T13:32:24.000Z</time>
        <extensions>
          <gpxtpx:TrackPointExtension>
            <gpxtpx:speed>2.015</gpxtpx:speed>
          </gpxtpx:TrackPointExtension>
        </extensions>
      </trkpt>
      <trkpt lat="54.45740536786616" lon="10.531896874308586">
        <time>2026-09-11T13:33:26.000Z</time>
        <extensions>
          <gpxtpx:TrackPointExtension>
            <gpxtpx:speed>2.071</gpxtpx:speed>
          </gpxtpx:TrackPointExtension>
        </extensions>
      </trkpt>
      <trkpt lat="54.457260528579354" lon="10.52951792255044">
        <time>2026-09-11T13:34:30.000Z</time>
        <extensions>
          <gpxtpx:TrackPointExtension>
            <gpxtpx:speed>2.473</gpxtpx:speed>
          </gpxtpx:TrackPointExtension>
        </extensions>
      </trkpt>
      <trkpt lat="54.4569094106555" lon="10.527126397937536">
        <time>2026-09-11T13:35:36.000Z</time>
        <extensions>
          <gpxtpx:TrackPointExtension>
            <gpxtpx:speed>2.51</gpxtpx:speed>
          </gpxtpx:TrackPointExtension>
        </extensions>
      </trkpt>
      <trkpt lat="54.45656407624483" lon="10.521326456218958">
        <time>2026-09-11T13:38:12.000Z</time>
        <extensions>
          <gpxtpx:TrackPointExtension>
            <gpxtpx:speed>2.473</gpxtpx:speed>
          </gpxtpx:TrackPointExtension>
        </extensions>
      </trkpt>
      <trkpt lat="54.45590207353234" lon="10.517105078324676">
        <time>2026-09-11T13:40:07.000Z</time>
        <extensions>
          <gpxtpx:TrackPointExtension>
            <gpxtpx:speed>2.603</gpxtpx:speed>
          </gpxtpx:TrackPointExtension>
        </extensions>
      </trkpt>
      <trkpt lat="54.455797132104635" lon="10.515503715723753">
        <time>2026-09-11T13:40:46.000Z</time>
        <extensions>
          <gpxtpx:TrackPointExtension>
            <gpxtpx:speed>2.566</gpxtpx:speed>
          </gpxtpx:TrackPointExtension>
        </extensions>
      </trkpt>
      <trkpt lat="54.45610290393233" lon="10.512260757386684">
        <time>2026-09-11T13:42:18.000Z</time>
        <extensions>
          <gpxtpx:TrackPointExtension>
            <gpxtpx:speed>2.221</gpxtpx:speed>
          </gpxtpx:TrackPointExtension>
        </extensions>
      </trkpt>
      <trkpt lat="54.45705282501876" lon="10.506536336615682">
        <time>2026-09-11T13:45:12.000Z</time>
        <extensions>
          <gpxtpx:TrackPointExtension>
            <gpxtpx:speed>2.267</gpxtpx:speed>
          </gpxtpx:TrackPointExtension>
        </extensions>
      </trkpt>
      <trkpt lat="54.456438180059195" lon="10.49903193488717">
        <time>2026-09-11T13:48:34.000Z</time>
        <extensions>
          <gpxtpx:TrackPointExtension>
            <gpxtpx:speed>2.445</gpxtpx:speed>
          </gpxtpx:TrackPointExtension>
        </extensions>
      </trkpt>
      <trkpt lat="54.45625755004585" lon="10.4853346478194">
        <time>2026-09-11T13:54:36.000Z</time>
        <extensions>
          <gpxtpx:TrackPointExtension>
            <gpxtpx:speed>2.482</gpxtpx:speed>
          </gpxtpx:TrackPointExtension>
        </extensions>
      </trkpt>
      <trkpt lat="54.455448780208826" lon="10.474308338016272">
        <time>2026-09-11T13:59:28.000Z</time>
        <extensions>
          <gpxtpx:TrackPointExtension>
            <gpxtpx:speed>2.519</gpxtpx:speed>
          </gpxtpx:TrackPointExtension>
        </extensions>
      </trkpt>
      <trkpt lat="54.45490077137947" lon="10.461106840521097">
        <time>2026-09-11T14:05:10.000Z</time>
        <extensions>
          <gpxtpx:TrackPointExtension>
            <gpxtpx:speed>2.463</gpxtpx:speed>
          </gpxtpx:TrackPointExtension>
        </extensions>
      </trkpt>
      <trkpt lat="54.454710921272635" lon="10.447103781625628">
        <time>2026-09-11T14:11:08.000Z</time>
        <extensions>
          <gpxtpx:TrackPointExtension>
            <gpxtpx:speed>2.501</gpxtpx:speed>
          </gpxtpx:TrackPointExtension>
        </extensions>
      </trkpt>
      <trkpt lat="54.453974571079016" lon="10.4348427336663">
        <time>2026-09-11T14:15:54.000Z</time>
        <extensions>
          <gpxtpx:TrackPointExtension>
            <gpxtpx:speed>2.799</gpxtpx:speed>
          </gpxtpx:TrackPointExtension>
        </extensions>
      </trkpt>
      <trkpt lat="54.453334948047996" lon="10.428681951016188">
        <time>2026-09-11T14:18:17.000Z</time>
        <extensions>
          <gpxtpx:TrackPointExtension>
            <gpxtpx:speed>2.706</gpxtpx:speed>
          </gpxtpx:TrackPointExtension>
        </extensions>
      </trkpt>
      <trkpt lat="54.45280152373016" lon="10.425120312720537">
        <time>2026-09-11T14:19:44.000Z</time>
        <extensions>
          <gpxtpx:TrackPointExtension>
            <gpxtpx:speed>2.697</gpxtpx:speed>
          </gpxtpx:TrackPointExtension>
        </extensions>
      </trkpt>
      <trkpt lat="54.45269004441798" lon="10.422682268545032">
        <time>2026-09-11T14:20:44.000Z</time>
        <extensions>
          <gpxtpx:TrackPointExtension>
            <gpxtpx:speed>2.575</gpxtpx:speed>
          </gpxtpx:TrackPointExtension>
        </extensions>
      </trkpt>
      <trkpt lat="54.45279314182699" lon="10.420067869126797">
        <time>2026-09-11T14:21:51.000Z</time>
        <extensions>
          <gpxtpx:TrackPointExtension>
            <gpxtpx:speed>2.566</gpxtpx:speed>
          </gpxtpx:TrackPointExtension>
        </extensions>
      </trkpt>
      <trkpt lat="54.45371531881392" lon="10.411940859630704">
        <time>2026-09-11T14:25:38.000Z</time>
        <extensions>
          <gpxtpx:TrackPointExtension>
            <gpxtpx:speed>2.417</gpxtpx:speed>
          </gpxtpx:TrackPointExtension>
        </extensions>
      </trkpt>
      <trkpt lat="54.45483958348632" lon="10.407408932223916">
        <time>2026-09-11T14:27:54.000Z</time>
        <extensions>
          <gpxtpx:TrackPointExtension>
            <gpxtpx:speed>2.342</gpxtpx:speed>
          </gpxtpx:TrackPointExtension>
        </extensions>
      </trkpt>
      <trkpt lat="54.4546386692673" lon="10.404396308586001">
        <time>2026-09-11T14:29:12.000Z</time>
        <extensions>
          <gpxtpx:TrackPointExtension>
            <gpxtpx:speed>2.743</gpxtpx:speed>
          </gpxtpx:TrackPointExtension>
        </extensions>
      </trkpt>
      <trkpt lat="54.45470379665494" lon="10.400915974751115">
        <time>2026-09-11T14:30:39.000Z</time>
        <extensions>
          <gpxtpx:TrackPointExtension>
            <gpxtpx:speed>2.613</gpxtpx:speed>
          </gpxtpx:TrackPointExtension>
        </extensions>
      </trkpt>
      <trkpt lat="54.454295514151454" lon="10.396055895835161">
        <time>2026-09-11T14:32:33.000Z</time>
        <extensions>
          <gpxtpx:TrackPointExtension>
            <gpxtpx:speed>2.743</gpxtpx:speed>
          </gpxtpx:TrackPointExtension>
        </extensions>
      </trkpt>
      <trkpt lat="54.45323553867638" lon="10.390306999906898">
        <time>2026-09-11T14:34:58.000Z</time>
        <extensions>
          <gpxtpx:TrackPointExtension>
            <gpxtpx:speed>2.669</gpxtpx:speed>
          </gpxtpx:TrackPointExtension>
        </extensions>
      </trkpt>
      <trkpt lat="54.45301576517522" lon="10.385375004261732">
        <time>2026-09-11T14:36:56.000Z</time>
        <extensions>
          <gpxtpx:TrackPointExtension>
            <gpxtpx:speed>2.753</gpxtpx:speed>
          </gpxtpx:TrackPointExtension>
        </extensions>
      </trkpt>
      <trkpt lat="54.45204061456025" lon="10.379996253177524">
        <time>2026-09-11T14:39:25.000Z</time>
        <extensions>
          <gpxtpx:TrackPointExtension>
            <gpxtpx:speed>2.482</gpxtpx:speed>
          </gpxtpx:TrackPointExtension>
        </extensions>
      </trkpt>
      <trkpt lat="54.452109429985285" lon="10.367438904941082">
        <time>2026-09-11T14:44:23.000Z</time>
        <extensions>
          <gpxtpx:TrackPointExtension>
            <gpxtpx:speed>2.893</gpxtpx:speed>
          </gpxtpx:TrackPointExtension>
        </extensions>
      </trkpt>
      <trkpt lat="54.451189851388335" lon="10.353724602609873">
        <time>2026-09-11T14:50:08.000Z</time>
        <extensions>
          <gpxtpx:TrackPointExtension>
            <gpxtpx:speed>2.463</gpxtpx:speed>
          </gpxtpx:TrackPointExtension>
        </extensions>
      </trkpt>
      <trkpt lat="54.44926863536239" lon="10.345332473516464">
        <time>2026-09-11T14:54:42.000Z</time>
        <extensions>
          <gpxtpx:TrackPointExtension>
            <gpxtpx:speed>2.342</gpxtpx:speed>
          </gpxtpx:TrackPointExtension>
        </extensions>
      </trkpt>
      <trkpt lat="54.44892237894237" lon="10.340915797278285">
        <time>2026-09-11T14:56:32.000Z</time>
        <extensions>
          <gpxtpx:TrackPointExtension>
            <gpxtpx:speed>2.585</gpxtpx:speed>
          </gpxtpx:TrackPointExtension>
        </extensions>
      </trkpt>
      <trkpt lat="54.44706075824797" lon="10.333584230393171">
        <time>2026-09-11T15:00:00.000Z</time>
        <extensions>
          <gpxtpx:TrackPointExtension>
            <gpxtpx:speed>2.482</gpxtpx:speed>
          </gpxtpx:TrackPointExtension>
        </extensions>
      </trkpt>
      <trkpt lat="54.44435901939869" lon="10.320436293259263">
        <time>2026-09-11T15:06:01.000Z</time>
        <extensions>
          <gpxtpx:TrackPointExtension>
            <gpxtpx:speed>2.641</gpxtpx:speed>
          </gpxtpx:TrackPointExtension>
        </extensions>
      </trkpt>
      <trkpt lat="54.44417444989085" lon="10.318903410807252">
        <time>2026-09-11T15:06:41.000Z</time>
        <extensions>
          <gpxtpx:TrackPointExtension>
            <gpxtpx:speed>2.547</gpxtpx:speed>
          </gpxtpx:TrackPointExtension>
        </extensions>
      </trkpt>
      <trkpt lat="54.44417570717633" lon="10.31539055518806">
        <time>2026-09-11T15:08:12.000Z</time>
        <extensions>
          <gpxtpx:TrackPointExtension>
            <gpxtpx:speed>2.519</gpxtpx:speed>
          </gpxtpx:TrackPointExtension>
        </extensions>
      </trkpt>
      <trkpt lat="54.44399541243911" lon="10.313573693856597">
        <time>2026-09-11T15:08:59.000Z</time>
        <extensions>
          <gpxtpx:TrackPointExtension>
            <gpxtpx:speed>2.641</gpxtpx:speed>
          </gpxtpx:TrackPointExtension>
        </extensions>
      </trkpt>
      <trkpt lat="54.44271826185286" lon="10.309861097484827">
        <time>2026-09-11T15:10:56.000Z</time>
        <extensions>
          <gpxtpx:TrackPointExtension>
            <gpxtpx:speed>2.351</gpxtpx:speed>
          </gpxtpx:TrackPointExtension>
        </extensions>
      </trkpt>
      <trkpt lat="54.442360354587436" lon="10.307640815153718">
        <time>2026-09-11T15:11:56.000Z</time>
        <extensions>
          <gpxtpx:TrackPointExtension>
            <gpxtpx:speed>2.333</gpxtpx:speed>
          </gpxtpx:TrackPointExtension>
        </extensions>
      </trkpt>
      <trkpt lat="54.44136341102421" lon="10.304617881774902">
        <time>2026-09-11T15:13:42.000Z</time>
        <extensions>
          <gpxtpx:TrackPointExtension>
            <gpxtpx:speed>2.239</gpxtpx:speed>
          </gpxtpx:TrackPointExtension>
        </extensions>
      </trkpt>
      <trkpt lat="54.439909821376204" lon="10.296753980219364">
        <time>2026-09-11T15:17:39.000Z</time>
        <extensions>
          <gpxtpx:TrackPointExtension>
            <gpxtpx:speed>2.333</gpxtpx:speed>
          </gpxtpx:TrackPointExtension>
        </extensions>
      </trkpt>
      <trkpt lat="54.435288878157735" lon="10.281129609793425">
        <time>2026-09-11T15:26:02.000Z</time>
        <extensions>
          <gpxtpx:TrackPointExtension>
            <gpxtpx:speed>2.137</gpxtpx:speed>
          </gpxtpx:TrackPointExtension>
        </extensions>
      </trkpt>
      <trkpt lat="54.43464866839349" lon="10.278144478797913">
        <time>2026-09-11T15:27:42.000Z</time>
        <extensions>
          <gpxtpx:TrackPointExtension>
            <gpxtpx:speed>1.997</gpxtpx:speed>
          </gpxtpx:TrackPointExtension>
        </extensions>
      </trkpt>
      <trkpt lat="54.432514971122146" lon="10.270749209448695">
        <time>2026-09-11T15:32:35.000Z</time>
        <extensions>
          <gpxtpx:TrackPointExtension>
            <gpxtpx:speed>1.819</gpxtpx:speed>
          </gpxtpx:TrackPointExtension>
        </extensions>
      </trkpt>
      <trkpt lat="54.43127227015793" lon="10.267209950834513">
        <time>2026-09-11T15:35:16.000Z</time>
        <extensions>
          <gpxtpx:TrackPointExtension>
            <gpxtpx:speed>1.353</gpxtpx:speed>
          </gpxtpx:TrackPointExtension>
        </extensions>
      </trkpt>
      <trkpt lat="54.43114997819066" lon="10.266560604795814">
        <time>2026-09-11T15:35:51.000Z</time>
        <extensions>
          <gpxtpx:TrackPointExtension>
            <gpxtpx:speed>1.428</gpxtpx:speed>
          </gpxtpx:TrackPointExtension>
        </extensions>
      </trkpt>
      <trkpt lat="54.43124863319099" lon="10.264538805931807">
        <time>2026-09-11T15:37:16.000Z</time>
        <extensions>
          <gpxtpx:TrackPointExtension>
            <gpxtpx:speed>1.661</gpxtpx:speed>
          </gpxtpx:TrackPointExtension>
        </extensions>
      </trkpt>
      <trkpt lat="54.429958909749985" lon="10.259703285992146">
        <time>2026-09-11T15:40:40.000Z</time>
        <extensions>
          <gpxtpx:TrackPointExtension>
            <gpxtpx:speed>1.633</gpxtpx:speed>
          </gpxtpx:TrackPointExtension>
        </extensions>
      </trkpt>
      <trkpt lat="54.42832485772669" lon="10.254707923159003">
        <time>2026-09-11T15:44:14.000Z</time>
        <extensions>
          <gpxtpx:TrackPointExtension>
            <gpxtpx:speed>1.791</gpxtpx:speed>
          </gpxtpx:TrackPointExtension>
        </extensions>
      </trkpt>
      <trkpt lat="54.427455738186836" lon="10.250151688233018">
        <time>2026-09-11T15:47:08.000Z</time>
        <extensions>
          <gpxtpx:TrackPointExtension>
            <gpxtpx:speed>1.791</gpxtpx:speed>
          </gpxtpx:TrackPointExtension>
        </extensions>
      </trkpt>
      <trkpt lat="54.42651042714715" lon="10.24655157700181">
        <time>2026-09-11T15:49:29.000Z</time>
        <extensions>
          <gpxtpx:TrackPointExtension>
            <gpxtpx:speed>1.764</gpxtpx:speed>
          </gpxtpx:TrackPointExtension>
        </extensions>
      </trkpt>
      <trkpt lat="54.42481485195458" lon="10.241124629974365">
        <time>2026-09-11T15:53:11.000Z</time>
        <extensions>
          <gpxtpx:TrackPointExtension>
            <gpxtpx:speed>1.857</gpxtpx:speed>
          </gpxtpx:TrackPointExtension>
        </extensions>
      </trkpt>
      <trkpt lat="54.41954858601093" lon="10.226977905258536">
        <time>2026-09-11T16:02:58.000Z</time>
        <extensions>
          <gpxtpx:TrackPointExtension>
            <gpxtpx:speed>1.913</gpxtpx:speed>
          </gpxtpx:TrackPointExtension>
        </extensions>
      </trkpt>
      <trkpt lat="54.41466151736677" lon="10.216711414977908">
        <time>2026-09-11T16:10:40.000Z</time>
        <extensions>
          <gpxtpx:TrackPointExtension>
            <gpxtpx:speed>1.894</gpxtpx:speed>
          </gpxtpx:TrackPointExtension>
        </extensions>
      </trkpt>
      <trkpt lat="54.4129381980747" lon="10.214177649468184">
        <time>2026-09-11T16:12:56.000Z</time>
        <extensions>
          <gpxtpx:TrackPointExtension>
            <gpxtpx:speed>1.791</gpxtpx:speed>
          </gpxtpx:TrackPointExtension>
        </extensions>
      </trkpt>
      <trkpt lat="54.40846142359078" lon="10.21140743046999">
        <time>2026-09-11T16:17:37.000Z</time>
        <extensions>
          <gpxtpx:TrackPointExtension>
            <gpxtpx:speed>1.885</gpxtpx:speed>
          </gpxtpx:TrackPointExtension>
        </extensions>
      </trkpt>
      <trkpt lat="54.406059086322784" lon="10.209609428420663">
        <time>2026-09-11T16:20:09.000Z</time>
        <extensions>
          <gpxtpx:TrackPointExtension>
            <gpxtpx:speed>1.866</gpxtpx:speed>
          </gpxtpx:TrackPointExtension>
        </extensions>
      </trkpt>
      <trkpt lat="54.405245538800955" lon="10.209188656881452">
        <time>2026-09-11T16:20:58.000Z</time>
        <extensions>
          <gpxtpx:TrackPointExtension>
            <gpxtpx:speed>1.922</gpxtpx:speed>
          </gpxtpx:TrackPointExtension>
        </extensions>
      </trkpt>
      <trkpt lat="54.402138870209455" lon="10.208103451877832">
        <time>2026-09-11T16:24:02.000Z</time>
        <extensions>
          <gpxtpx:TrackPointExtension>
            <gpxtpx:speed>1.922</gpxtpx:speed>
          </gpxtpx:TrackPointExtension>
        </extensions>
      </trkpt>
      <trkpt lat="54.39776527695358" lon="10.20595919340849">
        <time>2026-09-11T16:28:33.000Z</time>
        <extensions>
          <gpxtpx:TrackPointExtension>
            <gpxtpx:speed>1.875</gpxtpx:speed>
          </gpxtpx:TrackPointExtension>
        </extensions>
      </trkpt>
      <trkpt lat="54.39586853608489" lon="10.205327700823545">
        <time>2026-09-11T16:30:28.000Z</time>
        <extensions>
          <gpxtpx:TrackPointExtension>
            <gpxtpx:speed>1.847</gpxtpx:speed>
          </gpxtpx:TrackPointExtension>
        </extensions>
      </trkpt>
      <trkpt lat="54.394855331629515" lon="10.204619178548455">
        <time>2026-09-11T16:31:35.000Z</time>
        <extensions>
          <gpxtpx:TrackPointExtension>
            <gpxtpx:speed>1.913</gpxtpx:speed>
          </gpxtpx:TrackPointExtension>
        </extensions>
      </trkpt>
      <trkpt lat="54.39230186864734" lon="10.201639076694846">
        <time>2026-09-11T16:34:37.000Z</time>
        <extensions>
          <gpxtpx:TrackPointExtension>
            <gpxtpx:speed>1.903</gpxtpx:speed>
          </gpxtpx:TrackPointExtension>
        </extensions>
      </trkpt>
      <trkpt lat="54.39014277420938" lon="10.199997061863542">
        <time>2026-09-11T16:36:48.000Z</time>
        <extensions>
          <gpxtpx:TrackPointExtension>
            <gpxtpx:speed>2.286</gpxtpx:speed>
          </gpxtpx:TrackPointExtension>
        </extensions>
      </trkpt>
      <trkpt lat="54.38421031460166" lon="10.194581765681505">
        <time>2026-09-11T16:42:33.000Z</time>
        <extensions>
          <gpxtpx:TrackPointExtension>
            <gpxtpx:speed>2.109</gpxtpx:speed>
          </gpxtpx:TrackPointExtension>
        </extensions>
      </trkpt>
      <trkpt lat="54.380302000790834" lon="10.19200055859983">
        <time>2026-09-11T16:46:11.000Z</time>
        <extensions>
          <gpxtpx:TrackPointExtension>
            <gpxtpx:speed>2.165</gpxtpx:speed>
          </gpxtpx:TrackPointExtension>
        </extensions>
      </trkpt>
      <trkpt lat="54.37885872088373" lon="10.190586363896728">
        <time>2026-09-11T16:47:36.000Z</time>
        <extensions>
          <gpxtpx:TrackPointExtension>
            <gpxtpx:speed>2.165</gpxtpx:speed>
          </gpxtpx:TrackPointExtension>
        </extensions>
      </trkpt>
      <trkpt lat="54.375481233000755" lon="10.187843134626746">
        <time>2026-09-11T16:50:50.000Z</time>
        <extensions>
          <gpxtpx:TrackPointExtension>
            <gpxtpx:speed>2.025</gpxtpx:speed>
          </gpxtpx:TrackPointExtension>
        </extensions>
      </trkpt>
      <trkpt lat="54.374045161530375" lon="10.186383090913296">
        <time>2026-09-11T16:52:17.000Z</time>
        <extensions>
          <gpxtpx:TrackPointExtension>
            <gpxtpx:speed>2.146</gpxtpx:speed>
          </gpxtpx:TrackPointExtension>
        </extensions>
      </trkpt>
      <trkpt lat="54.37294361181557" lon="10.18566643819213">
        <time>2026-09-11T16:53:20.000Z</time>
        <extensions>
          <gpxtpx:TrackPointExtension>
            <gpxtpx:speed>2.071</gpxtpx:speed>
          </gpxtpx:TrackPointExtension>
        </extensions>
      </trkpt>
      <trkpt lat="54.370595421642065" lon="10.183104677125812">
        <time>2026-09-11T16:55:50.000Z</time>
        <extensions>
          <gpxtpx:TrackPointExtension>
            <gpxtpx:speed>1.903</gpxtpx:speed>
          </gpxtpx:TrackPointExtension>
        </extensions>
      </trkpt>
      <trkpt lat="54.37007624655962" lon="10.182700585573912">
        <time>2026-09-11T16:56:22.000Z</time>
        <extensions>
          <gpxtpx:TrackPointExtension>
            <gpxtpx:speed>1.894</gpxtpx:speed>
          </gpxtpx:TrackPointExtension>
        </extensions>
      </trkpt>
      <trkpt lat="54.36893630772829" lon="10.182246789336205">
        <time>2026-09-11T16:57:27.000Z</time>
        <extensions>
          <gpxtpx:TrackPointExtension>
            <gpxtpx:speed>2.043</gpxtpx:speed>
          </gpxtpx:TrackPointExtension>
        </extensions>
      </trkpt>
      <trkpt lat="54.36797917820513" lon="10.181323690339923">
        <time>2026-09-11T16:58:26.000Z</time>
        <extensions>
          <gpxtpx:TrackPointExtension>
            <gpxtpx:speed>2.006</gpxtpx:speed>
          </gpxtpx:TrackPointExtension>
        </extensions>
      </trkpt>
      <trkpt lat="54.36632316559553" lon="10.179181611165404">
        <time>2026-09-11T17:00:22.000Z</time>
        <extensions>
          <gpxtpx:TrackPointExtension>
            <gpxtpx:speed>2.174</gpxtpx:speed>
          </gpxtpx:TrackPointExtension>
        </extensions>
      </trkpt>
      <trkpt lat="54.36383466236293" lon="10.176602583378553">
        <time>2026-09-11T17:03:03.000Z</time>
        <extensions>
          <gpxtpx:TrackPointExtension>
            <gpxtpx:speed>1.95</gpxtpx:speed>
          </gpxtpx:TrackPointExtension>
        </extensions>
      </trkpt>
      <trkpt lat="54.36288801021874" lon="10.176119785755873">
        <time>2026-09-11T17:03:57.000Z</time>
        <extensions>
          <gpxtpx:TrackPointExtension>
            <gpxtpx:speed>2.09</gpxtpx:speed>
          </gpxtpx:TrackPointExtension>
        </extensions>
      </trkpt>
      <trkpt lat="54.36169593594968" lon="10.175801776349545">
        <time>2026-09-11T17:05:00.000Z</time>
        <extensions>
          <gpxtpx:TrackPointExtension>
            <gpxtpx:speed>1.987</gpxtpx:speed>
          </gpxtpx:TrackPointExtension>
        </extensions>
      </trkpt>
      <trkpt lat="54.35802172869444" lon="10.173559281975031">
        <time>2026-09-11T17:08:33.000Z</time>
        <extensions>
          <gpxtpx:TrackPointExtension>
            <gpxtpx:speed>1.997</gpxtpx:speed>
          </gpxtpx:TrackPointExtension>
        </extensions>
      </trkpt>
      <trkpt lat="54.35198172926903" lon="10.17090599052608">
        <time>2026-09-11T17:14:10.000Z</time>
        <extensions>
          <gpxtpx:TrackPointExtension>
            <gpxtpx:speed>1.987</gpxtpx:speed>
          </gpxtpx:TrackPointExtension>
        </extensions>
      </trkpt>
      <trkpt lat="54.349251156672835" lon="10.169169344007969">
        <time>2026-09-11T17:16:51.000Z</time>
        <extensions>
          <gpxtpx:TrackPointExtension>
            <gpxtpx:speed>2.043</gpxtpx:speed>
          </gpxtpx:TrackPointExtension>
        </extensions>
      </trkpt>
      <trkpt lat="54.3485448975116" lon="10.169019307941198">
        <time>2026-09-11T17:17:30.000Z</time>
        <extensions>
          <gpxtpx:TrackPointExtension>
            <gpxtpx:speed>2.09</gpxtpx:speed>
          </gpxtpx:TrackPointExtension>
        </extensions>
      </trkpt>
      <trkpt lat="54.346957951784134" lon="10.169344525784254">
        <time>2026-09-11T17:19:03.000Z</time>
        <extensions>
          <gpxtpx:TrackPointExtension>
            <gpxtpx:speed>1.54</gpxtpx:speed>
          </gpxtpx:TrackPointExtension>
        </extensions>
      </trkpt>
      <trkpt lat="54.34589847922325" lon="10.169284595176578">
        <time>2026-09-11T17:20:22.000Z</time>
        <extensions>
          <gpxtpx:TrackPointExtension>
            <gpxtpx:speed>1.493</gpxtpx:speed>
          </gpxtpx:TrackPointExtension>
        </extensions>
      </trkpt>
      <trkpt lat="54.34443709440529" lon="10.16895242035389">
        <time>2026-09-11T17:22:08.000Z</time>
        <extensions>
          <gpxtpx:TrackPointExtension>
            <gpxtpx:speed>2.062</gpxtpx:speed>
          </gpxtpx:TrackPointExtension>
        </extensions>
      </trkpt>
      <trkpt lat="54.34245024807751" lon="10.167914405465126">
        <time>2026-09-11T17:23:49.000Z</time>
        <extensions>
          <gpxtpx:TrackPointExtension>
            <gpxtpx:speed>2.295</gpxtpx:speed>
          </gpxtpx:TrackPointExtension>
        </extensions>
      </trkpt>
      <trkpt lat="54.341523963958025" lon="10.167690608650446">
        <time>2026-09-11T17:24:36.000Z</time>
        <extensions>
          <gpxtpx:TrackPointExtension>
            <gpxtpx:speed>2.295</gpxtpx:speed>
          </gpxtpx:TrackPointExtension>
        </extensions>
      </trkpt>
      <trkpt lat="54.341143257915974" lon="10.167334042489529">
        <time>2026-09-11T17:24:57.000Z</time>
        <extensions>
          <gpxtpx:TrackPointExtension>
            <gpxtpx:speed>2.426</gpxtpx:speed>
          </gpxtpx:TrackPointExtension>
        </extensions>
      </trkpt>
      <trkpt lat="54.33977331966162" lon="10.167134804651141">
        <time>2026-09-11T17:26:01.000Z</time>
        <extensions>
          <gpxtpx:TrackPointExtension>
            <gpxtpx:speed>2.267</gpxtpx:speed>
          </gpxtpx:TrackPointExtension>
        </extensions>
      </trkpt>
      <trkpt lat="54.33849063701928" lon="10.166724091395736">
        <time>2026-09-11T17:27:11.000Z</time>
        <extensions>
          <gpxtpx:TrackPointExtension>
            <gpxtpx:speed>2.081</gpxtpx:speed>
          </gpxtpx:TrackPointExtension>
        </extensions>
      </trkpt>
      <trkpt lat="54.33528799563646" lon="10.166719062253833">
        <time>2026-09-11T17:29:58.000Z</time>
        <extensions>
          <gpxtpx:TrackPointExtension>
            <gpxtpx:speed>1.978</gpxtpx:speed>
          </gpxtpx:TrackPointExtension>
        </extensions>
      </trkpt>
      <trkpt lat="54.33377129025757" lon="10.168085899204016">
        <time>2026-09-11T17:31:22.000Z</time>
        <extensions>
          <gpxtpx:TrackPointExtension>
            <gpxtpx:speed>2.23</gpxtpx:speed>
          </gpxtpx:TrackPointExtension>
        </extensions>
      </trkpt>
      <trkpt lat="54.33241358958185" lon="10.169934863224626">
        <time>2026-09-11T17:32:49.000Z</time>
        <extensions>
          <gpxtpx:TrackPointExtension>
            <gpxtpx:speed>2.277</gpxtpx:speed>
          </gpxtpx:TrackPointExtension>
        </extensions>
      </trkpt>
      <trkpt lat="54.33129779063165" lon="10.171886086463928">
        <time>2026-09-11T17:34:05.000Z</time>
        <extensions>
          <gpxtpx:TrackPointExtension>
            <gpxtpx:speed>2.314</gpxtpx:speed>
          </gpxtpx:TrackPointExtension>
        </extensions>
      </trkpt>
      <trkpt lat="54.330308893695474" lon="10.173972258344293">
        <time>2026-09-11T17:35:28.000Z</time>
        <extensions>
          <gpxtpx:TrackPointExtension>
            <gpxtpx:speed>1.689</gpxtpx:speed>
          </gpxtpx:TrackPointExtension>
        </extensions>
      </trkpt>
      <trkpt lat="54.329799357801676" lon="10.175849134102464">
        <time>2026-09-11T17:37:58.000Z</time>
      </trkpt>
    </trkseg>
  </trk>
</gpx>
