<?xml version="1.0" encoding="UTF-8"?>
<gpx version="1.1" creator="SailTies" xmlns="http://www.topografix.com/GPX/1/1" xmlns:xsi="http://www.w3.org/2001/XMLSchema-instance" xmlns:gpxtpx="http://www.garmin.com/xmlschemas/TrackPointExtension/v2" xsi:schemaLocation="http://www.topografix.com/GPX/1/1 http://www.topografix.com/GPX/1/1/gpx.xsd http://www.garmin.com/xmlschemas/TrackPointExtension/v2 http://www.garmin.com/xmlschemas/TrackPointExtensionv2.xsd">
  <metadata>
    <name>Aurora Delivery. Passage 2</name>
    <desc>Distance: 34.1 NM • Duration: 8h 26m • Avg speed: 4.0 kn • Max speed: 5.8 kn • Vessel: Aurora • Klintholm Havn to Gedser, Denmark</desc>
    <author><name>SailTies</name><link href="https://sailties.com"><text>SailTies</text></link></author>
    <link href="https://sailties.com"><text>SailTies</text></link>
    <time>2026-09-06T12:10:57.000Z</time>
    <bounds minlat="54.544221349060535" minlon="11.915089264512062" maxlat="54.95355670340359" maxlon="12.46495334431529"/>
  </metadata>
  <trk>
    <name>Aurora Delivery. Passage 2</name>
    <desc>Distance: 34.1 NM • Duration: 8h 26m • Avg speed: 4.0 kn • Max speed: 5.8 kn • Vessel: Aurora • Klintholm Havn to Gedser, Denmark</desc>
    <type>sailing</type>
    <trkseg>
      <trkpt lat="54.95355670340359" lon="12.46495334431529">
        <time>2026-09-06T12:10:57.000Z</time>
        <extensions>
          <gpxtpx:TrackPointExtension>
            <gpxtpx:speed>2.37</gpxtpx:speed>
          </gpxtpx:TrackPointExtension>
        </extensions>
      </trkpt>
      <trkpt lat="54.95201015844941" lon="12.464285138994455">
        <time>2026-09-06T12:12:50.000Z</time>
        <extensions>
          <gpxtpx:TrackPointExtension>
            <gpxtpx:speed>1.54</gpxtpx:speed>
          </gpxtpx:TrackPointExtension>
        </extensions>
      </trkpt>
      <trkpt lat="54.951541274785995" lon="12.463158192113042">
        <time>2026-09-06T12:14:10.000Z</time>
        <extensions>
          <gpxtpx:TrackPointExtension>
            <gpxtpx:speed>1.437</gpxtpx:speed>
          </gpxtpx:TrackPointExtension>
        </extensions>
      </trkpt>
      <trkpt lat="54.94946775957942" lon="12.461033295840025">
        <time>2026-09-06T12:17:22.000Z</time>
        <extensions>
          <gpxtpx:TrackPointExtension>
            <gpxtpx:speed>1.278</gpxtpx:speed>
          </gpxtpx:TrackPointExtension>
        </extensions>
      </trkpt>
      <trkpt lat="54.94695721194148" lon="12.457592021673918">
        <time>2026-09-06T12:20:56.000Z</time>
        <extensions>
          <gpxtpx:TrackPointExtension>
            <gpxtpx:speed>2.034</gpxtpx:speed>
          </gpxtpx:TrackPointExtension>
        </extensions>
      </trkpt>
      <trkpt lat="54.94557486847043" lon="12.456323001533747">
        <time>2026-09-06T12:22:16.000Z</time>
        <extensions>
          <gpxtpx:TrackPointExtension>
            <gpxtpx:speed>2.398</gpxtpx:speed>
          </gpxtpx:TrackPointExtension>
        </extensions>
      </trkpt>
      <trkpt lat="54.94487849995494" lon="12.455465951934457">
        <time>2026-09-06T12:22:56.000Z</time>
        <extensions>
          <gpxtpx:TrackPointExtension>
            <gpxtpx:speed>2.211</gpxtpx:speed>
          </gpxtpx:TrackPointExtension>
        </extensions>
      </trkpt>
      <trkpt lat="54.94420065544546" lon="12.455080971121788">
        <time>2026-09-06T12:23:33.000Z</time>
        <extensions>
          <gpxtpx:TrackPointExtension>
            <gpxtpx:speed>2.473</gpxtpx:speed>
          </gpxtpx:TrackPointExtension>
        </extensions>
      </trkpt>
      <trkpt lat="54.93842225521803" lon="12.449095034971833">
        <time>2026-09-06T12:29:14.000Z</time>
        <extensions>
          <gpxtpx:TrackPointExtension>
            <gpxtpx:speed>2.165</gpxtpx:speed>
          </gpxtpx:TrackPointExtension>
        </extensions>
      </trkpt>
      <trkpt lat="54.935743901878595" lon="12.445464497432113">
        <time>2026-09-06T12:32:03.000Z</time>
        <extensions>
          <gpxtpx:TrackPointExtension>
            <gpxtpx:speed>2.407</gpxtpx:speed>
          </gpxtpx:TrackPointExtension>
        </extensions>
      </trkpt>
      <trkpt lat="54.9347039591521" lon="12.443550322204828">
        <time>2026-09-06T12:33:24.000Z</time>
        <extensions>
          <gpxtpx:TrackPointExtension>
            <gpxtpx:speed>1.446</gpxtpx:speed>
          </gpxtpx:TrackPointExtension>
        </extensions>
      </trkpt>
      <trkpt lat="54.93421655148268" lon="12.443425012752414">
        <time>2026-09-06T12:34:19.000Z</time>
        <extensions>
          <gpxtpx:TrackPointExtension>
            <gpxtpx:speed>1.372</gpxtpx:speed>
          </gpxtpx:TrackPointExtension>
        </extensions>
      </trkpt>
      <trkpt lat="54.93342546746135" lon="12.442846912890673">
        <time>2026-09-06T12:35:04.000Z</time>
        <extensions>
          <gpxtpx:TrackPointExtension>
            <gpxtpx:speed>2.221</gpxtpx:speed>
          </gpxtpx:TrackPointExtension>
        </extensions>
      </trkpt>
      <trkpt lat="54.93145823478699" lon="12.44112434796989">
        <time>2026-09-06T12:36:51.000Z</time>
        <extensions>
          <gpxtpx:TrackPointExtension>
            <gpxtpx:speed>2.183</gpxtpx:speed>
          </gpxtpx:TrackPointExtension>
        </extensions>
      </trkpt>
      <trkpt lat="54.92759241722524" lon="12.436935575678945">
        <time>2026-09-06T12:40:39.000Z</time>
        <extensions>
          <gpxtpx:TrackPointExtension>
            <gpxtpx:speed>1.931</gpxtpx:speed>
          </gpxtpx:TrackPointExtension>
        </extensions>
      </trkpt>
      <trkpt lat="54.92359282448888" lon="12.43337762542069">
        <time>2026-09-06T12:44:25.000Z</time>
        <extensions>
          <gpxtpx:TrackPointExtension>
            <gpxtpx:speed>2.389</gpxtpx:speed>
          </gpxtpx:TrackPointExtension>
        </extensions>
      </trkpt>
      <trkpt lat="54.91958501748741" lon="12.428753329440951">
        <time>2026-09-06T12:48:32.000Z</time>
        <extensions>
          <gpxtpx:TrackPointExtension>
            <gpxtpx:speed>2.043</gpxtpx:speed>
          </gpxtpx:TrackPointExtension>
        </extensions>
      </trkpt>
      <trkpt lat="54.91743866354227" lon="12.425853190943599">
        <time>2026-09-06T12:50:42.000Z</time>
        <extensions>
          <gpxtpx:TrackPointExtension>
            <gpxtpx:speed>2.575</gpxtpx:speed>
          </gpxtpx:TrackPointExtension>
        </extensions>
      </trkpt>
      <trkpt lat="54.91570218466222" lon="12.423955276608467">
        <time>2026-09-06T12:52:09.000Z</time>
        <extensions>
          <gpxtpx:TrackPointExtension>
            <gpxtpx:speed>2.333</gpxtpx:speed>
          </gpxtpx:TrackPointExtension>
        </extensions>
      </trkpt>
      <trkpt lat="54.91345273330808" lon="12.421778915449977">
        <time>2026-09-06T12:54:07.000Z</time>
        <extensions>
          <gpxtpx:TrackPointExtension>
            <gpxtpx:speed>2.099</gpxtpx:speed>
          </gpxtpx:TrackPointExtension>
        </extensions>
      </trkpt>
      <trkpt lat="54.90875358693302" lon="12.418136643245816">
        <time>2026-09-06T12:58:39.000Z</time>
        <extensions>
          <gpxtpx:TrackPointExtension>
            <gpxtpx:speed>1.969</gpxtpx:speed>
          </gpxtpx:TrackPointExtension>
        </extensions>
      </trkpt>
      <trkpt lat="54.90589141845703" lon="12.414056165143847">
        <time>2026-09-06T13:02:08.000Z</time>
        <extensions>
          <gpxtpx:TrackPointExtension>
            <gpxtpx:speed>1.381</gpxtpx:speed>
          </gpxtpx:TrackPointExtension>
        </extensions>
      </trkpt>
      <trkpt lat="54.904716443270445" lon="12.41272478364408">
        <time>2026-09-06T13:03:28.000Z</time>
        <extensions>
          <gpxtpx:TrackPointExtension>
            <gpxtpx:speed>1.801</gpxtpx:speed>
          </gpxtpx:TrackPointExtension>
        </extensions>
      </trkpt>
      <trkpt lat="54.90143316797912" lon="12.409454332664609">
        <time>2026-09-06T13:06:50.000Z</time>
        <extensions>
          <gpxtpx:TrackPointExtension>
            <gpxtpx:speed>2.071</gpxtpx:speed>
          </gpxtpx:TrackPointExtension>
        </extensions>
      </trkpt>
      <trkpt lat="54.900004053488374" lon="12.40838480181992">
        <time>2026-09-06T13:08:11.000Z</time>
        <extensions>
          <gpxtpx:TrackPointExtension>
            <gpxtpx:speed>2.426</gpxtpx:speed>
          </gpxtpx:TrackPointExtension>
        </extensions>
      </trkpt>
      <trkpt lat="54.897129479795694" lon="12.40560695528984">
        <time>2026-09-06T13:10:49.000Z</time>
        <extensions>
          <gpxtpx:TrackPointExtension>
            <gpxtpx:speed>2.267</gpxtpx:speed>
          </gpxtpx:TrackPointExtension>
        </extensions>
      </trkpt>
      <trkpt lat="54.89564529620111" lon="12.403619103133678">
        <time>2026-09-06T13:12:17.000Z</time>
        <extensions>
          <gpxtpx:TrackPointExtension>
            <gpxtpx:speed>2.043</gpxtpx:speed>
          </gpxtpx:TrackPointExtension>
        </extensions>
      </trkpt>
      <trkpt lat="54.89152550697327" lon="12.399532841518521">
        <time>2026-09-06T13:16:10.000Z</time>
        <extensions>
          <gpxtpx:TrackPointExtension>
            <gpxtpx:speed>2.211</gpxtpx:speed>
          </gpxtpx:TrackPointExtension>
        </extensions>
      </trkpt>
      <trkpt lat="54.88882351666689" lon="12.396068684756756">
        <time>2026-09-06T13:19:06.000Z</time>
        <extensions>
          <gpxtpx:TrackPointExtension>
            <gpxtpx:speed>2.071</gpxtpx:speed>
          </gpxtpx:TrackPointExtension>
        </extensions>
      </trkpt>
      <trkpt lat="54.88732676021755" lon="12.393768271431327">
        <time>2026-09-06T13:20:56.000Z</time>
        <extensions>
          <gpxtpx:TrackPointExtension>
            <gpxtpx:speed>2.202</gpxtpx:speed>
          </gpxtpx:TrackPointExtension>
        </extensions>
      </trkpt>
      <trkpt lat="54.885300267487764" lon="12.390154246240854">
        <time>2026-09-06T13:23:39.000Z</time>
        <extensions>
          <gpxtpx:TrackPointExtension>
            <gpxtpx:speed>1.782</gpxtpx:speed>
          </gpxtpx:TrackPointExtension>
        </extensions>
      </trkpt>
      <trkpt lat="54.882556702941656" lon="12.38626847974956">
        <time>2026-09-06T13:27:15.000Z</time>
        <extensions>
          <gpxtpx:TrackPointExtension>
            <gpxtpx:speed>1.857</gpxtpx:speed>
          </gpxtpx:TrackPointExtension>
        </extensions>
      </trkpt>
      <trkpt lat="54.88033558242023" lon="12.382741793990135">
        <time>2026-09-06T13:30:25.000Z</time>
        <extensions>
          <gpxtpx:TrackPointExtension>
            <gpxtpx:speed>1.773</gpxtpx:speed>
          </gpxtpx:TrackPointExtension>
        </extensions>
      </trkpt>
      <trkpt lat="54.874691125005484" lon="12.375967120751739">
        <time>2026-09-06T13:36:10.000Z</time>
        <extensions>
          <gpxtpx:TrackPointExtension>
            <gpxtpx:speed>2.305</gpxtpx:speed>
          </gpxtpx:TrackPointExtension>
        </extensions>
      </trkpt>
      <trkpt lat="54.872865127399564" lon="12.373497225344181">
        <time>2026-09-06T13:38:01.000Z</time>
        <extensions>
          <gpxtpx:TrackPointExtension>
            <gpxtpx:speed>2.127</gpxtpx:speed>
          </gpxtpx:TrackPointExtension>
        </extensions>
      </trkpt>
      <trkpt lat="54.871616223827004" lon="12.372187804430723">
        <time>2026-09-06T13:39:17.000Z</time>
        <extensions>
          <gpxtpx:TrackPointExtension>
            <gpxtpx:speed>2.146</gpxtpx:speed>
          </gpxtpx:TrackPointExtension>
        </extensions>
      </trkpt>
      <trkpt lat="54.869371466338634" lon="12.36874083057046">
        <time>2026-09-06T13:41:42.000Z</time>
        <extensions>
          <gpxtpx:TrackPointExtension>
            <gpxtpx:speed>2.314</gpxtpx:speed>
          </gpxtpx:TrackPointExtension>
        </extensions>
      </trkpt>
      <trkpt lat="54.863405311480165" lon="12.362772328779101">
        <time>2026-09-06T13:47:18.000Z</time>
        <extensions>
          <gpxtpx:TrackPointExtension>
            <gpxtpx:speed>2.417</gpxtpx:speed>
          </gpxtpx:TrackPointExtension>
        </extensions>
      </trkpt>
      <trkpt lat="54.86210276372731" lon="12.361058229580522">
        <time>2026-09-06T13:48:37.000Z</time>
        <extensions>
          <gpxtpx:TrackPointExtension>
            <gpxtpx:speed>1.81</gpxtpx:speed>
          </gpxtpx:TrackPointExtension>
        </extensions>
      </trkpt>
      <trkpt lat="54.859599843621254" lon="12.358513986691833">
        <time>2026-09-06T13:51:00.000Z</time>
        <extensions>
          <gpxtpx:TrackPointExtension>
            <gpxtpx:speed>2.435</gpxtpx:speed>
          </gpxtpx:TrackPointExtension>
        </extensions>
      </trkpt>
      <trkpt lat="54.85895871184766" lon="12.357601532712579">
        <time>2026-09-06T13:51:40.000Z</time>
        <extensions>
          <gpxtpx:TrackPointExtension>
            <gpxtpx:speed>2.183</gpxtpx:speed>
          </gpxtpx:TrackPointExtension>
        </extensions>
      </trkpt>
      <trkpt lat="54.8553579300642" lon="12.353640161454678">
        <time>2026-09-06T13:55:05.000Z</time>
        <extensions>
          <gpxtpx:TrackPointExtension>
            <gpxtpx:speed>1.969</gpxtpx:speed>
          </gpxtpx:TrackPointExtension>
        </extensions>
      </trkpt>
      <trkpt lat="54.85209334641695" lon="12.35077983699739">
        <time>2026-09-06T13:58:09.000Z</time>
        <extensions>
          <gpxtpx:TrackPointExtension>
            <gpxtpx:speed>2.249</gpxtpx:speed>
          </gpxtpx:TrackPointExtension>
        </extensions>
      </trkpt>
      <trkpt lat="54.85081200487912" lon="12.350230989977717">
        <time>2026-09-06T13:59:31.000Z</time>
        <extensions>
          <gpxtpx:TrackPointExtension>
            <gpxtpx:speed>1.903</gpxtpx:speed>
          </gpxtpx:TrackPointExtension>
        </extensions>
      </trkpt>
      <trkpt lat="54.848651150241494" lon="12.347199590876698">
        <time>2026-09-06T14:01:51.000Z</time>
        <extensions>
          <gpxtpx:TrackPointExtension>
            <gpxtpx:speed>2.305</gpxtpx:speed>
          </gpxtpx:TrackPointExtension>
        </extensions>
      </trkpt>
      <trkpt lat="54.84721876680851" lon="12.3459717258811">
        <time>2026-09-06T14:03:27.000Z</time>
        <extensions>
          <gpxtpx:TrackPointExtension>
            <gpxtpx:speed>1.717</gpxtpx:speed>
          </gpxtpx:TrackPointExtension>
        </extensions>
      </trkpt>
      <trkpt lat="54.84561120159924" lon="12.343828054144979">
        <time>2026-09-06T14:05:18.000Z</time>
        <extensions>
          <gpxtpx:TrackPointExtension>
            <gpxtpx:speed>2.081</gpxtpx:speed>
          </gpxtpx:TrackPointExtension>
        </extensions>
      </trkpt>
      <trkpt lat="54.8430694732815" lon="12.341337790712714">
        <time>2026-09-06T14:07:50.000Z</time>
        <extensions>
          <gpxtpx:TrackPointExtension>
            <gpxtpx:speed>2.118</gpxtpx:speed>
          </gpxtpx:TrackPointExtension>
        </extensions>
      </trkpt>
      <trkpt lat="54.84200304374099" lon="12.340705040842295">
        <time>2026-09-06T14:09:14.000Z</time>
        <extensions>
          <gpxtpx:TrackPointExtension>
            <gpxtpx:speed>1.773</gpxtpx:speed>
          </gpxtpx:TrackPointExtension>
        </extensions>
      </trkpt>
      <trkpt lat="54.841045243665576" lon="12.339169476181269">
        <time>2026-09-06T14:10:39.000Z</time>
        <extensions>
          <gpxtpx:TrackPointExtension>
            <gpxtpx:speed>1.334</gpxtpx:speed>
          </gpxtpx:TrackPointExtension>
        </extensions>
      </trkpt>
      <trkpt lat="54.83973640948534" lon="12.337862737476826">
        <time>2026-09-06T14:12:41.000Z</time>
        <extensions>
          <gpxtpx:TrackPointExtension>
            <gpxtpx:speed>1.791</gpxtpx:speed>
          </gpxtpx:TrackPointExtension>
        </extensions>
      </trkpt>
      <trkpt lat="54.83748377300799" lon="12.334185680374503">
        <time>2026-09-06T14:15:12.000Z</time>
        <extensions>
          <gpxtpx:TrackPointExtension>
            <gpxtpx:speed>2.286</gpxtpx:speed>
          </gpxtpx:TrackPointExtension>
        </extensions>
      </trkpt>
      <trkpt lat="54.835983999073505" lon="12.333172140643">
        <time>2026-09-06T14:16:52.000Z</time>
        <extensions>
          <gpxtpx:TrackPointExtension>
            <gpxtpx:speed>2.099</gpxtpx:speed>
          </gpxtpx:TrackPointExtension>
        </extensions>
      </trkpt>
      <trkpt lat="54.83428180217743" lon="12.330300752073526">
        <time>2026-09-06T14:18:41.000Z</time>
        <extensions>
          <gpxtpx:TrackPointExtension>
            <gpxtpx:speed>2.799</gpxtpx:speed>
          </gpxtpx:TrackPointExtension>
        </extensions>
      </trkpt>
      <trkpt lat="54.83363572508097" lon="12.329568089917302">
        <time>2026-09-06T14:19:16.000Z</time>
        <extensions>
          <gpxtpx:TrackPointExtension>
            <gpxtpx:speed>2.211</gpxtpx:speed>
          </gpxtpx:TrackPointExtension>
        </extensions>
      </trkpt>
      <trkpt lat="54.83303499408066" lon="12.329285452142358">
        <time>2026-09-06T14:19:56.000Z</time>
        <extensions>
          <gpxtpx:TrackPointExtension>
            <gpxtpx:speed>1.512</gpxtpx:speed>
          </gpxtpx:TrackPointExtension>
        </extensions>
      </trkpt>
      <trkpt lat="54.829060044139624" lon="12.32325634919107">
        <time>2026-09-06T14:24:35.000Z</time>
        <extensions>
          <gpxtpx:TrackPointExtension>
            <gpxtpx:speed>2.379</gpxtpx:speed>
          </gpxtpx:TrackPointExtension>
        </extensions>
      </trkpt>
      <trkpt lat="54.82832008972764" lon="12.322497367858887">
        <time>2026-09-06T14:25:20.000Z</time>
        <extensions>
          <gpxtpx:TrackPointExtension>
            <gpxtpx:speed>2.193</gpxtpx:speed>
          </gpxtpx:TrackPointExtension>
        </extensions>
      </trkpt>
      <trkpt lat="54.82697328552604" lon="12.320653852075338">
        <time>2026-09-06T14:26:56.000Z</time>
        <extensions>
          <gpxtpx:TrackPointExtension>
            <gpxtpx:speed>2.006</gpxtpx:speed>
          </gpxtpx:TrackPointExtension>
        </extensions>
      </trkpt>
      <trkpt lat="54.82563260011375" lon="12.319425903260708">
        <time>2026-09-06T14:28:03.000Z</time>
        <extensions>
          <gpxtpx:TrackPointExtension>
            <gpxtpx:speed>2.538</gpxtpx:speed>
          </gpxtpx:TrackPointExtension>
        </extensions>
      </trkpt>
      <trkpt lat="54.82453549280763" lon="12.317743068560958">
        <time>2026-09-06T14:29:16.000Z</time>
        <extensions>
          <gpxtpx:TrackPointExtension>
            <gpxtpx:speed>2.025</gpxtpx:speed>
          </gpxtpx:TrackPointExtension>
        </extensions>
      </trkpt>
      <trkpt lat="54.822431802749634" lon="12.315042167901993">
        <time>2026-09-06T14:31:35.000Z</time>
        <extensions>
          <gpxtpx:TrackPointExtension>
            <gpxtpx:speed>2.099</gpxtpx:speed>
          </gpxtpx:TrackPointExtension>
        </extensions>
      </trkpt>
      <trkpt lat="54.81957835145295" lon="12.312121577560902">
        <time>2026-09-06T14:34:28.000Z</time>
        <extensions>
          <gpxtpx:TrackPointExtension>
            <gpxtpx:speed>2.025</gpxtpx:speed>
          </gpxtpx:TrackPointExtension>
        </extensions>
      </trkpt>
      <trkpt lat="54.81639917939901" lon="12.309335768222809">
        <time>2026-09-06T14:37:26.000Z</time>
        <extensions>
          <gpxtpx:TrackPointExtension>
            <gpxtpx:speed>2.426</gpxtpx:speed>
          </gpxtpx:TrackPointExtension>
        </extensions>
      </trkpt>
      <trkpt lat="54.8128130659461" lon="12.305819727480412">
        <time>2026-09-06T14:40:34.000Z</time>
        <extensions>
          <gpxtpx:TrackPointExtension>
            <gpxtpx:speed>2.221</gpxtpx:speed>
          </gpxtpx:TrackPointExtension>
        </extensions>
      </trkpt>
      <trkpt lat="54.80475244112313" lon="12.298771552741528">
        <time>2026-09-06T14:47:37.000Z</time>
        <extensions>
          <gpxtpx:TrackPointExtension>
            <gpxtpx:speed>2.37</gpxtpx:speed>
          </gpxtpx:TrackPointExtension>
        </extensions>
      </trkpt>
      <trkpt lat="54.80062460526824" lon="12.294655870646238">
        <time>2026-09-06T14:52:25.000Z</time>
        <extensions>
          <gpxtpx:TrackPointExtension>
            <gpxtpx:speed>1.819</gpxtpx:speed>
          </gpxtpx:TrackPointExtension>
        </extensions>
      </trkpt>
      <trkpt lat="54.79521366767585" lon="12.288116896525025">
        <time>2026-09-06T14:58:58.000Z</time>
        <extensions>
          <gpxtpx:TrackPointExtension>
            <gpxtpx:speed>2.099</gpxtpx:speed>
          </gpxtpx:TrackPointExtension>
        </extensions>
      </trkpt>
      <trkpt lat="54.78935932740569" lon="12.283171825110912">
        <time>2026-09-06T15:04:37.000Z</time>
        <extensions>
          <gpxtpx:TrackPointExtension>
            <gpxtpx:speed>1.661</gpxtpx:speed>
          </gpxtpx:TrackPointExtension>
        </extensions>
      </trkpt>
      <trkpt lat="54.788286443799734" lon="12.282545194029808">
        <time>2026-09-06T15:05:43.000Z</time>
        <extensions>
          <gpxtpx:TrackPointExtension>
            <gpxtpx:speed>2.221</gpxtpx:speed>
          </gpxtpx:TrackPointExtension>
        </extensions>
      </trkpt>
      <trkpt lat="54.786017714068294" lon="12.280358942225575">
        <time>2026-09-06T15:08:13.000Z</time>
        <extensions>
          <gpxtpx:TrackPointExtension>
            <gpxtpx:speed>1.465</gpxtpx:speed>
          </gpxtpx:TrackPointExtension>
        </extensions>
      </trkpt>
      <trkpt lat="54.7841677442193" lon="12.279186900705099">
        <time>2026-09-06T15:10:39.000Z</time>
        <extensions>
          <gpxtpx:TrackPointExtension>
            <gpxtpx:speed>1.95</gpxtpx:speed>
          </gpxtpx:TrackPointExtension>
        </extensions>
      </trkpt>
      <trkpt lat="54.78146390989423" lon="12.277055298909545">
        <time>2026-09-06T15:14:04.000Z</time>
        <extensions>
          <gpxtpx:TrackPointExtension>
            <gpxtpx:speed>1.717</gpxtpx:speed>
          </gpxtpx:TrackPointExtension>
        </extensions>
      </trkpt>
      <trkpt lat="54.77871514856815" lon="12.274100258946419">
        <time>2026-09-06T15:18:14.000Z</time>
        <extensions>
          <gpxtpx:TrackPointExtension>
            <gpxtpx:speed>1.437</gpxtpx:speed>
          </gpxtpx:TrackPointExtension>
        </extensions>
      </trkpt>
      <trkpt lat="54.7769358381629" lon="12.27268623188138">
        <time>2026-09-06T15:20:46.000Z</time>
        <extensions>
          <gpxtpx:TrackPointExtension>
            <gpxtpx:speed>2.23</gpxtpx:speed>
          </gpxtpx:TrackPointExtension>
        </extensions>
      </trkpt>
      <trkpt lat="54.77585683576763" lon="12.271097609773278">
        <time>2026-09-06T15:22:07.000Z</time>
        <extensions>
          <gpxtpx:TrackPointExtension>
            <gpxtpx:speed>1.736</gpxtpx:speed>
          </gpxtpx:TrackPointExtension>
        </extensions>
      </trkpt>
      <trkpt lat="54.774489998817444" lon="12.26964888162911">
        <time>2026-09-06T15:23:41.000Z</time>
        <extensions>
          <gpxtpx:TrackPointExtension>
            <gpxtpx:speed>1.829</gpxtpx:speed>
          </gpxtpx:TrackPointExtension>
        </extensions>
      </trkpt>
      <trkpt lat="54.77331452071667" lon="12.268024804070592">
        <time>2026-09-06T15:25:14.000Z</time>
        <extensions>
          <gpxtpx:TrackPointExtension>
            <gpxtpx:speed>1.708</gpxtpx:speed>
          </gpxtpx:TrackPointExtension>
        </extensions>
      </trkpt>
      <trkpt lat="54.77274698205292" lon="12.267570085823536">
        <time>2026-09-06T15:25:51.000Z</time>
        <extensions>
          <gpxtpx:TrackPointExtension>
            <gpxtpx:speed>2.006</gpxtpx:speed>
          </gpxtpx:TrackPointExtension>
        </extensions>
      </trkpt>
      <trkpt lat="54.77208120748401" lon="12.26664966903627">
        <time>2026-09-06T15:26:44.000Z</time>
        <extensions>
          <gpxtpx:TrackPointExtension>
            <gpxtpx:speed>1.689</gpxtpx:speed>
          </gpxtpx:TrackPointExtension>
        </extensions>
      </trkpt>
      <trkpt lat="54.77146237157285" lon="12.26619922555983">
        <time>2026-09-06T15:27:24.000Z</time>
        <extensions>
          <gpxtpx:TrackPointExtension>
            <gpxtpx:speed>2.081</gpxtpx:speed>
          </gpxtpx:TrackPointExtension>
        </extensions>
      </trkpt>
      <trkpt lat="54.76873179897666" lon="12.26260431110859">
        <time>2026-09-06T15:30:40.000Z</time>
        <extensions>
          <gpxtpx:TrackPointExtension>
            <gpxtpx:speed>1.81</gpxtpx:speed>
          </gpxtpx:TrackPointExtension>
        </extensions>
      </trkpt>
      <trkpt lat="54.765524631366134" lon="12.258962541818619">
        <time>2026-09-06T15:34:28.000Z</time>
        <extensions>
          <gpxtpx:TrackPointExtension>
            <gpxtpx:speed>2.109</gpxtpx:speed>
          </gpxtpx:TrackPointExtension>
        </extensions>
      </trkpt>
      <trkpt lat="54.762875363230705" lon="12.254991447553039">
        <time>2026-09-06T15:37:55.000Z</time>
        <extensions>
          <gpxtpx:TrackPointExtension>
            <gpxtpx:speed>1.745</gpxtpx:speed>
          </gpxtpx:TrackPointExtension>
        </extensions>
      </trkpt>
      <trkpt lat="54.759676745161414" lon="12.250716425478458">
        <time>2026-09-06T15:41:41.000Z</time>
        <extensions>
          <gpxtpx:TrackPointExtension>
            <gpxtpx:speed>2.202</gpxtpx:speed>
          </gpxtpx:TrackPointExtension>
        </extensions>
      </trkpt>
      <trkpt lat="54.75754966959357" lon="12.247415632009506">
        <time>2026-09-06T15:44:10.000Z</time>
        <extensions>
          <gpxtpx:TrackPointExtension>
            <gpxtpx:speed>1.903</gpxtpx:speed>
          </gpxtpx:TrackPointExtension>
        </extensions>
      </trkpt>
      <trkpt lat="54.754150891676545" lon="12.243269020691514">
        <time>2026-09-06T15:47:45.000Z</time>
        <extensions>
          <gpxtpx:TrackPointExtension>
            <gpxtpx:speed>2.146</gpxtpx:speed>
          </gpxtpx:TrackPointExtension>
        </extensions>
      </trkpt>
      <trkpt lat="54.75150774233043" lon="12.241254765540361">
        <time>2026-09-06T15:50:30.000Z</time>
        <extensions>
          <gpxtpx:TrackPointExtension>
            <gpxtpx:speed>1.903</gpxtpx:speed>
          </gpxtpx:TrackPointExtension>
        </extensions>
      </trkpt>
      <trkpt lat="54.74975382909179" lon="12.240131003782153">
        <time>2026-09-06T15:52:34.000Z</time>
        <extensions>
          <gpxtpx:TrackPointExtension>
            <gpxtpx:speed>1.502</gpxtpx:speed>
          </gpxtpx:TrackPointExtension>
        </extensions>
      </trkpt>
      <trkpt lat="54.74866082891822" lon="12.239004727452993">
        <time>2026-09-06T15:54:19.000Z</time>
        <extensions>
          <gpxtpx:TrackPointExtension>
            <gpxtpx:speed>1.614</gpxtpx:speed>
          </gpxtpx:TrackPointExtension>
        </extensions>
      </trkpt>
      <trkpt lat="54.74688679911196" lon="12.236740943044424">
        <time>2026-09-06T15:56:31.000Z</time>
        <extensions>
          <gpxtpx:TrackPointExtension>
            <gpxtpx:speed>2.006</gpxtpx:speed>
          </gpxtpx:TrackPointExtension>
        </extensions>
      </trkpt>
      <trkpt lat="54.740421334281564" lon="12.23189888522029">
        <time>2026-09-06T16:02:56.000Z</time>
        <extensions>
          <gpxtpx:TrackPointExtension>
            <gpxtpx:speed>1.894</gpxtpx:speed>
          </gpxtpx:TrackPointExtension>
        </extensions>
      </trkpt>
      <trkpt lat="54.73679373040795" lon="12.228270275518298">
        <time>2026-09-06T16:07:03.000Z</time>
        <extensions>
          <gpxtpx:TrackPointExtension>
            <gpxtpx:speed>1.885</gpxtpx:speed>
          </gpxtpx:TrackPointExtension>
        </extensions>
      </trkpt>
      <trkpt lat="54.73451854661107" lon="12.226316956803203">
        <time>2026-09-06T16:09:39.000Z</time>
        <extensions>
          <gpxtpx:TrackPointExtension>
            <gpxtpx:speed>1.885</gpxtpx:speed>
          </gpxtpx:TrackPointExtension>
        </extensions>
      </trkpt>
      <trkpt lat="54.733449602499604" lon="12.225082134827971">
        <time>2026-09-06T16:10:57.000Z</time>
        <extensions>
          <gpxtpx:TrackPointExtension>
            <gpxtpx:speed>1.829</gpxtpx:speed>
          </gpxtpx:TrackPointExtension>
        </extensions>
      </trkpt>
      <trkpt lat="54.731563590466976" lon="12.223500637337565">
        <time>2026-09-06T16:12:56.000Z</time>
        <extensions>
          <gpxtpx:TrackPointExtension>
            <gpxtpx:speed>2.081</gpxtpx:speed>
          </gpxtpx:TrackPointExtension>
        </extensions>
      </trkpt>
      <trkpt lat="54.72853973507881" lon="12.219460308551788">
        <time>2026-09-06T16:16:46.000Z</time>
        <extensions>
          <gpxtpx:TrackPointExtension>
            <gpxtpx:speed>1.502</gpxtpx:speed>
          </gpxtpx:TrackPointExtension>
        </extensions>
      </trkpt>
      <trkpt lat="54.72551940008998" lon="12.21575072966516">
        <time>2026-09-06T16:20:58.000Z</time>
        <extensions>
          <gpxtpx:TrackPointExtension>
            <gpxtpx:speed>1.493</gpxtpx:speed>
          </gpxtpx:TrackPointExtension>
        </extensions>
      </trkpt>
      <trkpt lat="54.72509829327464" lon="12.214906755834818">
        <time>2026-09-06T16:21:46.000Z</time>
        <extensions>
          <gpxtpx:TrackPointExtension>
            <gpxtpx:speed>1.278</gpxtpx:speed>
          </gpxtpx:TrackPointExtension>
        </extensions>
      </trkpt>
      <trkpt lat="54.7222787886858" lon="12.211298011243343">
        <time>2026-09-06T16:25:21.000Z</time>
        <extensions>
          <gpxtpx:TrackPointExtension>
            <gpxtpx:speed>1.978</gpxtpx:speed>
          </gpxtpx:TrackPointExtension>
        </extensions>
      </trkpt>
      <trkpt lat="54.71894253976643" lon="12.206259900704026">
        <time>2026-09-06T16:29:33.000Z</time>
        <extensions>
          <gpxtpx:TrackPointExtension>
            <gpxtpx:speed>1.745</gpxtpx:speed>
          </gpxtpx:TrackPointExtension>
        </extensions>
      </trkpt>
      <trkpt lat="54.71717965789139" lon="12.204790888354182">
        <time>2026-09-06T16:31:25.000Z</time>
        <extensions>
          <gpxtpx:TrackPointExtension>
            <gpxtpx:speed>2.034</gpxtpx:speed>
          </gpxtpx:TrackPointExtension>
        </extensions>
      </trkpt>
      <trkpt lat="54.70613499172032" lon="12.197349602356553">
        <time>2026-09-06T16:41:19.000Z</time>
        <extensions>
          <gpxtpx:TrackPointExtension>
            <gpxtpx:speed>1.521</gpxtpx:speed>
          </gpxtpx:TrackPointExtension>
        </extensions>
      </trkpt>
      <trkpt lat="54.70349787734449" lon="12.19561723060906">
        <time>2026-09-06T16:43:57.000Z</time>
        <extensions>
          <gpxtpx:TrackPointExtension>
            <gpxtpx:speed>1.232</gpxtpx:speed>
          </gpxtpx:TrackPointExtension>
        </extensions>
      </trkpt>
      <trkpt lat="54.702188121154904" lon="12.1951247099787">
        <time>2026-09-06T16:45:16.000Z</time>
        <extensions>
          <gpxtpx:TrackPointExtension>
            <gpxtpx:speed>2.053</gpxtpx:speed>
          </gpxtpx:TrackPointExtension>
        </extensions>
      </trkpt>
      <trkpt lat="54.70092563889921" lon="12.194339744746685">
        <time>2026-09-06T16:46:29.000Z</time>
        <extensions>
          <gpxtpx:TrackPointExtension>
            <gpxtpx:speed>2.118</gpxtpx:speed>
          </gpxtpx:TrackPointExtension>
        </extensions>
      </trkpt>
      <trkpt lat="54.698045030236244" lon="12.191760800778866">
        <time>2026-09-06T16:49:26.000Z</time>
        <extensions>
          <gpxtpx:TrackPointExtension>
            <gpxtpx:speed>2.015</gpxtpx:speed>
          </gpxtpx:TrackPointExtension>
        </extensions>
      </trkpt>
      <trkpt lat="54.69781628809869" lon="12.19138520769775">
        <time>2026-09-06T16:49:54.000Z</time>
        <extensions>
          <gpxtpx:TrackPointExtension>
            <gpxtpx:speed>0.784</gpxtpx:speed>
          </gpxtpx:TrackPointExtension>
        </extensions>
      </trkpt>
      <trkpt lat="54.6979349758476" lon="12.191241290420294">
        <time>2026-09-06T16:50:16.000Z</time>
        <extensions>
          <gpxtpx:TrackPointExtension>
            <gpxtpx:speed>1.288</gpxtpx:speed>
          </gpxtpx:TrackPointExtension>
        </extensions>
      </trkpt>
      <trkpt lat="54.698073361068964" lon="12.191634820774198">
        <time>2026-09-06T16:50:35.000Z</time>
        <extensions>
          <gpxtpx:TrackPointExtension>
            <gpxtpx:speed>2.127</gpxtpx:speed>
          </gpxtpx:TrackPointExtension>
        </extensions>
      </trkpt>
      <trkpt lat="54.69786347821355" lon="12.192018125206232">
        <time>2026-09-06T16:50:51.000Z</time>
        <extensions>
          <gpxtpx:TrackPointExtension>
            <gpxtpx:speed>2.109</gpxtpx:speed>
          </gpxtpx:TrackPointExtension>
        </extensions>
      </trkpt>
      <trkpt lat="54.69659881666303" lon="12.192180398851633">
        <time>2026-09-06T16:51:54.000Z</time>
        <extensions>
          <gpxtpx:TrackPointExtension>
            <gpxtpx:speed>2.519</gpxtpx:speed>
          </gpxtpx:TrackPointExtension>
        </extensions>
      </trkpt>
      <trkpt lat="54.69624132849276" lon="12.192154163494706">
        <time>2026-09-06T16:52:10.000Z</time>
        <extensions>
          <gpxtpx:TrackPointExtension>
            <gpxtpx:speed>2.519</gpxtpx:speed>
          </gpxtpx:TrackPointExtension>
        </extensions>
      </trkpt>
      <trkpt lat="54.694800060242414" lon="12.191474726423621">
        <time>2026-09-06T16:53:27.000Z</time>
        <extensions>
          <gpxtpx:TrackPointExtension>
            <gpxtpx:speed>2.473</gpxtpx:speed>
          </gpxtpx:TrackPointExtension>
        </extensions>
      </trkpt>
      <trkpt lat="54.692687317728996" lon="12.189721232280135">
        <time>2026-09-06T16:55:17.000Z</time>
        <extensions>
          <gpxtpx:TrackPointExtension>
            <gpxtpx:speed>2.305</gpxtpx:speed>
          </gpxtpx:TrackPointExtension>
        </extensions>
      </trkpt>
      <trkpt lat="54.68939993530512" lon="12.187456358224154">
        <time>2026-09-06T16:58:13.000Z</time>
        <extensions>
          <gpxtpx:TrackPointExtension>
            <gpxtpx:speed>2.23</gpxtpx:speed>
          </gpxtpx:TrackPointExtension>
        </extensions>
      </trkpt>
      <trkpt lat="54.68317679129541" lon="12.184086916968226">
        <time>2026-09-06T17:03:24.000Z</time>
        <extensions>
          <gpxtpx:TrackPointExtension>
            <gpxtpx:speed>2.165</gpxtpx:speed>
          </gpxtpx:TrackPointExtension>
        </extensions>
      </trkpt>
      <trkpt lat="54.68085735104978" lon="12.183075053617358">
        <time>2026-09-06T17:05:17.000Z</time>
        <extensions>
          <gpxtpx:TrackPointExtension>
            <gpxtpx:speed>2.267</gpxtpx:speed>
          </gpxtpx:TrackPointExtension>
        </extensions>
      </trkpt>
      <trkpt lat="54.67713821679354" lon="12.180584706366062">
        <time>2026-09-06T17:08:39.000Z</time>
        <extensions>
          <gpxtpx:TrackPointExtension>
            <gpxtpx:speed>2.062</gpxtpx:speed>
          </gpxtpx:TrackPointExtension>
        </extensions>
      </trkpt>
      <trkpt lat="54.67465960420668" lon="12.17836626805365">
        <time>2026-09-06T17:11:04.000Z</time>
        <extensions>
          <gpxtpx:TrackPointExtension>
            <gpxtpx:speed>1.791</gpxtpx:speed>
          </gpxtpx:TrackPointExtension>
        </extensions>
      </trkpt>
      <trkpt lat="54.67359594069421" lon="12.177710384130478">
        <time>2026-09-06T17:11:59.000Z</time>
        <extensions>
          <gpxtpx:TrackPointExtension>
            <gpxtpx:speed>2.314</gpxtpx:speed>
          </gpxtpx:TrackPointExtension>
        </extensions>
      </trkpt>
      <trkpt lat="54.66883594170213" lon="12.173504428938031">
        <time>2026-09-06T17:16:16.000Z</time>
        <extensions>
          <gpxtpx:TrackPointExtension>
            <gpxtpx:speed>2.183</gpxtpx:speed>
          </gpxtpx:TrackPointExtension>
        </extensions>
      </trkpt>
      <trkpt lat="54.665282517671585" lon="12.170835547149181">
        <time>2026-09-06T17:19:20.000Z</time>
        <extensions>
          <gpxtpx:TrackPointExtension>
            <gpxtpx:speed>2.529</gpxtpx:speed>
          </gpxtpx:TrackPointExtension>
        </extensions>
      </trkpt>
      <trkpt lat="54.659884655848145" lon="12.16567506082356">
        <time>2026-09-06T17:24:07.000Z</time>
        <extensions>
          <gpxtpx:TrackPointExtension>
            <gpxtpx:speed>1.885</gpxtpx:speed>
          </gpxtpx:TrackPointExtension>
        </extensions>
      </trkpt>
      <trkpt lat="54.65736840851605" lon="12.163510099053383">
        <time>2026-09-06T17:26:20.000Z</time>
        <extensions>
          <gpxtpx:TrackPointExtension>
            <gpxtpx:speed>1.67</gpxtpx:speed>
          </gpxtpx:TrackPointExtension>
        </extensions>
      </trkpt>
      <trkpt lat="54.656300973147154" lon="12.163154790177941">
        <time>2026-09-06T17:27:22.000Z</time>
        <extensions>
          <gpxtpx:TrackPointExtension>
            <gpxtpx:speed>2.202</gpxtpx:speed>
          </gpxtpx:TrackPointExtension>
        </extensions>
      </trkpt>
      <trkpt lat="54.65532054193318" lon="12.162502259016037">
        <time>2026-09-06T17:28:24.000Z</time>
        <extensions>
          <gpxtpx:TrackPointExtension>
            <gpxtpx:speed>1.875</gpxtpx:speed>
          </gpxtpx:TrackPointExtension>
        </extensions>
      </trkpt>
      <trkpt lat="54.654802456498146" lon="12.162499744445086">
        <time>2026-09-06T17:28:56.000Z</time>
        <extensions>
          <gpxtpx:TrackPointExtension>
            <gpxtpx:speed>2.006</gpxtpx:speed>
          </gpxtpx:TrackPointExtension>
        </extensions>
      </trkpt>
      <trkpt lat="54.653859408572316" lon="12.162199337035418">
        <time>2026-09-06T17:29:56.000Z</time>
        <extensions>
          <gpxtpx:TrackPointExtension>
            <gpxtpx:speed>1.53</gpxtpx:speed>
          </gpxtpx:TrackPointExtension>
        </extensions>
      </trkpt>
      <trkpt lat="54.65310285799205" lon="12.162365717813373">
        <time>2026-09-06T17:30:43.000Z</time>
        <extensions>
          <gpxtpx:TrackPointExtension>
            <gpxtpx:speed>2.519</gpxtpx:speed>
          </gpxtpx:TrackPointExtension>
        </extensions>
      </trkpt>
      <trkpt lat="54.65280613861978" lon="12.162252310663462">
        <time>2026-09-06T17:30:56.000Z</time>
        <extensions>
          <gpxtpx:TrackPointExtension>
            <gpxtpx:speed>2.678</gpxtpx:speed>
          </gpxtpx:TrackPointExtension>
        </extensions>
      </trkpt>
      <trkpt lat="54.6513581648469" lon="12.160589341074228">
        <time>2026-09-06T17:32:26.000Z</time>
        <extensions>
          <gpxtpx:TrackPointExtension>
            <gpxtpx:speed>2.155</gpxtpx:speed>
          </gpxtpx:TrackPointExtension>
        </extensions>
      </trkpt>
      <trkpt lat="54.649874567985535" lon="12.159238681197166">
        <time>2026-09-06T17:34:06.000Z</time>
        <extensions>
          <gpxtpx:TrackPointExtension>
            <gpxtpx:speed>1.978</gpxtpx:speed>
          </gpxtpx:TrackPointExtension>
        </extensions>
      </trkpt>
      <trkpt lat="54.646447794511914" lon="12.156896023079753">
        <time>2026-09-06T17:36:55.000Z</time>
        <extensions>
          <gpxtpx:TrackPointExtension>
            <gpxtpx:speed>2.538</gpxtpx:speed>
          </gpxtpx:TrackPointExtension>
        </extensions>
      </trkpt>
      <trkpt lat="54.64406741783023" lon="12.155056865885854">
        <time>2026-09-06T17:38:51.000Z</time>
        <extensions>
          <gpxtpx:TrackPointExtension>
            <gpxtpx:speed>2.687</gpxtpx:speed>
          </gpxtpx:TrackPointExtension>
        </extensions>
      </trkpt>
      <trkpt lat="54.64173087850213" lon="12.153650466352701">
        <time>2026-09-06T17:40:37.000Z</time>
        <extensions>
          <gpxtpx:TrackPointExtension>
            <gpxtpx:speed>2.65</gpxtpx:speed>
          </gpxtpx:TrackPointExtension>
        </extensions>
      </trkpt>
      <trkpt lat="54.637251840904355" lon="12.15055687353015">
        <time>2026-09-06T17:44:12.000Z</time>
        <extensions>
          <gpxtpx:TrackPointExtension>
            <gpxtpx:speed>2.519</gpxtpx:speed>
          </gpxtpx:TrackPointExtension>
        </extensions>
      </trkpt>
      <trkpt lat="54.63467314839363" lon="12.148006344214082">
        <time>2026-09-06T17:46:51.000Z</time>
        <extensions>
          <gpxtpx:TrackPointExtension>
            <gpxtpx:speed>2.09</gpxtpx:speed>
          </gpxtpx:TrackPointExtension>
        </extensions>
      </trkpt>
      <trkpt lat="54.63237550109625" lon="12.146025700494647">
        <time>2026-09-06T17:49:01.000Z</time>
        <extensions>
          <gpxtpx:TrackPointExtension>
            <gpxtpx:speed>1.698</gpxtpx:speed>
          </gpxtpx:TrackPointExtension>
        </extensions>
      </trkpt>
      <trkpt lat="54.63145634159446" lon="12.145431004464626">
        <time>2026-09-06T17:49:52.000Z</time>
        <extensions>
          <gpxtpx:TrackPointExtension>
            <gpxtpx:speed>2.211</gpxtpx:speed>
          </gpxtpx:TrackPointExtension>
        </extensions>
      </trkpt>
      <trkpt lat="54.62970033288002" lon="12.143847327679396">
        <time>2026-09-06T17:51:31.000Z</time>
        <extensions>
          <gpxtpx:TrackPointExtension>
            <gpxtpx:speed>2.221</gpxtpx:speed>
          </gpxtpx:TrackPointExtension>
        </extensions>
      </trkpt>
      <trkpt lat="54.62842368520796" lon="12.143094129860401">
        <time>2026-09-06T17:52:38.000Z</time>
        <extensions>
          <gpxtpx:TrackPointExtension>
            <gpxtpx:speed>2.267</gpxtpx:speed>
          </gpxtpx:TrackPointExtension>
        </extensions>
      </trkpt>
      <trkpt lat="54.627460185438395" lon="12.14173131622374">
        <time>2026-09-06T17:54:06.000Z</time>
        <extensions>
          <gpxtpx:TrackPointExtension>
            <gpxtpx:speed>1.4</gpxtpx:speed>
          </gpxtpx:TrackPointExtension>
        </extensions>
      </trkpt>
      <trkpt lat="54.62665535509586" lon="12.140932688489556">
        <time>2026-09-06T17:55:15.000Z</time>
        <extensions>
          <gpxtpx:TrackPointExtension>
            <gpxtpx:speed>1.764</gpxtpx:speed>
          </gpxtpx:TrackPointExtension>
        </extensions>
      </trkpt>
      <trkpt lat="54.623514069244266" lon="12.134649530053139">
        <time>2026-09-06T18:00:14.000Z</time>
        <extensions>
          <gpxtpx:TrackPointExtension>
            <gpxtpx:speed>1.745</gpxtpx:speed>
          </gpxtpx:TrackPointExtension>
        </extensions>
      </trkpt>
      <trkpt lat="54.61846782825887" lon="12.125951126217842">
        <time>2026-09-06T18:06:54.000Z</time>
        <extensions>
          <gpxtpx:TrackPointExtension>
            <gpxtpx:speed>1.819</gpxtpx:speed>
          </gpxtpx:TrackPointExtension>
        </extensions>
      </trkpt>
      <trkpt lat="54.615139374509454" lon="12.116876794025302">
        <time>2026-09-06T18:12:43.000Z</time>
        <extensions>
          <gpxtpx:TrackPointExtension>
            <gpxtpx:speed>2.025</gpxtpx:speed>
          </gpxtpx:TrackPointExtension>
        </extensions>
      </trkpt>
      <trkpt lat="54.61091732606292" lon="12.107911091297865">
        <time>2026-09-06T18:18:29.000Z</time>
        <extensions>
          <gpxtpx:TrackPointExtension>
            <gpxtpx:speed>2.137</gpxtpx:speed>
          </gpxtpx:TrackPointExtension>
        </extensions>
      </trkpt>
      <trkpt lat="54.60866988636553" lon="12.103565828874707">
        <time>2026-09-06T18:21:24.000Z</time>
        <extensions>
          <gpxtpx:TrackPointExtension>
            <gpxtpx:speed>2.099</gpxtpx:speed>
          </gpxtpx:TrackPointExtension>
        </extensions>
      </trkpt>
      <trkpt lat="54.6054338850081" lon="12.09600887261331">
        <time>2026-09-06T18:26:00.000Z</time>
        <extensions>
          <gpxtpx:TrackPointExtension>
            <gpxtpx:speed>2.193</gpxtpx:speed>
          </gpxtpx:TrackPointExtension>
        </extensions>
      </trkpt>
      <trkpt lat="54.602091098204255" lon="12.092056553810835">
        <time>2026-09-06T18:29:17.000Z</time>
        <extensions>
          <gpxtpx:TrackPointExtension>
            <gpxtpx:speed>2.127</gpxtpx:speed>
          </gpxtpx:TrackPointExtension>
        </extensions>
      </trkpt>
      <trkpt lat="54.59859626367688" lon="12.085549933835864">
        <time>2026-09-06T18:33:28.000Z</time>
        <extensions>
          <gpxtpx:TrackPointExtension>
            <gpxtpx:speed>2.342</gpxtpx:speed>
          </gpxtpx:TrackPointExtension>
        </extensions>
      </trkpt>
      <trkpt lat="54.59320795722306" lon="12.077186638489366">
        <time>2026-09-06T18:39:19.000Z</time>
        <extensions>
          <gpxtpx:TrackPointExtension>
            <gpxtpx:speed>2.305</gpxtpx:speed>
          </gpxtpx:TrackPointExtension>
        </extensions>
      </trkpt>
      <trkpt lat="54.59058718755841" lon="12.07219798117876">
        <time>2026-09-06T18:42:28.000Z</time>
        <extensions>
          <gpxtpx:TrackPointExtension>
            <gpxtpx:speed>2.305</gpxtpx:speed>
          </gpxtpx:TrackPointExtension>
        </extensions>
      </trkpt>
      <trkpt lat="54.584401762112975" lon="12.059381799772382">
        <time>2026-09-06T18:50:14.000Z</time>
        <extensions>
          <gpxtpx:TrackPointExtension>
            <gpxtpx:speed>2.398</gpxtpx:speed>
          </gpxtpx:TrackPointExtension>
        </extensions>
      </trkpt>
      <trkpt lat="54.579009180888534" lon="12.050193641334772">
        <time>2026-09-06T18:56:13.000Z</time>
        <extensions>
          <gpxtpx:TrackPointExtension>
            <gpxtpx:speed>2.389</gpxtpx:speed>
          </gpxtpx:TrackPointExtension>
        </extensions>
      </trkpt>
      <trkpt lat="54.5735161844641" lon="12.038684450089931">
        <time>2026-09-06T19:02:55.000Z</time>
        <extensions>
          <gpxtpx:TrackPointExtension>
            <gpxtpx:speed>2.426</gpxtpx:speed>
          </gpxtpx:TrackPointExtension>
        </extensions>
      </trkpt>
      <trkpt lat="54.5718012470752" lon="12.036095028743148">
        <time>2026-09-06T19:04:40.000Z</time>
        <extensions>
          <gpxtpx:TrackPointExtension>
            <gpxtpx:speed>2.398</gpxtpx:speed>
          </gpxtpx:TrackPointExtension>
        </extensions>
      </trkpt>
      <trkpt lat="54.56916161812842" lon="12.032803120091558">
        <time>2026-09-06T19:07:08.000Z</time>
        <extensions>
          <gpxtpx:TrackPointExtension>
            <gpxtpx:speed>2.37</gpxtpx:speed>
          </gpxtpx:TrackPointExtension>
        </extensions>
      </trkpt>
      <trkpt lat="54.56511399708688" lon="12.026546197012067">
        <time>2026-09-06T19:11:21.000Z</time>
        <extensions>
          <gpxtpx:TrackPointExtension>
            <gpxtpx:speed>2.417</gpxtpx:speed>
          </gpxtpx:TrackPointExtension>
        </extensions>
      </trkpt>
      <trkpt lat="54.55843965522945" lon="12.017789036035538">
        <time>2026-09-06T19:17:59.000Z</time>
        <extensions>
          <gpxtpx:TrackPointExtension>
            <gpxtpx:speed>2.407</gpxtpx:speed>
          </gpxtpx:TrackPointExtension>
        </extensions>
      </trkpt>
      <trkpt lat="54.55505143851042" lon="12.011794969439507">
        <time>2026-09-06T19:21:47.000Z</time>
        <extensions>
          <gpxtpx:TrackPointExtension>
            <gpxtpx:speed>2.379</gpxtpx:speed>
          </gpxtpx:TrackPointExtension>
        </extensions>
      </trkpt>
      <trkpt lat="54.5519645512104" lon="12.007545093074441">
        <time>2026-09-06T19:24:53.000Z</time>
        <extensions>
          <gpxtpx:TrackPointExtension>
            <gpxtpx:speed>2.342</gpxtpx:speed>
          </gpxtpx:TrackPointExtension>
        </extensions>
      </trkpt>
      <trkpt lat="54.54742742702365" lon="11.998945428058505">
        <time>2026-09-06T19:30:16.000Z</time>
        <extensions>
          <gpxtpx:TrackPointExtension>
            <gpxtpx:speed>2.351</gpxtpx:speed>
          </gpxtpx:TrackPointExtension>
        </extensions>
      </trkpt>
      <trkpt lat="54.5463611651212" lon="11.998298177495599">
        <time>2026-09-06T19:31:09.000Z</time>
        <extensions>
          <gpxtpx:TrackPointExtension>
            <gpxtpx:speed>2.342</gpxtpx:speed>
          </gpxtpx:TrackPointExtension>
        </extensions>
      </trkpt>
      <trkpt lat="54.54482534900308" lon="11.99795569293201">
        <time>2026-09-06T19:32:20.000Z</time>
        <extensions>
          <gpxtpx:TrackPointExtension>
            <gpxtpx:speed>2.435</gpxtpx:speed>
          </gpxtpx:TrackPointExtension>
        </extensions>
      </trkpt>
      <trkpt lat="54.54430508427322" lon="11.997300731018186">
        <time>2026-09-06T19:32:51.000Z</time>
        <extensions>
          <gpxtpx:TrackPointExtension>
            <gpxtpx:speed>2.323</gpxtpx:speed>
          </gpxtpx:TrackPointExtension>
        </extensions>
      </trkpt>
      <trkpt lat="54.544221349060535" lon="11.996972328051925">
        <time>2026-09-06T19:33:02.000Z</time>
        <extensions>
          <gpxtpx:TrackPointExtension>
            <gpxtpx:speed>2.071</gpxtpx:speed>
          </gpxtpx:TrackPointExtension>
        </extensions>
      </trkpt>
      <trkpt lat="54.54500891268253" lon="11.989476392045617">
        <time>2026-09-06T19:36:42.000Z</time>
        <extensions>
          <gpxtpx:TrackPointExtension>
            <gpxtpx:speed>2.239</gpxtpx:speed>
          </gpxtpx:TrackPointExtension>
        </extensions>
      </trkpt>
      <trkpt lat="54.545247880741954" lon="11.988521022722125">
        <time>2026-09-06T19:37:12.000Z</time>
        <extensions>
          <gpxtpx:TrackPointExtension>
            <gpxtpx:speed>2.155</gpxtpx:speed>
          </gpxtpx:TrackPointExtension>
        </extensions>
      </trkpt>
      <trkpt lat="54.547072453424335" lon="11.985616693273187">
        <time>2026-09-06T19:39:16.000Z</time>
        <extensions>
          <gpxtpx:TrackPointExtension>
            <gpxtpx:speed>2.277</gpxtpx:speed>
          </gpxtpx:TrackPointExtension>
        </extensions>
      </trkpt>
      <trkpt lat="54.54816319048405" lon="11.982259321957827">
        <time>2026-09-06T19:41:06.000Z</time>
        <extensions>
          <gpxtpx:TrackPointExtension>
            <gpxtpx:speed>2.286</gpxtpx:speed>
          </gpxtpx:TrackPointExtension>
        </extensions>
      </trkpt>
      <trkpt lat="54.55194493755698" lon="11.972721889615059">
        <time>2026-09-06T19:46:30.000Z</time>
        <extensions>
          <gpxtpx:TrackPointExtension>
            <gpxtpx:speed>2.379</gpxtpx:speed>
          </gpxtpx:TrackPointExtension>
        </extensions>
      </trkpt>
      <trkpt lat="54.55749778077006" lon="11.963542615994811">
        <time>2026-09-06T19:52:46.000Z</time>
        <extensions>
          <gpxtpx:TrackPointExtension>
            <gpxtpx:speed>2.342</gpxtpx:speed>
          </gpxtpx:TrackPointExtension>
        </extensions>
      </trkpt>
      <trkpt lat="54.55799365416169" lon="11.960676088929176">
        <time>2026-09-06T19:54:16.000Z</time>
        <extensions>
          <gpxtpx:TrackPointExtension>
            <gpxtpx:speed>2.081</gpxtpx:speed>
          </gpxtpx:TrackPointExtension>
        </extensions>
      </trkpt>
      <trkpt lat="54.55872120335698" lon="11.958025312051177">
        <time>2026-09-06T19:55:44.000Z</time>
        <extensions>
          <gpxtpx:TrackPointExtension>
            <gpxtpx:speed>2.183</gpxtpx:speed>
          </gpxtpx:TrackPointExtension>
        </extensions>
      </trkpt>
      <trkpt lat="54.56024712882936" lon="11.954385470598936">
        <time>2026-09-06T19:57:56.000Z</time>
        <extensions>
          <gpxtpx:TrackPointExtension>
            <gpxtpx:speed>2.267</gpxtpx:speed>
          </gpxtpx:TrackPointExtension>
        </extensions>
      </trkpt>
      <trkpt lat="54.56458568572998" lon="11.941333170980215">
        <time>2026-09-06T20:05:16.000Z</time>
        <extensions>
          <gpxtpx:TrackPointExtension>
            <gpxtpx:speed>1.568</gpxtpx:speed>
          </gpxtpx:TrackPointExtension>
        </extensions>
      </trkpt>
      <trkpt lat="54.56581220962107" lon="11.93826388567686">
        <time>2026-09-06T20:12:11.000Z</time>
        <extensions>
          <gpxtpx:TrackPointExtension>
            <gpxtpx:speed>0.429</gpxtpx:speed>
          </gpxtpx:TrackPointExtension>
        </extensions>
      </trkpt>
      <trkpt lat="54.5672991592437" lon="11.932427734136581">
        <time>2026-09-06T20:17:21.000Z</time>
        <extensions>
          <gpxtpx:TrackPointExtension>
            <gpxtpx:speed>2.305</gpxtpx:speed>
          </gpxtpx:TrackPointExtension>
        </extensions>
      </trkpt>
      <trkpt lat="54.5692765340209" lon="11.928090350702405">
        <time>2026-09-06T20:20:20.000Z</time>
        <extensions>
          <gpxtpx:TrackPointExtension>
            <gpxtpx:speed>1.745</gpxtpx:speed>
          </gpxtpx:TrackPointExtension>
        </extensions>
      </trkpt>
      <trkpt lat="54.570233412086964" lon="11.925531104207039">
        <time>2026-09-06T20:22:05.000Z</time>
        <extensions>
          <gpxtpx:TrackPointExtension>
            <gpxtpx:speed>1.847</gpxtpx:speed>
          </gpxtpx:TrackPointExtension>
        </extensions>
      </trkpt>
      <trkpt lat="54.57244120538235" lon="11.921619102358818">
        <time>2026-09-06T20:24:56.000Z</time>
        <extensions>
          <gpxtpx:TrackPointExtension>
            <gpxtpx:speed>2.006</gpxtpx:speed>
          </gpxtpx:TrackPointExtension>
        </extensions>
      </trkpt>
      <trkpt lat="54.57353143952787" lon="11.91775412298739">
        <time>2026-09-06T20:27:23.000Z</time>
        <extensions>
          <gpxtpx:TrackPointExtension>
            <gpxtpx:speed>1.791</gpxtpx:speed>
          </gpxtpx:TrackPointExtension>
        </extensions>
      </trkpt>
      <trkpt lat="54.57484387792647" lon="11.915643224492669">
        <time>2026-09-06T20:29:13.000Z</time>
        <extensions>
          <gpxtpx:TrackPointExtension>
            <gpxtpx:speed>1.875</gpxtpx:speed>
          </gpxtpx:TrackPointExtension>
        </extensions>
      </trkpt>
      <trkpt lat="54.57660919055343" lon="11.915089264512062">
        <time>2026-09-06T20:30:57.000Z</time>
        <extensions>
          <gpxtpx:TrackPointExtension>
            <gpxtpx:speed>1.969</gpxtpx:speed>
          </gpxtpx:TrackPointExtension>
        </extensions>
      </trkpt>
      <trkpt lat="54.578058421611786" lon="11.915212562307715">
        <time>2026-09-06T20:32:20.000Z</time>
        <extensions>
          <gpxtpx:TrackPointExtension>
            <gpxtpx:speed>1.941</gpxtpx:speed>
          </gpxtpx:TrackPointExtension>
        </extensions>
      </trkpt>
      <trkpt lat="54.57934286445379" lon="11.915132850408554">
        <time>2026-09-06T20:33:32.000Z</time>
        <extensions>
          <gpxtpx:TrackPointExtension>
            <gpxtpx:speed>1.987</gpxtpx:speed>
          </gpxtpx:TrackPointExtension>
        </extensions>
      </trkpt>
      <trkpt lat="54.579560458660126" lon="11.915318258106709">
        <time>2026-09-06T20:33:47.000Z</time>
        <extensions>
          <gpxtpx:TrackPointExtension>
            <gpxtpx:speed>1.931</gpxtpx:speed>
          </gpxtpx:TrackPointExtension>
        </extensions>
      </trkpt>
      <trkpt lat="54.580255737528205" lon="11.916952896863222">
        <time>2026-09-06T20:34:57.000Z</time>
        <extensions>
          <gpxtpx:TrackPointExtension>
            <gpxtpx:speed>2.155</gpxtpx:speed>
          </gpxtpx:TrackPointExtension>
        </extensions>
      </trkpt>
      <trkpt lat="54.58094531670213" lon="11.91945606842637">
        <time>2026-09-06T20:36:58.000Z</time>
        <extensions>
          <gpxtpx:TrackPointExtension>
            <gpxtpx:speed>0.728</gpxtpx:speed>
          </gpxtpx:TrackPointExtension>
        </extensions>
      </trkpt>
    </trkseg>
  </trk>
</gpx>
