<?xml version="1.0" encoding="UTF-8"?>
<gpx version="1.1" creator="SailTies" xmlns="http://www.topografix.com/GPX/1/1" xmlns:xsi="http://www.w3.org/2001/XMLSchema-instance" xmlns:gpxtpx="http://www.garmin.com/xmlschemas/TrackPointExtension/v2" xsi:schemaLocation="http://www.topografix.com/GPX/1/1 http://www.topografix.com/GPX/1/1/gpx.xsd http://www.garmin.com/xmlschemas/TrackPointExtension/v2 http://www.garmin.com/xmlschemas/TrackPointExtensionv2.xsd">
  <metadata>
    <name>Aurora Delivery. Passage 3</name>
    <desc>Distance: 39.8 NM • Duration: 10h 13m • Avg speed: 3.9 kn • Max speed: 6.2 kn • Vessel: Aurora • Gedser, Denmark to Heiligenhafen, Germany</desc>
    <author><name>SailTies</name><link href="https://sailties.com"><text>SailTies</text></link></author>
    <link href="https://sailties.com"><text>SailTies</text></link>
    <time>2026-09-07T04:31:44.000Z</time>
    <bounds minlat="54.37325198203325" minlon="10.986796086654067" maxlat="54.5809624157846" maxlon="11.928344909101725"/>
  </metadata>
  <trk>
    <name>Aurora Delivery. Passage 3</name>
    <desc>Distance: 39.8 NM • Duration: 10h 13m • Avg speed: 3.9 kn • Max speed: 6.2 kn • Vessel: Aurora • Gedser, Denmark to Heiligenhafen, Germany</desc>
    <type>sailing</type>
    <trkseg>
      <trkpt lat="54.58030737005174" lon="11.921160444617271">
        <time>2026-09-07T04:31:44.000Z</time>
        <extensions>
          <gpxtpx:TrackPointExtension>
            <gpxtpx:speed>1.782</gpxtpx:speed>
          </gpxtpx:TrackPointExtension>
        </extensions>
      </trkpt>
      <trkpt lat="54.58088387735188" lon="11.920170038938522">
        <time>2026-09-07T04:32:28.000Z</time>
        <extensions>
          <gpxtpx:TrackPointExtension>
            <gpxtpx:speed>2.174</gpxtpx:speed>
          </gpxtpx:TrackPointExtension>
        </extensions>
      </trkpt>
      <trkpt lat="54.5809624157846" lon="11.919643739238381">
        <time>2026-09-07T04:32:45.000Z</time>
        <extensions>
          <gpxtpx:TrackPointExtension>
            <gpxtpx:speed>2.099</gpxtpx:speed>
          </gpxtpx:TrackPointExtension>
        </extensions>
      </trkpt>
      <trkpt lat="54.58027107641101" lon="11.917230254039168">
        <time>2026-09-07T04:34:10.000Z</time>
        <extensions>
          <gpxtpx:TrackPointExtension>
            <gpxtpx:speed>2.006</gpxtpx:speed>
          </gpxtpx:TrackPointExtension>
        </extensions>
      </trkpt>
      <trkpt lat="54.57967646420002" lon="11.915869368240237">
        <time>2026-09-07T04:35:07.000Z</time>
        <extensions>
          <gpxtpx:TrackPointExtension>
            <gpxtpx:speed>1.736</gpxtpx:speed>
          </gpxtpx:TrackPointExtension>
        </extensions>
      </trkpt>
      <trkpt lat="54.57732408307493" lon="11.915181130170822">
        <time>2026-09-07T04:37:49.000Z</time>
        <extensions>
          <gpxtpx:TrackPointExtension>
            <gpxtpx:speed>1.493</gpxtpx:speed>
          </gpxtpx:TrackPointExtension>
        </extensions>
      </trkpt>
      <trkpt lat="54.57571626640856" lon="11.91530761308968">
        <time>2026-09-07T04:39:46.000Z</time>
        <extensions>
          <gpxtpx:TrackPointExtension>
            <gpxtpx:speed>1.549</gpxtpx:speed>
          </gpxtpx:TrackPointExtension>
        </extensions>
      </trkpt>
      <trkpt lat="54.574859384447336" lon="11.915866769850254">
        <time>2026-09-07T04:40:57.000Z</time>
        <extensions>
          <gpxtpx:TrackPointExtension>
            <gpxtpx:speed>1.353</gpxtpx:speed>
          </gpxtpx:TrackPointExtension>
        </extensions>
      </trkpt>
      <trkpt lat="54.57424339838326" lon="11.916664894670248">
        <time>2026-09-07T04:41:59.000Z</time>
        <extensions>
          <gpxtpx:TrackPointExtension>
            <gpxtpx:speed>1.409</gpxtpx:speed>
          </gpxtpx:TrackPointExtension>
        </extensions>
      </trkpt>
      <trkpt lat="54.57255335524678" lon="11.92185035906732">
        <time>2026-09-07T04:46:12.000Z</time>
        <extensions>
          <gpxtpx:TrackPointExtension>
            <gpxtpx:speed>1.4</gpxtpx:speed>
          </gpxtpx:TrackPointExtension>
        </extensions>
      </trkpt>
      <trkpt lat="54.57181046716869" lon="11.923445938155055">
        <time>2026-09-07T04:47:53.000Z</time>
        <extensions>
          <gpxtpx:TrackPointExtension>
            <gpxtpx:speed>1.194</gpxtpx:speed>
          </gpxtpx:TrackPointExtension>
        </extensions>
      </trkpt>
      <trkpt lat="54.57036333158612" lon="11.925253747031093">
        <time>2026-09-07T04:50:46.000Z</time>
        <extensions>
          <gpxtpx:TrackPointExtension>
            <gpxtpx:speed>1.297</gpxtpx:speed>
          </gpxtpx:TrackPointExtension>
        </extensions>
      </trkpt>
      <trkpt lat="54.56899423152208" lon="11.926327301189303">
        <time>2026-09-07T04:52:49.000Z</time>
        <extensions>
          <gpxtpx:TrackPointExtension>
            <gpxtpx:speed>1.325</gpxtpx:speed>
          </gpxtpx:TrackPointExtension>
        </extensions>
      </trkpt>
      <trkpt lat="54.56728180870414" lon="11.927396915853024">
        <time>2026-09-07T04:55:27.000Z</time>
        <extensions>
          <gpxtpx:TrackPointExtension>
            <gpxtpx:speed>1.092</gpxtpx:speed>
          </gpxtpx:TrackPointExtension>
        </extensions>
      </trkpt>
      <trkpt lat="54.566851733252406" lon="11.92746807821095">
        <time>2026-09-07T04:56:06.000Z</time>
        <extensions>
          <gpxtpx:TrackPointExtension>
            <gpxtpx:speed>1.232</gpxtpx:speed>
          </gpxtpx:TrackPointExtension>
        </extensions>
      </trkpt>
      <trkpt lat="54.566071880981326" lon="11.928156651556492">
        <time>2026-09-07T04:57:29.000Z</time>
        <extensions>
          <gpxtpx:TrackPointExtension>
            <gpxtpx:speed>1.166</gpxtpx:speed>
          </gpxtpx:TrackPointExtension>
        </extensions>
      </trkpt>
      <trkpt lat="54.565001260489225" lon="11.928344909101725">
        <time>2026-09-07T04:59:22.000Z</time>
        <extensions>
          <gpxtpx:TrackPointExtension>
            <gpxtpx:speed>1.334</gpxtpx:speed>
          </gpxtpx:TrackPointExtension>
        </extensions>
      </trkpt>
      <trkpt lat="54.564455933868885" lon="11.927858842536807">
        <time>2026-09-07T05:00:16.000Z</time>
        <extensions>
          <gpxtpx:TrackPointExtension>
            <gpxtpx:speed>1.913</gpxtpx:speed>
          </gpxtpx:TrackPointExtension>
        </extensions>
      </trkpt>
      <trkpt lat="54.563765935599804" lon="11.926375664770603">
        <time>2026-09-07T05:01:10.000Z</time>
        <extensions>
          <gpxtpx:TrackPointExtension>
            <gpxtpx:speed>2.165</gpxtpx:speed>
          </gpxtpx:TrackPointExtension>
        </extensions>
      </trkpt>
      <trkpt lat="54.563250029459596" lon="11.925718858838081">
        <time>2026-09-07T05:02:01.000Z</time>
        <extensions>
          <gpxtpx:TrackPointExtension>
            <gpxtpx:speed>1.157</gpxtpx:speed>
          </gpxtpx:TrackPointExtension>
        </extensions>
      </trkpt>
      <trkpt lat="54.56262197345495" lon="11.924217911437154">
        <time>2026-09-07T05:03:11.000Z</time>
        <extensions>
          <gpxtpx:TrackPointExtension>
            <gpxtpx:speed>1.25</gpxtpx:speed>
          </gpxtpx:TrackPointExtension>
        </extensions>
      </trkpt>
      <trkpt lat="54.56239624880254" lon="11.924193939194083">
        <time>2026-09-07T05:03:51.000Z</time>
        <extensions>
          <gpxtpx:TrackPointExtension>
            <gpxtpx:speed>0.495</gpxtpx:speed>
          </gpxtpx:TrackPointExtension>
        </extensions>
      </trkpt>
      <trkpt lat="54.56250915303826" lon="11.924949064850807">
        <time>2026-09-07T05:04:38.000Z</time>
        <extensions>
          <gpxtpx:TrackPointExtension>
            <gpxtpx:speed>1.213</gpxtpx:speed>
          </gpxtpx:TrackPointExtension>
        </extensions>
      </trkpt>
      <trkpt lat="54.56225786358118" lon="11.925207311287522">
        <time>2026-09-07T05:05:26.000Z</time>
        <extensions>
          <gpxtpx:TrackPointExtension>
            <gpxtpx:speed>0.579</gpxtpx:speed>
          </gpxtpx:TrackPointExtension>
        </extensions>
      </trkpt>
      <trkpt lat="54.561883360147476" lon="11.924863401800394">
        <time>2026-09-07T05:06:36.000Z</time>
        <extensions>
          <gpxtpx:TrackPointExtension>
            <gpxtpx:speed>1.026</gpxtpx:speed>
          </gpxtpx:TrackPointExtension>
        </extensions>
      </trkpt>
      <trkpt lat="54.560108073055744" lon="11.921944655478">
        <time>2026-09-07T05:10:18.000Z</time>
        <extensions>
          <gpxtpx:TrackPointExtension>
            <gpxtpx:speed>0.989</gpxtpx:speed>
          </gpxtpx:TrackPointExtension>
        </extensions>
      </trkpt>
      <trkpt lat="54.557582437992096" lon="11.918433727696538">
        <time>2026-09-07T05:14:50.000Z</time>
        <extensions>
          <gpxtpx:TrackPointExtension>
            <gpxtpx:speed>1.428</gpxtpx:speed>
          </gpxtpx:TrackPointExtension>
        </extensions>
      </trkpt>
      <trkpt lat="54.55712193623185" lon="11.917518256232142">
        <time>2026-09-07T05:15:32.000Z</time>
        <extensions>
          <gpxtpx:TrackPointExtension>
            <gpxtpx:speed>1.754</gpxtpx:speed>
          </gpxtpx:TrackPointExtension>
        </extensions>
      </trkpt>
      <trkpt lat="54.55437669530511" lon="11.909316396340728">
        <time>2026-09-07T05:20:42.000Z</time>
        <extensions>
          <gpxtpx:TrackPointExtension>
            <gpxtpx:speed>1.866</gpxtpx:speed>
          </gpxtpx:TrackPointExtension>
        </extensions>
      </trkpt>
      <trkpt lat="54.55094204284251" lon="11.897847270593047">
        <time>2026-09-07T05:26:54.000Z</time>
        <extensions>
          <gpxtpx:TrackPointExtension>
            <gpxtpx:speed>2.389</gpxtpx:speed>
          </gpxtpx:TrackPointExtension>
        </extensions>
      </trkpt>
      <trkpt lat="54.546346832066774" lon="11.880899565294385">
        <time>2026-09-07T05:35:10.000Z</time>
        <extensions>
          <gpxtpx:TrackPointExtension>
            <gpxtpx:speed>1.913</gpxtpx:speed>
          </gpxtpx:TrackPointExtension>
        </extensions>
      </trkpt>
      <trkpt lat="54.542892733588815" lon="11.867060037329793">
        <time>2026-09-07T05:43:23.000Z</time>
        <extensions>
          <gpxtpx:TrackPointExtension>
            <gpxtpx:speed>1.81</gpxtpx:speed>
          </gpxtpx:TrackPointExtension>
        </extensions>
      </trkpt>
      <trkpt lat="54.54030524007976" lon="11.85901609249413">
        <time>2026-09-07T05:49:02.000Z</time>
        <extensions>
          <gpxtpx:TrackPointExtension>
            <gpxtpx:speed>1.381</gpxtpx:speed>
          </gpxtpx:TrackPointExtension>
        </extensions>
      </trkpt>
      <trkpt lat="54.53801010735333" lon="11.849921643733978">
        <time>2026-09-07T05:54:54.000Z</time>
        <extensions>
          <gpxtpx:TrackPointExtension>
            <gpxtpx:speed>1.689</gpxtpx:speed>
          </gpxtpx:TrackPointExtension>
        </extensions>
      </trkpt>
      <trkpt lat="54.537476850673556" lon="11.84650618582964">
        <time>2026-09-07T05:57:03.000Z</time>
        <extensions>
          <gpxtpx:TrackPointExtension>
            <gpxtpx:speed>2.146</gpxtpx:speed>
          </gpxtpx:TrackPointExtension>
        </extensions>
      </trkpt>
      <trkpt lat="54.53572436235845" lon="11.838282700628042">
        <time>2026-09-07T06:02:01.000Z</time>
        <extensions>
          <gpxtpx:TrackPointExtension>
            <gpxtpx:speed>2.071</gpxtpx:speed>
          </gpxtpx:TrackPointExtension>
        </extensions>
      </trkpt>
      <trkpt lat="54.53511491417885" lon="11.834662389010191">
        <time>2026-09-07T06:04:28.000Z</time>
        <extensions>
          <gpxtpx:TrackPointExtension>
            <gpxtpx:speed>1.008</gpxtpx:speed>
          </gpxtpx:TrackPointExtension>
        </extensions>
      </trkpt>
      <trkpt lat="54.53531876206398" lon="11.833114000037313">
        <time>2026-09-07T06:05:42.000Z</time>
        <extensions>
          <gpxtpx:TrackPointExtension>
            <gpxtpx:speed>1.708</gpxtpx:speed>
          </gpxtpx:TrackPointExtension>
        </extensions>
      </trkpt>
      <trkpt lat="54.53481065109372" lon="11.829763585701585">
        <time>2026-09-07T06:07:58.000Z</time>
        <extensions>
          <gpxtpx:TrackPointExtension>
            <gpxtpx:speed>1.064</gpxtpx:speed>
          </gpxtpx:TrackPointExtension>
        </extensions>
      </trkpt>
      <trkpt lat="54.534991616383195" lon="11.827860977500677">
        <time>2026-09-07T06:09:26.000Z</time>
        <extensions>
          <gpxtpx:TrackPointExtension>
            <gpxtpx:speed>1.698</gpxtpx:speed>
          </gpxtpx:TrackPointExtension>
        </extensions>
      </trkpt>
      <trkpt lat="54.53458283096552" lon="11.823646891862154">
        <time>2026-09-07T06:12:13.000Z</time>
        <extensions>
          <gpxtpx:TrackPointExtension>
            <gpxtpx:speed>0.551</gpxtpx:speed>
          </gpxtpx:TrackPointExtension>
        </extensions>
      </trkpt>
      <trkpt lat="54.53518683090806" lon="11.823325445875525">
        <time>2026-09-07T06:13:14.000Z</time>
        <extensions>
          <gpxtpx:TrackPointExtension>
            <gpxtpx:speed>1.829</gpxtpx:speed>
          </gpxtpx:TrackPointExtension>
        </extensions>
      </trkpt>
      <trkpt lat="54.53537927940488" lon="11.822989080101252">
        <time>2026-09-07T06:13:30.000Z</time>
        <extensions>
          <gpxtpx:TrackPointExtension>
            <gpxtpx:speed>1.922</gpxtpx:speed>
          </gpxtpx:TrackPointExtension>
        </extensions>
      </trkpt>
      <trkpt lat="54.535423032939434" lon="11.820936687290668">
        <time>2026-09-07T06:14:42.000Z</time>
        <extensions>
          <gpxtpx:TrackPointExtension>
            <gpxtpx:speed>1.987</gpxtpx:speed>
          </gpxtpx:TrackPointExtension>
        </extensions>
      </trkpt>
      <trkpt lat="54.53475960530341" lon="11.816648337990046">
        <time>2026-09-07T06:17:19.000Z</time>
        <extensions>
          <gpxtpx:TrackPointExtension>
            <gpxtpx:speed>1.708</gpxtpx:speed>
          </gpxtpx:TrackPointExtension>
        </extensions>
      </trkpt>
      <trkpt lat="54.533829633146524" lon="11.807821774855256">
        <time>2026-09-07T06:23:04.000Z</time>
        <extensions>
          <gpxtpx:TrackPointExtension>
            <gpxtpx:speed>0.84</gpxtpx:speed>
          </gpxtpx:TrackPointExtension>
        </extensions>
      </trkpt>
      <trkpt lat="54.53421645797789" lon="11.805601241067052">
        <time>2026-09-07T06:24:24.000Z</time>
        <extensions>
          <gpxtpx:TrackPointExtension>
            <gpxtpx:speed>1.838</gpxtpx:speed>
          </gpxtpx:TrackPointExtension>
        </extensions>
      </trkpt>
      <trkpt lat="54.534131633117795" lon="11.80476799607277">
        <time>2026-09-07T06:25:00.000Z</time>
        <extensions>
          <gpxtpx:TrackPointExtension>
            <gpxtpx:speed>0.681</gpxtpx:speed>
          </gpxtpx:TrackPointExtension>
        </extensions>
      </trkpt>
      <trkpt lat="54.534261049702764" lon="11.804307578131557">
        <time>2026-09-07T06:25:29.000Z</time>
        <extensions>
          <gpxtpx:TrackPointExtension>
            <gpxtpx:speed>1.698</gpxtpx:speed>
          </gpxtpx:TrackPointExtension>
        </extensions>
      </trkpt>
      <trkpt lat="54.5344955753535" lon="11.804111106321216">
        <time>2026-09-07T06:25:46.000Z</time>
        <extensions>
          <gpxtpx:TrackPointExtension>
            <gpxtpx:speed>1.577</gpxtpx:speed>
          </gpxtpx:TrackPointExtension>
        </extensions>
      </trkpt>
      <trkpt lat="54.53494853340089" lon="11.804915182292461">
        <time>2026-09-07T06:26:33.000Z</time>
        <extensions>
          <gpxtpx:TrackPointExtension>
            <gpxtpx:speed>2.239</gpxtpx:speed>
          </gpxtpx:TrackPointExtension>
        </extensions>
      </trkpt>
      <trkpt lat="54.53436506912112" lon="11.808065185323358">
        <time>2026-09-07T06:30:02.000Z</time>
        <extensions>
          <gpxtpx:TrackPointExtension>
            <gpxtpx:speed>1.082</gpxtpx:speed>
          </gpxtpx:TrackPointExtension>
        </extensions>
      </trkpt>
      <trkpt lat="54.53379853628576" lon="11.809732681140304">
        <time>2026-09-07T06:31:19.000Z</time>
        <extensions>
          <gpxtpx:TrackPointExtension>
            <gpxtpx:speed>1.819</gpxtpx:speed>
          </gpxtpx:TrackPointExtension>
        </extensions>
      </trkpt>
      <trkpt lat="54.53319436870515" lon="11.810695175081491">
        <time>2026-09-07T06:32:25.000Z</time>
        <extensions>
          <gpxtpx:TrackPointExtension>
            <gpxtpx:speed>0.877</gpxtpx:speed>
          </gpxtpx:TrackPointExtension>
        </extensions>
      </trkpt>
      <trkpt lat="54.53261065296829" lon="11.812820071354508">
        <time>2026-09-07T06:33:40.000Z</time>
        <extensions>
          <gpxtpx:TrackPointExtension>
            <gpxtpx:speed>1.941</gpxtpx:speed>
          </gpxtpx:TrackPointExtension>
        </extensions>
      </trkpt>
      <trkpt lat="54.53149342909455" lon="11.815540753304958">
        <time>2026-09-07T06:35:39.000Z</time>
        <extensions>
          <gpxtpx:TrackPointExtension>
            <gpxtpx:speed>1.726</gpxtpx:speed>
          </gpxtpx:TrackPointExtension>
        </extensions>
      </trkpt>
      <trkpt lat="54.529562992975116" lon="11.819230215623975">
        <time>2026-09-07T06:39:15.000Z</time>
        <extensions>
          <gpxtpx:TrackPointExtension>
            <gpxtpx:speed>1.997</gpxtpx:speed>
          </gpxtpx:TrackPointExtension>
        </extensions>
      </trkpt>
      <trkpt lat="54.52697633765638" lon="11.823894996196032">
        <time>2026-09-07T06:43:14.000Z</time>
        <extensions>
          <gpxtpx:TrackPointExtension>
            <gpxtpx:speed>1.67</gpxtpx:speed>
          </gpxtpx:TrackPointExtension>
        </extensions>
      </trkpt>
      <trkpt lat="54.526774417608976" lon="11.82385384105146">
        <time>2026-09-07T06:43:33.000Z</time>
        <extensions>
          <gpxtpx:TrackPointExtension>
            <gpxtpx:speed>1.353</gpxtpx:speed>
          </gpxtpx:TrackPointExtension>
        </extensions>
      </trkpt>
      <trkpt lat="54.52655514702201" lon="11.82235867716372">
        <time>2026-09-07T06:44:22.000Z</time>
        <extensions>
          <gpxtpx:TrackPointExtension>
            <gpxtpx:speed>2.445</gpxtpx:speed>
          </gpxtpx:TrackPointExtension>
        </extensions>
      </trkpt>
      <trkpt lat="54.52553297393024" lon="11.818656139075756">
        <time>2026-09-07T06:46:22.000Z</time>
        <extensions>
          <gpxtpx:TrackPointExtension>
            <gpxtpx:speed>1.54</gpxtpx:speed>
          </gpxtpx:TrackPointExtension>
        </extensions>
      </trkpt>
      <trkpt lat="54.52265202999115" lon="11.806264836341143">
        <time>2026-09-07T06:52:53.000Z</time>
        <extensions>
          <gpxtpx:TrackPointExtension>
            <gpxtpx:speed>2.211</gpxtpx:speed>
          </gpxtpx:TrackPointExtension>
        </extensions>
      </trkpt>
      <trkpt lat="54.52154637314379" lon="11.800300860777497">
        <time>2026-09-07T06:55:51.000Z</time>
        <extensions>
          <gpxtpx:TrackPointExtension>
            <gpxtpx:speed>2.631</gpxtpx:speed>
          </gpxtpx:TrackPointExtension>
        </extensions>
      </trkpt>
      <trkpt lat="54.520212560892105" lon="11.794407293200493">
        <time>2026-09-07T06:58:57.000Z</time>
        <extensions>
          <gpxtpx:TrackPointExtension>
            <gpxtpx:speed>1.698</gpxtpx:speed>
          </gpxtpx:TrackPointExtension>
        </extensions>
      </trkpt>
      <trkpt lat="54.5198259036988" lon="11.791316382586956">
        <time>2026-09-07T07:00:31.000Z</time>
        <extensions>
          <gpxtpx:TrackPointExtension>
            <gpxtpx:speed>2.258</gpxtpx:speed>
          </gpxtpx:TrackPointExtension>
        </extensions>
      </trkpt>
      <trkpt lat="54.513923954218626" lon="11.764116771519184">
        <time>2026-09-07T07:13:48.000Z</time>
        <extensions>
          <gpxtpx:TrackPointExtension>
            <gpxtpx:speed>2.006</gpxtpx:speed>
          </gpxtpx:TrackPointExtension>
        </extensions>
      </trkpt>
      <trkpt lat="54.5091437548399" lon="11.735317222774029">
        <time>2026-09-07T07:28:02.000Z</time>
        <extensions>
          <gpxtpx:TrackPointExtension>
            <gpxtpx:speed>2.473</gpxtpx:speed>
          </gpxtpx:TrackPointExtension>
        </extensions>
      </trkpt>
      <trkpt lat="54.507331755012274" lon="11.72601766884327">
        <time>2026-09-07T07:32:43.000Z</time>
        <extensions>
          <gpxtpx:TrackPointExtension>
            <gpxtpx:speed>2.211</gpxtpx:speed>
          </gpxtpx:TrackPointExtension>
        </extensions>
      </trkpt>
      <trkpt lat="54.50595838017762" lon="11.717910273000598">
        <time>2026-09-07T07:36:41.000Z</time>
        <extensions>
          <gpxtpx:TrackPointExtension>
            <gpxtpx:speed>2.557</gpxtpx:speed>
          </gpxtpx:TrackPointExtension>
        </extensions>
      </trkpt>
      <trkpt lat="54.50464258901775" lon="11.71157925389707">
        <time>2026-09-07T07:39:57.000Z</time>
        <extensions>
          <gpxtpx:TrackPointExtension>
            <gpxtpx:speed>2.575</gpxtpx:speed>
          </gpxtpx:TrackPointExtension>
        </extensions>
      </trkpt>
      <trkpt lat="54.50345043092966" lon="11.706883376464248">
        <time>2026-09-07T07:42:27.000Z</time>
        <extensions>
          <gpxtpx:TrackPointExtension>
            <gpxtpx:speed>1.997</gpxtpx:speed>
          </gpxtpx:TrackPointExtension>
        </extensions>
      </trkpt>
      <trkpt lat="54.50180338695645" lon="11.698146499693394">
        <time>2026-09-07T07:46:58.000Z</time>
        <extensions>
          <gpxtpx:TrackPointExtension>
            <gpxtpx:speed>2.547</gpxtpx:speed>
          </gpxtpx:TrackPointExtension>
        </extensions>
      </trkpt>
      <trkpt lat="54.49908304028213" lon="11.687367958948016">
        <time>2026-09-07T07:52:54.000Z</time>
        <extensions>
          <gpxtpx:TrackPointExtension>
            <gpxtpx:speed>1.931</gpxtpx:speed>
          </gpxtpx:TrackPointExtension>
        </extensions>
      </trkpt>
      <trkpt lat="54.49658523313701" lon="11.681848894804716">
        <time>2026-09-07T07:57:06.000Z</time>
        <extensions>
          <gpxtpx:TrackPointExtension>
            <gpxtpx:speed>1.847</gpxtpx:speed>
          </gpxtpx:TrackPointExtension>
        </extensions>
      </trkpt>
      <trkpt lat="54.49496819637716" lon="11.678623035550117">
        <time>2026-09-07T07:59:52.000Z</time>
        <extensions>
          <gpxtpx:TrackPointExtension>
            <gpxtpx:speed>1.67</gpxtpx:speed>
          </gpxtpx:TrackPointExtension>
        </extensions>
      </trkpt>
      <trkpt lat="54.494600566104054" lon="11.678352216258645">
        <time>2026-09-07T08:00:19.000Z</time>
        <extensions>
          <gpxtpx:TrackPointExtension>
            <gpxtpx:speed>1.12</gpxtpx:speed>
          </gpxtpx:TrackPointExtension>
        </extensions>
      </trkpt>
      <trkpt lat="54.49455790221691" lon="11.678850520402193">
        <time>2026-09-07T08:00:47.000Z</time>
        <extensions>
          <gpxtpx:TrackPointExtension>
            <gpxtpx:speed>1.325</gpxtpx:speed>
          </gpxtpx:TrackPointExtension>
        </extensions>
      </trkpt>
      <trkpt lat="54.49519123882055" lon="11.6796116810292">
        <time>2026-09-07T08:01:36.000Z</time>
        <extensions>
          <gpxtpx:TrackPointExtension>
            <gpxtpx:speed>2.286</gpxtpx:speed>
          </gpxtpx:TrackPointExtension>
        </extensions>
      </trkpt>
      <trkpt lat="54.495636485517025" lon="11.679608998820186">
        <time>2026-09-07T08:02:01.000Z</time>
        <extensions>
          <gpxtpx:TrackPointExtension>
            <gpxtpx:speed>1.847</gpxtpx:speed>
          </gpxtpx:TrackPointExtension>
        </extensions>
      </trkpt>
      <trkpt lat="54.495948711410165" lon="11.678864434361458">
        <time>2026-09-07T08:02:33.000Z</time>
        <extensions>
          <gpxtpx:TrackPointExtension>
            <gpxtpx:speed>1.791</gpxtpx:speed>
          </gpxtpx:TrackPointExtension>
        </extensions>
      </trkpt>
      <trkpt lat="54.49591283686459" lon="11.678126994520426">
        <time>2026-09-07T08:02:58.000Z</time>
        <extensions>
          <gpxtpx:TrackPointExtension>
            <gpxtpx:speed>2.043</gpxtpx:speed>
          </gpxtpx:TrackPointExtension>
        </extensions>
      </trkpt>
      <trkpt lat="54.49406529776752" lon="11.674363017082214">
        <time>2026-09-07T08:06:12.000Z</time>
        <extensions>
          <gpxtpx:TrackPointExtension>
            <gpxtpx:speed>1.736</gpxtpx:speed>
          </gpxtpx:TrackPointExtension>
        </extensions>
      </trkpt>
      <trkpt lat="54.49298579245806" lon="11.6725246142596">
        <time>2026-09-07T08:08:09.000Z</time>
        <extensions>
          <gpxtpx:TrackPointExtension>
            <gpxtpx:speed>1.801</gpxtpx:speed>
          </gpxtpx:TrackPointExtension>
        </extensions>
      </trkpt>
      <trkpt lat="54.492320101708174" lon="11.670370548963547">
        <time>2026-09-07T08:09:32.000Z</time>
        <extensions>
          <gpxtpx:TrackPointExtension>
            <gpxtpx:speed>2.267</gpxtpx:speed>
          </gpxtpx:TrackPointExtension>
        </extensions>
      </trkpt>
      <trkpt lat="54.491754826158285" lon="11.667293636128306">
        <time>2026-09-07T08:10:59.000Z</time>
        <extensions>
          <gpxtpx:TrackPointExtension>
            <gpxtpx:speed>2.529</gpxtpx:speed>
          </gpxtpx:TrackPointExtension>
        </extensions>
      </trkpt>
      <trkpt lat="54.491878878325224" lon="11.663846326991916">
        <time>2026-09-07T08:12:31.000Z</time>
        <extensions>
          <gpxtpx:TrackPointExtension>
            <gpxtpx:speed>2.305</gpxtpx:speed>
          </gpxtpx:TrackPointExtension>
        </extensions>
      </trkpt>
      <trkpt lat="54.48911142535508" lon="11.655379850417376">
        <time>2026-09-07T08:18:21.000Z</time>
        <extensions>
          <gpxtpx:TrackPointExtension>
            <gpxtpx:speed>1.941</gpxtpx:speed>
          </gpxtpx:TrackPointExtension>
        </extensions>
      </trkpt>
      <trkpt lat="54.48847624473274" lon="11.652887407690287">
        <time>2026-09-07T08:19:51.000Z</time>
        <extensions>
          <gpxtpx:TrackPointExtension>
            <gpxtpx:speed>2.202</gpxtpx:speed>
          </gpxtpx:TrackPointExtension>
        </extensions>
      </trkpt>
      <trkpt lat="54.48745029978454" lon="11.649797754362226">
        <time>2026-09-07T08:21:44.000Z</time>
        <extensions>
          <gpxtpx:TrackPointExtension>
            <gpxtpx:speed>2.211</gpxtpx:speed>
          </gpxtpx:TrackPointExtension>
        </extensions>
      </trkpt>
      <trkpt lat="54.48690488934517" lon="11.647369684651494">
        <time>2026-09-07T08:23:12.000Z</time>
        <extensions>
          <gpxtpx:TrackPointExtension>
            <gpxtpx:speed>2.006</gpxtpx:speed>
          </gpxtpx:TrackPointExtension>
        </extensions>
      </trkpt>
      <trkpt lat="54.48590652085841" lon="11.644757967442274">
        <time>2026-09-07T08:24:47.000Z</time>
        <extensions>
          <gpxtpx:TrackPointExtension>
            <gpxtpx:speed>2.277</gpxtpx:speed>
          </gpxtpx:TrackPointExtension>
        </extensions>
      </trkpt>
      <trkpt lat="54.48380601592362" lon="11.638204492628574">
        <time>2026-09-07T08:28:35.000Z</time>
        <extensions>
          <gpxtpx:TrackPointExtension>
            <gpxtpx:speed>2.062</gpxtpx:speed>
          </gpxtpx:TrackPointExtension>
        </extensions>
      </trkpt>
      <trkpt lat="54.48137283325195" lon="11.63248535245657">
        <time>2026-09-07T08:33:23.000Z</time>
        <extensions>
          <gpxtpx:TrackPointExtension>
            <gpxtpx:speed>1.474</gpxtpx:speed>
          </gpxtpx:TrackPointExtension>
        </extensions>
      </trkpt>
      <trkpt lat="54.479960314929485" lon="11.62849766202271">
        <time>2026-09-07T08:36:31.000Z</time>
        <extensions>
          <gpxtpx:TrackPointExtension>
            <gpxtpx:speed>1.941</gpxtpx:speed>
          </gpxtpx:TrackPointExtension>
        </extensions>
      </trkpt>
      <trkpt lat="54.479213654994965" lon="11.625258726999164">
        <time>2026-09-07T08:38:18.000Z</time>
        <extensions>
          <gpxtpx:TrackPointExtension>
            <gpxtpx:speed>2.137</gpxtpx:speed>
          </gpxtpx:TrackPointExtension>
        </extensions>
      </trkpt>
      <trkpt lat="54.47893646545708" lon="11.622755052521825">
        <time>2026-09-07T08:40:04.000Z</time>
        <extensions>
          <gpxtpx:TrackPointExtension>
            <gpxtpx:speed>1.456</gpxtpx:speed>
          </gpxtpx:TrackPointExtension>
        </extensions>
      </trkpt>
      <trkpt lat="54.47829432785511" lon="11.620786562561989">
        <time>2026-09-07T08:41:25.000Z</time>
        <extensions>
          <gpxtpx:TrackPointExtension>
            <gpxtpx:speed>1.987</gpxtpx:speed>
          </gpxtpx:TrackPointExtension>
        </extensions>
      </trkpt>
      <trkpt lat="54.47818041779101" lon="11.61829604767263">
        <time>2026-09-07T08:43:16.000Z</time>
        <extensions>
          <gpxtpx:TrackPointExtension>
            <gpxtpx:speed>1.558</gpxtpx:speed>
          </gpxtpx:TrackPointExtension>
        </extensions>
      </trkpt>
      <trkpt lat="54.477868024259806" lon="11.616947399452329">
        <time>2026-09-07T08:44:12.000Z</time>
        <extensions>
          <gpxtpx:TrackPointExtension>
            <gpxtpx:speed>1.875</gpxtpx:speed>
          </gpxtpx:TrackPointExtension>
        </extensions>
      </trkpt>
      <trkpt lat="54.47525169700384" lon="11.611692449077964">
        <time>2026-09-07T08:48:51.000Z</time>
        <extensions>
          <gpxtpx:TrackPointExtension>
            <gpxtpx:speed>1.428</gpxtpx:speed>
          </gpxtpx:TrackPointExtension>
        </extensions>
      </trkpt>
      <trkpt lat="54.473660895600915" lon="11.607631165534258">
        <time>2026-09-07T08:52:02.000Z</time>
        <extensions>
          <gpxtpx:TrackPointExtension>
            <gpxtpx:speed>1.931</gpxtpx:speed>
          </gpxtpx:TrackPointExtension>
        </extensions>
      </trkpt>
      <trkpt lat="54.472860591486096" lon="11.605085246264935">
        <time>2026-09-07T08:53:33.000Z</time>
        <extensions>
          <gpxtpx:TrackPointExtension>
            <gpxtpx:speed>1.969</gpxtpx:speed>
          </gpxtpx:TrackPointExtension>
        </extensions>
      </trkpt>
      <trkpt lat="54.469832461327314" lon="11.593607068061829">
        <time>2026-09-07T09:00:06.000Z</time>
        <extensions>
          <gpxtpx:TrackPointExtension>
            <gpxtpx:speed>2.006</gpxtpx:speed>
          </gpxtpx:TrackPointExtension>
        </extensions>
      </trkpt>
      <trkpt lat="54.468348026275635" lon="11.586761567741632">
        <time>2026-09-07T09:03:45.000Z</time>
        <extensions>
          <gpxtpx:TrackPointExtension>
            <gpxtpx:speed>2.137</gpxtpx:speed>
          </gpxtpx:TrackPointExtension>
        </extensions>
      </trkpt>
      <trkpt lat="54.468119870871305" lon="11.585520878434181">
        <time>2026-09-07T09:04:25.000Z</time>
        <extensions>
          <gpxtpx:TrackPointExtension>
            <gpxtpx:speed>1.959</gpxtpx:speed>
          </gpxtpx:TrackPointExtension>
        </extensions>
      </trkpt>
      <trkpt lat="54.46799607016146" lon="11.581440567970276">
        <time>2026-09-07T09:06:42.000Z</time>
        <extensions>
          <gpxtpx:TrackPointExtension>
            <gpxtpx:speed>2.043</gpxtpx:speed>
          </gpxtpx:TrackPointExtension>
        </extensions>
      </trkpt>
      <trkpt lat="54.466887563467026" lon="11.577559746801853">
        <time>2026-09-07T09:08:48.000Z</time>
        <extensions>
          <gpxtpx:TrackPointExtension>
            <gpxtpx:speed>2.239</gpxtpx:speed>
          </gpxtpx:TrackPointExtension>
        </extensions>
      </trkpt>
      <trkpt lat="54.46625238284469" lon="11.574473530054092">
        <time>2026-09-07T09:10:21.000Z</time>
        <extensions>
          <gpxtpx:TrackPointExtension>
            <gpxtpx:speed>2.053</gpxtpx:speed>
          </gpxtpx:TrackPointExtension>
        </extensions>
      </trkpt>
      <trkpt lat="54.46608692407608" lon="11.572090303525329">
        <time>2026-09-07T09:11:50.000Z</time>
        <extensions>
          <gpxtpx:TrackPointExtension>
            <gpxtpx:speed>1.894</gpxtpx:speed>
          </gpxtpx:TrackPointExtension>
        </extensions>
      </trkpt>
      <trkpt lat="54.46463760919869" lon="11.568670151755214">
        <time>2026-09-07T09:14:33.000Z</time>
        <extensions>
          <gpxtpx:TrackPointExtension>
            <gpxtpx:speed>1.67</gpxtpx:speed>
          </gpxtpx:TrackPointExtension>
        </extensions>
      </trkpt>
      <trkpt lat="54.46359473280609" lon="11.56520800665021">
        <time>2026-09-07T09:16:32.000Z</time>
        <extensions>
          <gpxtpx:TrackPointExtension>
            <gpxtpx:speed>2.249</gpxtpx:speed>
          </gpxtpx:TrackPointExtension>
        </extensions>
      </trkpt>
      <trkpt lat="54.463348388671875" lon="11.561052342876792">
        <time>2026-09-07T09:18:46.000Z</time>
        <extensions>
          <gpxtpx:TrackPointExtension>
            <gpxtpx:speed>2.034</gpxtpx:speed>
          </gpxtpx:TrackPointExtension>
        </extensions>
      </trkpt>
      <trkpt lat="54.45983922109008" lon="11.553369909524918">
        <time>2026-09-07T09:24:05.000Z</time>
        <extensions>
          <gpxtpx:TrackPointExtension>
            <gpxtpx:speed>1.894</gpxtpx:speed>
          </gpxtpx:TrackPointExtension>
        </extensions>
      </trkpt>
      <trkpt lat="54.45594163611531" lon="11.542658256366849">
        <time>2026-09-07T09:30:25.000Z</time>
        <extensions>
          <gpxtpx:TrackPointExtension>
            <gpxtpx:speed>2.183</gpxtpx:speed>
          </gpxtpx:TrackPointExtension>
        </extensions>
      </trkpt>
      <trkpt lat="54.45492818020284" lon="11.538606192916632">
        <time>2026-09-07T09:32:24.000Z</time>
        <extensions>
          <gpxtpx:TrackPointExtension>
            <gpxtpx:speed>2.333</gpxtpx:speed>
          </gpxtpx:TrackPointExtension>
        </extensions>
      </trkpt>
      <trkpt lat="54.45371741428971" lon="11.532035870477557">
        <time>2026-09-07T09:35:31.000Z</time>
        <extensions>
          <gpxtpx:TrackPointExtension>
            <gpxtpx:speed>2.071</gpxtpx:speed>
          </gpxtpx:TrackPointExtension>
        </extensions>
      </trkpt>
      <trkpt lat="54.45290579460561" lon="11.529285935685039">
        <time>2026-09-07T09:36:54.000Z</time>
        <extensions>
          <gpxtpx:TrackPointExtension>
            <gpxtpx:speed>2.314</gpxtpx:speed>
          </gpxtpx:TrackPointExtension>
        </extensions>
      </trkpt>
      <trkpt lat="54.4524625595659" lon="11.525668976828456">
        <time>2026-09-07T09:38:35.000Z</time>
        <extensions>
          <gpxtpx:TrackPointExtension>
            <gpxtpx:speed>2.454</gpxtpx:speed>
          </gpxtpx:TrackPointExtension>
        </extensions>
      </trkpt>
      <trkpt lat="54.450351325795054" lon="11.517710024490952">
        <time>2026-09-07T09:42:39.000Z</time>
        <extensions>
          <gpxtpx:TrackPointExtension>
            <gpxtpx:speed>1.922</gpxtpx:speed>
          </gpxtpx:TrackPointExtension>
        </extensions>
      </trkpt>
      <trkpt lat="54.45014303550124" lon="11.516207568347454">
        <time>2026-09-07T09:43:24.000Z</time>
        <extensions>
          <gpxtpx:TrackPointExtension>
            <gpxtpx:speed>2.174</gpxtpx:speed>
          </gpxtpx:TrackPointExtension>
        </extensions>
      </trkpt>
      <trkpt lat="54.44614998064935" lon="11.50596329011023">
        <time>2026-09-07T09:50:00.000Z</time>
        <extensions>
          <gpxtpx:TrackPointExtension>
            <gpxtpx:speed>1.847</gpxtpx:speed>
          </gpxtpx:TrackPointExtension>
        </extensions>
      </trkpt>
      <trkpt lat="54.44449799135327" lon="11.501083597540855">
        <time>2026-09-07T09:53:12.000Z</time>
        <extensions>
          <gpxtpx:TrackPointExtension>
            <gpxtpx:speed>1.997</gpxtpx:speed>
          </gpxtpx:TrackPointExtension>
        </extensions>
      </trkpt>
      <trkpt lat="54.444276709109545" lon="11.500039463862777">
        <time>2026-09-07T09:53:53.000Z</time>
        <extensions>
          <gpxtpx:TrackPointExtension>
            <gpxtpx:speed>2.034</gpxtpx:speed>
          </gpxtpx:TrackPointExtension>
        </extensions>
      </trkpt>
      <trkpt lat="54.44410932250321" lon="11.49708584882319">
        <time>2026-09-07T09:55:56.000Z</time>
        <extensions>
          <gpxtpx:TrackPointExtension>
            <gpxtpx:speed>1.549</gpxtpx:speed>
          </gpxtpx:TrackPointExtension>
        </extensions>
      </trkpt>
      <trkpt lat="54.44331304170191" lon="11.495074359700084">
        <time>2026-09-07T09:57:18.000Z</time>
        <extensions>
          <gpxtpx:TrackPointExtension>
            <gpxtpx:speed>1.913</gpxtpx:speed>
          </gpxtpx:TrackPointExtension>
        </extensions>
      </trkpt>
      <trkpt lat="54.44285212084651" lon="11.492869248613715">
        <time>2026-09-07T09:58:38.000Z</time>
        <extensions>
          <gpxtpx:TrackPointExtension>
            <gpxtpx:speed>1.68</gpxtpx:speed>
          </gpxtpx:TrackPointExtension>
        </extensions>
      </trkpt>
      <trkpt lat="54.44272228516638" lon="11.491040736436844">
        <time>2026-09-07T09:59:47.000Z</time>
        <extensions>
          <gpxtpx:TrackPointExtension>
            <gpxtpx:speed>1.176</gpxtpx:speed>
          </gpxtpx:TrackPointExtension>
        </extensions>
      </trkpt>
      <trkpt lat="54.443046413362026" lon="11.487207943573594">
        <time>2026-09-07T10:02:49.000Z</time>
        <extensions>
          <gpxtpx:TrackPointExtension>
            <gpxtpx:speed>1.801</gpxtpx:speed>
          </gpxtpx:TrackPointExtension>
        </extensions>
      </trkpt>
      <trkpt lat="54.44224879145622" lon="11.484866123646498">
        <time>2026-09-07T10:04:16.000Z</time>
        <extensions>
          <gpxtpx:TrackPointExtension>
            <gpxtpx:speed>2.081</gpxtpx:speed>
          </gpxtpx:TrackPointExtension>
        </extensions>
      </trkpt>
      <trkpt lat="54.441678654402494" lon="11.482039410620928">
        <time>2026-09-07T10:05:40.000Z</time>
        <extensions>
          <gpxtpx:TrackPointExtension>
            <gpxtpx:speed>2.277</gpxtpx:speed>
          </gpxtpx:TrackPointExtension>
        </extensions>
      </trkpt>
      <trkpt lat="54.441098626703024" lon="11.475946269929409">
        <time>2026-09-07T10:08:33.000Z</time>
        <extensions>
          <gpxtpx:TrackPointExtension>
            <gpxtpx:speed>2.239</gpxtpx:speed>
          </gpxtpx:TrackPointExtension>
        </extensions>
      </trkpt>
      <trkpt lat="54.44029815495014" lon="11.472566770389676">
        <time>2026-09-07T10:10:14.000Z</time>
        <extensions>
          <gpxtpx:TrackPointExtension>
            <gpxtpx:speed>2.342</gpxtpx:speed>
          </gpxtpx:TrackPointExtension>
        </extensions>
      </trkpt>
      <trkpt lat="54.43914773873985" lon="11.469092220067978">
        <time>2026-09-07T10:12:08.000Z</time>
        <extensions>
          <gpxtpx:TrackPointExtension>
            <gpxtpx:speed>2.398</gpxtpx:speed>
          </gpxtpx:TrackPointExtension>
        </extensions>
      </trkpt>
      <trkpt lat="54.438729314133525" lon="11.466766325756907">
        <time>2026-09-07T10:13:16.000Z</time>
        <extensions>
          <gpxtpx:TrackPointExtension>
            <gpxtpx:speed>2.305</gpxtpx:speed>
          </gpxtpx:TrackPointExtension>
        </extensions>
      </trkpt>
      <trkpt lat="54.437000546604395" lon="11.462322240695357">
        <time>2026-09-07T10:15:59.000Z</time>
        <extensions>
          <gpxtpx:TrackPointExtension>
            <gpxtpx:speed>2.118</gpxtpx:speed>
          </gpxtpx:TrackPointExtension>
        </extensions>
      </trkpt>
      <trkpt lat="54.43503105081618" lon="11.45642557181418">
        <time>2026-09-07T10:19:45.000Z</time>
        <extensions>
          <gpxtpx:TrackPointExtension>
            <gpxtpx:speed>1.801</gpxtpx:speed>
          </gpxtpx:TrackPointExtension>
        </extensions>
      </trkpt>
      <trkpt lat="54.43111821077764" lon="11.44759020768106">
        <time>2026-09-07T10:26:29.000Z</time>
        <extensions>
          <gpxtpx:TrackPointExtension>
            <gpxtpx:speed>1.764</gpxtpx:speed>
          </gpxtpx:TrackPointExtension>
        </extensions>
      </trkpt>
      <trkpt lat="54.430585876107216" lon="11.445828080177307">
        <time>2026-09-07T10:27:30.000Z</time>
        <extensions>
          <gpxtpx:TrackPointExtension>
            <gpxtpx:speed>2.211</gpxtpx:speed>
          </gpxtpx:TrackPointExtension>
        </extensions>
      </trkpt>
      <trkpt lat="54.42961072549224" lon="11.440715957432985">
        <time>2026-09-07T10:30:01.000Z</time>
        <extensions>
          <gpxtpx:TrackPointExtension>
            <gpxtpx:speed>2.482</gpxtpx:speed>
          </gpxtpx:TrackPointExtension>
        </extensions>
      </trkpt>
      <trkpt lat="54.42932004109025" lon="11.437845826148987">
        <time>2026-09-07T10:31:22.000Z</time>
        <extensions>
          <gpxtpx:TrackPointExtension>
            <gpxtpx:speed>2.006</gpxtpx:speed>
          </gpxtpx:TrackPointExtension>
        </extensions>
      </trkpt>
      <trkpt lat="54.428665079176426" lon="11.434936635196209">
        <time>2026-09-07T10:32:48.000Z</time>
        <extensions>
          <gpxtpx:TrackPointExtension>
            <gpxtpx:speed>2.183</gpxtpx:speed>
          </gpxtpx:TrackPointExtension>
        </extensions>
      </trkpt>
      <trkpt lat="54.428288731724024" lon="11.430154172703624">
        <time>2026-09-07T10:35:04.000Z</time>
        <extensions>
          <gpxtpx:TrackPointExtension>
            <gpxtpx:speed>2.062</gpxtpx:speed>
          </gpxtpx:TrackPointExtension>
        </extensions>
      </trkpt>
      <trkpt lat="54.42790970206261" lon="11.427535833790898">
        <time>2026-09-07T10:36:23.000Z</time>
        <extensions>
          <gpxtpx:TrackPointExtension>
            <gpxtpx:speed>2.249</gpxtpx:speed>
          </gpxtpx:TrackPointExtension>
        </extensions>
      </trkpt>
      <trkpt lat="54.42710277624428" lon="11.424924870952964">
        <time>2026-09-07T10:37:49.000Z</time>
        <extensions>
          <gpxtpx:TrackPointExtension>
            <gpxtpx:speed>2.277</gpxtpx:speed>
          </gpxtpx:TrackPointExtension>
        </extensions>
      </trkpt>
      <trkpt lat="54.426602544263005" lon="11.42124387435615">
        <time>2026-09-07T10:39:40.000Z</time>
        <extensions>
          <gpxtpx:TrackPointExtension>
            <gpxtpx:speed>1.987</gpxtpx:speed>
          </gpxtpx:TrackPointExtension>
        </extensions>
      </trkpt>
      <trkpt lat="54.425422456115484" lon="11.417188625782728">
        <time>2026-09-07T10:41:51.000Z</time>
        <extensions>
          <gpxtpx:TrackPointExtension>
            <gpxtpx:speed>2.305</gpxtpx:speed>
          </gpxtpx:TrackPointExtension>
        </extensions>
      </trkpt>
      <trkpt lat="54.42506463266909" lon="11.414687549695373">
        <time>2026-09-07T10:43:15.000Z</time>
        <extensions>
          <gpxtpx:TrackPointExtension>
            <gpxtpx:speed>2.081</gpxtpx:speed>
          </gpxtpx:TrackPointExtension>
        </extensions>
      </trkpt>
      <trkpt lat="54.42409476265311" lon="11.412432566285133">
        <time>2026-09-07T10:44:46.000Z</time>
        <extensions>
          <gpxtpx:TrackPointExtension>
            <gpxtpx:speed>2.053</gpxtpx:speed>
          </gpxtpx:TrackPointExtension>
        </extensions>
      </trkpt>
      <trkpt lat="54.4235169980675" lon="11.409750524908304">
        <time>2026-09-07T10:46:18.000Z</time>
        <extensions>
          <gpxtpx:TrackPointExtension>
            <gpxtpx:speed>1.81</gpxtpx:speed>
          </gpxtpx:TrackPointExtension>
        </extensions>
      </trkpt>
      <trkpt lat="54.42324332892895" lon="11.407594112679362">
        <time>2026-09-07T10:47:32.000Z</time>
        <extensions>
          <gpxtpx:TrackPointExtension>
            <gpxtpx:speed>1.941</gpxtpx:speed>
          </gpxtpx:TrackPointExtension>
        </extensions>
      </trkpt>
      <trkpt lat="54.42152478732169" lon="11.403089091181755">
        <time>2026-09-07T10:50:42.000Z</time>
        <extensions>
          <gpxtpx:TrackPointExtension>
            <gpxtpx:speed>1.68</gpxtpx:speed>
          </gpxtpx:TrackPointExtension>
        </extensions>
      </trkpt>
      <trkpt lat="54.41946501843631" lon="11.39935864135623">
        <time>2026-09-07T10:54:16.000Z</time>
        <extensions>
          <gpxtpx:TrackPointExtension>
            <gpxtpx:speed>1.698</gpxtpx:speed>
          </gpxtpx:TrackPointExtension>
        </extensions>
      </trkpt>
      <trkpt lat="54.41800354979932" lon="11.394675755873322">
        <time>2026-09-07T10:57:35.000Z</time>
        <extensions>
          <gpxtpx:TrackPointExtension>
            <gpxtpx:speed>1.754</gpxtpx:speed>
          </gpxtpx:TrackPointExtension>
        </extensions>
      </trkpt>
      <trkpt lat="54.4149636849761" lon="11.388844717293978">
        <time>2026-09-07T11:03:25.000Z</time>
        <extensions>
          <gpxtpx:TrackPointExtension>
            <gpxtpx:speed>1.959</gpxtpx:speed>
          </gpxtpx:TrackPointExtension>
        </extensions>
      </trkpt>
      <trkpt lat="54.41332284361124" lon="11.384236514568329">
        <time>2026-09-07T11:06:28.000Z</time>
        <extensions>
          <gpxtpx:TrackPointExtension>
            <gpxtpx:speed>1.941</gpxtpx:speed>
          </gpxtpx:TrackPointExtension>
        </extensions>
      </trkpt>
      <trkpt lat="54.411859195679426" lon="11.377204768359661">
        <time>2026-09-07T11:10:28.000Z</time>
        <extensions>
          <gpxtpx:TrackPointExtension>
            <gpxtpx:speed>2.165</gpxtpx:speed>
          </gpxtpx:TrackPointExtension>
        </extensions>
      </trkpt>
      <trkpt lat="54.41177831031382" lon="11.373289749026299">
        <time>2026-09-07T11:12:38.000Z</time>
        <extensions>
          <gpxtpx:TrackPointExtension>
            <gpxtpx:speed>1.68</gpxtpx:speed>
          </gpxtpx:TrackPointExtension>
        </extensions>
      </trkpt>
      <trkpt lat="54.410909190773964" lon="11.370039749890566">
        <time>2026-09-07T11:14:37.000Z</time>
        <extensions>
          <gpxtpx:TrackPointExtension>
            <gpxtpx:speed>1.959</gpxtpx:speed>
          </gpxtpx:TrackPointExtension>
        </extensions>
      </trkpt>
      <trkpt lat="54.40965500660241" lon="11.363881984725595">
        <time>2026-09-07T11:18:14.000Z</time>
        <extensions>
          <gpxtpx:TrackPointExtension>
            <gpxtpx:speed>1.931</gpxtpx:speed>
          </gpxtpx:TrackPointExtension>
        </extensions>
      </trkpt>
      <trkpt lat="54.408377688378096" lon="11.359176551923156">
        <time>2026-09-07T11:21:14.000Z</time>
        <extensions>
          <gpxtpx:TrackPointExtension>
            <gpxtpx:speed>1.773</gpxtpx:speed>
          </gpxtpx:TrackPointExtension>
        </extensions>
      </trkpt>
      <trkpt lat="54.40731754526496" lon="11.356405327096581">
        <time>2026-09-07T11:23:17.000Z</time>
        <extensions>
          <gpxtpx:TrackPointExtension>
            <gpxtpx:speed>1.782</gpxtpx:speed>
          </gpxtpx:TrackPointExtension>
        </extensions>
      </trkpt>
      <trkpt lat="54.40610636025667" lon="11.353823198005557">
        <time>2026-09-07T11:25:26.000Z</time>
        <extensions>
          <gpxtpx:TrackPointExtension>
            <gpxtpx:speed>1.652</gpxtpx:speed>
          </gpxtpx:TrackPointExtension>
        </extensions>
      </trkpt>
      <trkpt lat="54.40420635044575" lon="11.34829985909164">
        <time>2026-09-07T11:29:22.000Z</time>
        <extensions>
          <gpxtpx:TrackPointExtension>
            <gpxtpx:speed>2.015</gpxtpx:speed>
          </gpxtpx:TrackPointExtension>
        </extensions>
      </trkpt>
      <trkpt lat="54.403943326324224" lon="11.346780890598893">
        <time>2026-09-07T11:30:19.000Z</time>
        <extensions>
          <gpxtpx:TrackPointExtension>
            <gpxtpx:speed>1.922</gpxtpx:speed>
          </gpxtpx:TrackPointExtension>
        </extensions>
      </trkpt>
      <trkpt lat="54.40395003184676" lon="11.345337610691786">
        <time>2026-09-07T11:31:10.000Z</time>
        <extensions>
          <gpxtpx:TrackPointExtension>
            <gpxtpx:speed>1.997</gpxtpx:speed>
          </gpxtpx:TrackPointExtension>
        </extensions>
      </trkpt>
      <trkpt lat="54.4036718364805" lon="11.344395820051432">
        <time>2026-09-07T11:31:49.000Z</time>
        <extensions>
          <gpxtpx:TrackPointExtension>
            <gpxtpx:speed>1.764</gpxtpx:speed>
          </gpxtpx:TrackPointExtension>
        </extensions>
      </trkpt>
      <trkpt lat="54.40142112784088" lon="11.338701657950878">
        <time>2026-09-07T11:35:56.000Z</time>
        <extensions>
          <gpxtpx:TrackPointExtension>
            <gpxtpx:speed>1.801</gpxtpx:speed>
          </gpxtpx:TrackPointExtension>
        </extensions>
      </trkpt>
      <trkpt lat="54.40044740214944" lon="11.337244044989347">
        <time>2026-09-07T11:37:21.000Z</time>
        <extensions>
          <gpxtpx:TrackPointExtension>
            <gpxtpx:speed>1.829</gpxtpx:speed>
          </gpxtpx:TrackPointExtension>
        </extensions>
      </trkpt>
      <trkpt lat="54.400039706379175" lon="11.336239892989397">
        <time>2026-09-07T11:38:02.000Z</time>
        <extensions>
          <gpxtpx:TrackPointExtension>
            <gpxtpx:speed>2.127</gpxtpx:speed>
          </gpxtpx:TrackPointExtension>
        </extensions>
      </trkpt>
      <trkpt lat="54.3983047362417" lon="11.327256420627236">
        <time>2026-09-07T11:43:22.000Z</time>
        <extensions>
          <gpxtpx:TrackPointExtension>
            <gpxtpx:speed>1.941</gpxtpx:speed>
          </gpxtpx:TrackPointExtension>
        </extensions>
      </trkpt>
      <trkpt lat="54.39776209183037" lon="11.320414273068309">
        <time>2026-09-07T11:47:11.000Z</time>
        <extensions>
          <gpxtpx:TrackPointExtension>
            <gpxtpx:speed>1.894</gpxtpx:speed>
          </gpxtpx:TrackPointExtension>
        </extensions>
      </trkpt>
      <trkpt lat="54.39547961577773" lon="11.310873739421368">
        <time>2026-09-07T11:52:34.000Z</time>
        <extensions>
          <gpxtpx:TrackPointExtension>
            <gpxtpx:speed>2.183</gpxtpx:speed>
          </gpxtpx:TrackPointExtension>
        </extensions>
      </trkpt>
      <trkpt lat="54.39490528777242" lon="11.301757916808128">
        <time>2026-09-07T11:57:24.000Z</time>
        <extensions>
          <gpxtpx:TrackPointExtension>
            <gpxtpx:speed>1.959</gpxtpx:speed>
          </gpxtpx:TrackPointExtension>
        </extensions>
      </trkpt>
      <trkpt lat="54.393203761428595" lon="11.294649224728346">
        <time>2026-09-07T12:01:40.000Z</time>
        <extensions>
          <gpxtpx:TrackPointExtension>
            <gpxtpx:speed>1.745</gpxtpx:speed>
          </gpxtpx:TrackPointExtension>
        </extensions>
      </trkpt>
      <trkpt lat="54.39321365207434" lon="11.289632236585021">
        <time>2026-09-07T12:04:41.000Z</time>
        <extensions>
          <gpxtpx:TrackPointExtension>
            <gpxtpx:speed>1.875</gpxtpx:speed>
          </gpxtpx:TrackPointExtension>
        </extensions>
      </trkpt>
      <trkpt lat="54.392808973789215" lon="11.286090463399887">
        <time>2026-09-07T12:06:48.000Z</time>
        <extensions>
          <gpxtpx:TrackPointExtension>
            <gpxtpx:speed>1.782</gpxtpx:speed>
          </gpxtpx:TrackPointExtension>
        </extensions>
      </trkpt>
      <trkpt lat="54.392637899145484" lon="11.279107080772519">
        <time>2026-09-07T12:10:49.000Z</time>
        <extensions>
          <gpxtpx:TrackPointExtension>
            <gpxtpx:speed>1.819</gpxtpx:speed>
          </gpxtpx:TrackPointExtension>
        </extensions>
      </trkpt>
      <trkpt lat="54.39180507324636" lon="11.274088332429528">
        <time>2026-09-07T12:13:47.000Z</time>
        <extensions>
          <gpxtpx:TrackPointExtension>
            <gpxtpx:speed>1.978</gpxtpx:speed>
          </gpxtpx:TrackPointExtension>
        </extensions>
      </trkpt>
      <trkpt lat="54.39205971546471" lon="11.271417355164886">
        <time>2026-09-07T12:15:19.000Z</time>
        <extensions>
          <gpxtpx:TrackPointExtension>
            <gpxtpx:speed>1.922</gpxtpx:speed>
          </gpxtpx:TrackPointExtension>
        </extensions>
      </trkpt>
      <trkpt lat="54.39198478125036" lon="11.264385273680091">
        <time>2026-09-07T12:19:12.000Z</time>
        <extensions>
          <gpxtpx:TrackPointExtension>
            <gpxtpx:speed>2.118</gpxtpx:speed>
          </gpxtpx:TrackPointExtension>
        </extensions>
      </trkpt>
      <trkpt lat="54.39174514263868" lon="11.263189846649766">
        <time>2026-09-07T12:19:53.000Z</time>
        <extensions>
          <gpxtpx:TrackPointExtension>
            <gpxtpx:speed>2.062</gpxtpx:speed>
          </gpxtpx:TrackPointExtension>
        </extensions>
      </trkpt>
      <trkpt lat="54.39063780941069" lon="11.260274453088641">
        <time>2026-09-07T12:21:54.000Z</time>
        <extensions>
          <gpxtpx:TrackPointExtension>
            <gpxtpx:speed>1.959</gpxtpx:speed>
          </gpxtpx:TrackPointExtension>
        </extensions>
      </trkpt>
      <trkpt lat="54.390637557953596" lon="11.258949609473348">
        <time>2026-09-07T12:22:37.000Z</time>
        <extensions>
          <gpxtpx:TrackPointExtension>
            <gpxtpx:speed>1.969</gpxtpx:speed>
          </gpxtpx:TrackPointExtension>
        </extensions>
      </trkpt>
      <trkpt lat="54.390939474105835" lon="11.256703091785312">
        <time>2026-09-07T12:23:50.000Z</time>
        <extensions>
          <gpxtpx:TrackPointExtension>
            <gpxtpx:speed>2.053</gpxtpx:speed>
          </gpxtpx:TrackPointExtension>
        </extensions>
      </trkpt>
      <trkpt lat="54.39089957624674" lon="11.254718424752355">
        <time>2026-09-07T12:24:55.000Z</time>
        <extensions>
          <gpxtpx:TrackPointExtension>
            <gpxtpx:speed>1.987</gpxtpx:speed>
          </gpxtpx:TrackPointExtension>
        </extensions>
      </trkpt>
      <trkpt lat="54.38971119001508" lon="11.247398843988776">
        <time>2026-09-07T12:29:09.000Z</time>
        <extensions>
          <gpxtpx:TrackPointExtension>
            <gpxtpx:speed>2.099</gpxtpx:speed>
          </gpxtpx:TrackPointExtension>
        </extensions>
      </trkpt>
      <trkpt lat="54.38987874425948" lon="11.242960123345256">
        <time>2026-09-07T12:31:26.000Z</time>
        <extensions>
          <gpxtpx:TrackPointExtension>
            <gpxtpx:speed>2.286</gpxtpx:speed>
          </gpxtpx:TrackPointExtension>
        </extensions>
      </trkpt>
      <trkpt lat="54.38978939317167" lon="11.236856169998646">
        <time>2026-09-07T12:34:32.000Z</time>
        <extensions>
          <gpxtpx:TrackPointExtension>
            <gpxtpx:speed>2.09</gpxtpx:speed>
          </gpxtpx:TrackPointExtension>
        </extensions>
      </trkpt>
      <trkpt lat="54.39003825187683" lon="11.232353579252958">
        <time>2026-09-07T12:36:47.000Z</time>
        <extensions>
          <gpxtpx:TrackPointExtension>
            <gpxtpx:speed>2.155</gpxtpx:speed>
          </gpxtpx:TrackPointExtension>
        </extensions>
      </trkpt>
      <trkpt lat="54.389779502525926" lon="11.228759419173002">
        <time>2026-09-07T12:38:37.000Z</time>
        <extensions>
          <gpxtpx:TrackPointExtension>
            <gpxtpx:speed>2.146</gpxtpx:speed>
          </gpxtpx:TrackPointExtension>
        </extensions>
      </trkpt>
      <trkpt lat="54.38974446617067" lon="11.222823606804013">
        <time>2026-09-07T12:41:35.000Z</time>
        <extensions>
          <gpxtpx:TrackPointExtension>
            <gpxtpx:speed>2.183</gpxtpx:speed>
          </gpxtpx:TrackPointExtension>
        </extensions>
      </trkpt>
      <trkpt lat="54.389473143965006" lon="11.216765837743878">
        <time>2026-09-07T12:44:37.000Z</time>
        <extensions>
          <gpxtpx:TrackPointExtension>
            <gpxtpx:speed>2.081</gpxtpx:speed>
          </gpxtpx:TrackPointExtension>
        </extensions>
      </trkpt>
      <trkpt lat="54.38826355151832" lon="11.204032050445676">
        <time>2026-09-07T12:50:50.000Z</time>
        <extensions>
          <gpxtpx:TrackPointExtension>
            <gpxtpx:speed>2.193</gpxtpx:speed>
          </gpxtpx:TrackPointExtension>
        </extensions>
      </trkpt>
      <trkpt lat="54.38789131119847" lon="11.191544607281685">
        <time>2026-09-07T12:56:30.000Z</time>
        <extensions>
          <gpxtpx:TrackPointExtension>
            <gpxtpx:speed>2.398</gpxtpx:speed>
          </gpxtpx:TrackPointExtension>
        </extensions>
      </trkpt>
      <trkpt lat="54.387396359816194" lon="11.186803886666894">
        <time>2026-09-07T12:58:33.000Z</time>
        <extensions>
          <gpxtpx:TrackPointExtension>
            <gpxtpx:speed>2.491</gpxtpx:speed>
          </gpxtpx:TrackPointExtension>
        </extensions>
      </trkpt>
      <trkpt lat="54.38484692014754" lon="11.171122435480356">
        <time>2026-09-07T13:05:27.000Z</time>
        <extensions>
          <gpxtpx:TrackPointExtension>
            <gpxtpx:speed>2.538</gpxtpx:speed>
          </gpxtpx:TrackPointExtension>
        </extensions>
      </trkpt>
      <trkpt lat="54.384387508034706" lon="11.167816948145628">
        <time>2026-09-07T13:06:51.000Z</time>
        <extensions>
          <gpxtpx:TrackPointExtension>
            <gpxtpx:speed>2.51</gpxtpx:speed>
          </gpxtpx:TrackPointExtension>
        </extensions>
      </trkpt>
      <trkpt lat="54.38422288745642" lon="11.165264323353767">
        <time>2026-09-07T13:07:55.000Z</time>
        <extensions>
          <gpxtpx:TrackPointExtension>
            <gpxtpx:speed>2.463</gpxtpx:speed>
          </gpxtpx:TrackPointExtension>
        </extensions>
      </trkpt>
      <trkpt lat="54.386490443721414" lon="11.15246339701116">
        <time>2026-09-07T13:13:31.000Z</time>
        <extensions>
          <gpxtpx:TrackPointExtension>
            <gpxtpx:speed>2.491</gpxtpx:speed>
          </gpxtpx:TrackPointExtension>
        </extensions>
      </trkpt>
      <trkpt lat="54.3899139482528" lon="11.143557541072369">
        <time>2026-09-07T13:18:13.000Z</time>
        <extensions>
          <gpxtpx:TrackPointExtension>
            <gpxtpx:speed>2.473</gpxtpx:speed>
          </gpxtpx:TrackPointExtension>
        </extensions>
      </trkpt>
      <trkpt lat="54.39338916912675" lon="11.135620046406984">
        <time>2026-09-07T13:22:51.000Z</time>
        <extensions>
          <gpxtpx:TrackPointExtension>
            <gpxtpx:speed>2.379</gpxtpx:speed>
          </gpxtpx:TrackPointExtension>
        </extensions>
      </trkpt>
      <trkpt lat="54.396902276203036" lon="11.12677663564682">
        <time>2026-09-07T13:27:34.000Z</time>
        <extensions>
          <gpxtpx:TrackPointExtension>
            <gpxtpx:speed>2.529</gpxtpx:speed>
          </gpxtpx:TrackPointExtension>
        </extensions>
      </trkpt>
      <trkpt lat="54.39774541184306" lon="11.12503806129098">
        <time>2026-09-07T13:28:33.000Z</time>
        <extensions>
          <gpxtpx:TrackPointExtension>
            <gpxtpx:speed>2.417</gpxtpx:speed>
          </gpxtpx:TrackPointExtension>
        </extensions>
      </trkpt>
      <trkpt lat="54.39945364370942" lon="11.119046928361058">
        <time>2026-09-07T13:31:34.000Z</time>
        <extensions>
          <gpxtpx:TrackPointExtension>
            <gpxtpx:speed>2.454</gpxtpx:speed>
          </gpxtpx:TrackPointExtension>
        </extensions>
      </trkpt>
      <trkpt lat="54.40072291530669" lon="11.11619833856821">
        <time>2026-09-07T13:33:13.000Z</time>
        <extensions>
          <gpxtpx:TrackPointExtension>
            <gpxtpx:speed>2.267</gpxtpx:speed>
          </gpxtpx:TrackPointExtension>
        </extensions>
      </trkpt>
      <trkpt lat="54.401302859187126" lon="11.113091921433806">
        <time>2026-09-07T13:34:41.000Z</time>
        <extensions>
          <gpxtpx:TrackPointExtension>
            <gpxtpx:speed>2.473</gpxtpx:speed>
          </gpxtpx:TrackPointExtension>
        </extensions>
      </trkpt>
      <trkpt lat="54.40202479250729" lon="11.110503589734435">
        <time>2026-09-07T13:35:58.000Z</time>
        <extensions>
          <gpxtpx:TrackPointExtension>
            <gpxtpx:speed>2.249</gpxtpx:speed>
          </gpxtpx:TrackPointExtension>
        </extensions>
      </trkpt>
      <trkpt lat="54.40259509719908" lon="11.106881517916918">
        <time>2026-09-07T13:37:38.000Z</time>
        <extensions>
          <gpxtpx:TrackPointExtension>
            <gpxtpx:speed>2.342</gpxtpx:speed>
          </gpxtpx:TrackPointExtension>
        </extensions>
      </trkpt>
      <trkpt lat="54.40239426679909" lon="11.103921867907047">
        <time>2026-09-07T13:38:52.000Z</time>
        <extensions>
          <gpxtpx:TrackPointExtension>
            <gpxtpx:speed>2.883</gpxtpx:speed>
          </gpxtpx:TrackPointExtension>
        </extensions>
      </trkpt>
      <trkpt lat="54.40194164402783" lon="11.101642828434706">
        <time>2026-09-07T13:39:53.000Z</time>
        <extensions>
          <gpxtpx:TrackPointExtension>
            <gpxtpx:speed>2.976</gpxtpx:speed>
          </gpxtpx:TrackPointExtension>
        </extensions>
      </trkpt>
      <trkpt lat="54.40260331146419" lon="11.096122758463025">
        <time>2026-09-07T13:42:44.000Z</time>
        <extensions>
          <gpxtpx:TrackPointExtension>
            <gpxtpx:speed>1.978</gpxtpx:speed>
          </gpxtpx:TrackPointExtension>
        </extensions>
      </trkpt>
      <trkpt lat="54.400784354656935" lon="11.09007186256349">
        <time>2026-09-07T13:45:52.000Z</time>
        <extensions>
          <gpxtpx:TrackPointExtension>
            <gpxtpx:speed>2.491</gpxtpx:speed>
          </gpxtpx:TrackPointExtension>
        </extensions>
      </trkpt>
      <trkpt lat="54.397252555936575" lon="11.082043843343854">
        <time>2026-09-07T13:50:56.000Z</time>
        <extensions>
          <gpxtpx:TrackPointExtension>
            <gpxtpx:speed>2.23</gpxtpx:speed>
          </gpxtpx:TrackPointExtension>
        </extensions>
      </trkpt>
      <trkpt lat="54.395966017618775" lon="11.078393692150712">
        <time>2026-09-07T13:53:01.000Z</time>
        <extensions>
          <gpxtpx:TrackPointExtension>
            <gpxtpx:speed>2.333</gpxtpx:speed>
          </gpxtpx:TrackPointExtension>
        </extensions>
      </trkpt>
      <trkpt lat="54.38545502722263" lon="11.053724912926555">
        <time>2026-09-07T14:07:43.000Z</time>
        <extensions>
          <gpxtpx:TrackPointExtension>
            <gpxtpx:speed>2.482</gpxtpx:speed>
          </gpxtpx:TrackPointExtension>
        </extensions>
      </trkpt>
      <trkpt lat="54.383138520643115" lon="11.045630760490894">
        <time>2026-09-07T14:11:29.000Z</time>
        <extensions>
          <gpxtpx:TrackPointExtension>
            <gpxtpx:speed>2.538</gpxtpx:speed>
          </gpxtpx:TrackPointExtension>
        </extensions>
      </trkpt>
      <trkpt lat="54.380805836990476" lon="11.04080244898796">
        <time>2026-09-07T14:14:22.000Z</time>
        <extensions>
          <gpxtpx:TrackPointExtension>
            <gpxtpx:speed>2.435</gpxtpx:speed>
          </gpxtpx:TrackPointExtension>
        </extensions>
      </trkpt>
      <trkpt lat="54.37971937470138" lon="11.037054732441902">
        <time>2026-09-07T14:16:26.000Z</time>
        <extensions>
          <gpxtpx:TrackPointExtension>
            <gpxtpx:speed>2.183</gpxtpx:speed>
          </gpxtpx:TrackPointExtension>
        </extensions>
      </trkpt>
      <trkpt lat="54.37907279469073" lon="11.035548252984881">
        <time>2026-09-07T14:17:37.000Z</time>
        <extensions>
          <gpxtpx:TrackPointExtension>
            <gpxtpx:speed>1.754</gpxtpx:speed>
          </gpxtpx:TrackPointExtension>
        </extensions>
      </trkpt>
      <trkpt lat="54.37820300459862" lon="11.034144032746553">
        <time>2026-09-07T14:19:12.000Z</time>
        <extensions>
          <gpxtpx:TrackPointExtension>
            <gpxtpx:speed>1.428</gpxtpx:speed>
          </gpxtpx:TrackPointExtension>
        </extensions>
      </trkpt>
      <trkpt lat="54.37750546261668" lon="11.031839679926634">
        <time>2026-09-07T14:20:54.000Z</time>
        <extensions>
          <gpxtpx:TrackPointExtension>
            <gpxtpx:speed>2.015</gpxtpx:speed>
          </gpxtpx:TrackPointExtension>
        </extensions>
      </trkpt>
      <trkpt lat="54.37537503428757" lon="11.02670299820602">
        <time>2026-09-07T14:24:24.000Z</time>
        <extensions>
          <gpxtpx:TrackPointExtension>
            <gpxtpx:speed>2.034</gpxtpx:speed>
          </gpxtpx:TrackPointExtension>
        </extensions>
      </trkpt>
      <trkpt lat="54.37437264248729" lon="11.022657388821244">
        <time>2026-09-07T14:26:43.000Z</time>
        <extensions>
          <gpxtpx:TrackPointExtension>
            <gpxtpx:speed>1.997</gpxtpx:speed>
          </gpxtpx:TrackPointExtension>
        </extensions>
      </trkpt>
      <trkpt lat="54.37359823845327" lon="11.020390167832375">
        <time>2026-09-07T14:28:11.000Z</time>
        <extensions>
          <gpxtpx:TrackPointExtension>
            <gpxtpx:speed>2.025</gpxtpx:speed>
          </gpxtpx:TrackPointExtension>
        </extensions>
      </trkpt>
      <trkpt lat="54.37340981326997" lon="11.017957404255867">
        <time>2026-09-07T14:29:24.000Z</time>
        <extensions>
          <gpxtpx:TrackPointExtension>
            <gpxtpx:speed>2.277</gpxtpx:speed>
          </gpxtpx:TrackPointExtension>
        </extensions>
      </trkpt>
      <trkpt lat="54.37325198203325" lon="11.0101951751858">
        <time>2026-09-07T14:33:14.000Z</time>
        <extensions>
          <gpxtpx:TrackPointExtension>
            <gpxtpx:speed>2.267</gpxtpx:speed>
          </gpxtpx:TrackPointExtension>
        </extensions>
      </trkpt>
      <trkpt lat="54.37343152239919" lon="11.004099436104298">
        <time>2026-09-07T14:36:12.000Z</time>
        <extensions>
          <gpxtpx:TrackPointExtension>
            <gpxtpx:speed>2.286</gpxtpx:speed>
          </gpxtpx:TrackPointExtension>
        </extensions>
      </trkpt>
      <trkpt lat="54.37496792525053" lon="10.986796086654067">
        <time>2026-09-07T14:44:54.000Z</time>
        <extensions>
          <gpxtpx:TrackPointExtension>
            <gpxtpx:speed>1.12</gpxtpx:speed>
          </gpxtpx:TrackPointExtension>
        </extensions>
      </trkpt>
    </trkseg>
  </trk>
</gpx>
